<?xml version="1.0"?>
<gpx xmlns="http://www.topografix.com/GPX/1/1" xmlns:xsi="http://www.w3.org/2001/XMLSchema-instance" version="1.1" creator="AllTrails.com" xsi:schemaLocation="http://www.topografix.com/GPX/1/1 http://www.topografix.com/GPX/1/1/gpx.xsd">
  <metadata>
    <name><![CDATA[Itinerario 4 - via del cibo e dei produttori agricoli]]></name>
    <desc><![CDATA[]]></desc>
    <link href="http://www.alltrails.com">
      <text>AllTrails, LLC</text>
    </link>
    <bounds minlat="40.13106" minlon="15.51659" maxlat="40.14519" maxlon="15.5668"/>
  </metadata>
  <trk>
    <name><![CDATA[Itinerario 4 - via del cibo e dei produttori agricoli]]></name>
    <src>AllTrails</src>
    <trkseg>
      <trkpt lat="40.14011" lon="15.55522">
        <ele>282.23</ele>
      </trkpt>
      <trkpt lat="40.14011" lon="15.55521">
        <ele>282.13</ele>
      </trkpt>
      <trkpt lat="40.14007" lon="15.55521">
        <ele>282.63</ele>
      </trkpt>
      <trkpt lat="40.14003" lon="15.55518">
        <ele>282.9</ele>
      </trkpt>
      <trkpt lat="40.14004" lon="15.55513">
        <ele>282.35</ele>
      </trkpt>
      <trkpt lat="40.14007" lon="15.55509">
        <ele>281.55</ele>
      </trkpt>
      <trkpt lat="40.14033" lon="15.55486">
        <ele>274.04</ele>
      </trkpt>
      <trkpt lat="40.1404" lon="15.55481">
        <ele>273.69</ele>
      </trkpt>
      <trkpt lat="40.14045" lon="15.55477">
        <ele>273.47</ele>
      </trkpt>
      <trkpt lat="40.14049" lon="15.55474">
        <ele>273.41</ele>
      </trkpt>
      <trkpt lat="40.14051" lon="15.5547">
        <ele>272.78</ele>
      </trkpt>
      <trkpt lat="40.14053" lon="15.5546">
        <ele>270.55</ele>
      </trkpt>
      <trkpt lat="40.14053" lon="15.5546">
        <ele>270.55</ele>
      </trkpt>
      <trkpt lat="40.14053" lon="15.5546">
        <ele>270.55</ele>
      </trkpt>
      <trkpt lat="40.1405" lon="15.55456">
        <ele>269.11</ele>
      </trkpt>
      <trkpt lat="40.14047" lon="15.55452">
        <ele>267.67</ele>
      </trkpt>
      <trkpt lat="40.14046" lon="15.55452">
        <ele>267.53</ele>
      </trkpt>
      <trkpt lat="40.14043" lon="15.55448">
        <ele>266.09</ele>
      </trkpt>
      <trkpt lat="40.14038" lon="15.55447">
        <ele>265.12</ele>
      </trkpt>
      <trkpt lat="40.14024" lon="15.55445">
        <ele>263.01</ele>
      </trkpt>
      <trkpt lat="40.14014" lon="15.55441">
        <ele>261.82</ele>
      </trkpt>
      <trkpt lat="40.13999" lon="15.5543">
        <ele>258.56</ele>
      </trkpt>
      <trkpt lat="40.14004" lon="15.55427">
        <ele>258.02</ele>
      </trkpt>
      <trkpt lat="40.14007" lon="15.55427">
        <ele>258.33</ele>
      </trkpt>
      <trkpt lat="40.14013" lon="15.55431">
        <ele>259.76</ele>
      </trkpt>
      <trkpt lat="40.14013" lon="15.55431">
        <ele>259.76</ele>
      </trkpt>
      <trkpt lat="40.14013" lon="15.55431">
        <ele>259.76</ele>
      </trkpt>
      <trkpt lat="40.14022" lon="15.55438">
        <ele>261.72</ele>
      </trkpt>
      <trkpt lat="40.14029" lon="15.55441">
        <ele>262.67</ele>
      </trkpt>
      <trkpt lat="40.14038" lon="15.55441">
        <ele>263.93</ele>
      </trkpt>
      <trkpt lat="40.14043" lon="15.55443">
        <ele>264.96</ele>
      </trkpt>
      <trkpt lat="40.14046" lon="15.55444">
        <ele>265.55</ele>
      </trkpt>
      <trkpt lat="40.14049" lon="15.55447">
        <ele>266.7</ele>
      </trkpt>
      <trkpt lat="40.14051" lon="15.55449">
        <ele>267.49</ele>
      </trkpt>
      <trkpt lat="40.14055" lon="15.55442">
        <ele>266.48</ele>
      </trkpt>
      <trkpt lat="40.14057" lon="15.55435">
        <ele>265.4</ele>
      </trkpt>
      <trkpt lat="40.14057" lon="15.55435">
        <ele>265.4</ele>
      </trkpt>
      <trkpt lat="40.14057" lon="15.55435">
        <ele>265.4</ele>
      </trkpt>
      <trkpt lat="40.14059" lon="15.55425">
        <ele>263.75</ele>
      </trkpt>
      <trkpt lat="40.14062" lon="15.55417">
        <ele>262.52</ele>
      </trkpt>
      <trkpt lat="40.14079" lon="15.5539">
        <ele>259.85</ele>
      </trkpt>
      <trkpt lat="40.14082" lon="15.5538">
        <ele>258.61</ele>
      </trkpt>
      <trkpt lat="40.14084" lon="15.5537">
        <ele>257.34</ele>
      </trkpt>
      <trkpt lat="40.14085" lon="15.55356">
        <ele>255.37</ele>
      </trkpt>
      <trkpt lat="40.14084" lon="15.55344">
        <ele>253.57</ele>
      </trkpt>
      <trkpt lat="40.14081" lon="15.5533">
        <ele>251.33</ele>
      </trkpt>
      <trkpt lat="40.14075" lon="15.55305">
        <ele>246.92</ele>
      </trkpt>
      <trkpt lat="40.14074" lon="15.55302">
        <ele>246.49</ele>
      </trkpt>
      <trkpt lat="40.14075" lon="15.55297">
        <ele>245.8</ele>
      </trkpt>
      <trkpt lat="40.14075" lon="15.55297">
        <ele>245.8</ele>
      </trkpt>
      <trkpt lat="40.14075" lon="15.55297">
        <ele>245.8</ele>
      </trkpt>
      <trkpt lat="40.14074" lon="15.55302">
        <ele>246.49</ele>
      </trkpt>
      <trkpt lat="40.14075" lon="15.55305">
        <ele>246.92</ele>
      </trkpt>
      <trkpt lat="40.14081" lon="15.5533">
        <ele>251.33</ele>
      </trkpt>
      <trkpt lat="40.14084" lon="15.55344">
        <ele>253.57</ele>
      </trkpt>
      <trkpt lat="40.14085" lon="15.55356">
        <ele>255.37</ele>
      </trkpt>
      <trkpt lat="40.14084" lon="15.5537">
        <ele>257.34</ele>
      </trkpt>
      <trkpt lat="40.14082" lon="15.5538">
        <ele>258.61</ele>
      </trkpt>
      <trkpt lat="40.14082" lon="15.55382">
        <ele>258.9</ele>
      </trkpt>
      <trkpt lat="40.14082" lon="15.55382">
        <ele>258.9</ele>
      </trkpt>
      <trkpt lat="40.14082" lon="15.55382">
        <ele>258.9</ele>
      </trkpt>
      <trkpt lat="40.14079" lon="15.5539">
        <ele>259.85</ele>
      </trkpt>
      <trkpt lat="40.14062" lon="15.55417">
        <ele>262.52</ele>
      </trkpt>
      <trkpt lat="40.14059" lon="15.55425">
        <ele>263.75</ele>
      </trkpt>
      <trkpt lat="40.14057" lon="15.55436">
        <ele>265.58</ele>
      </trkpt>
      <trkpt lat="40.14055" lon="15.55442">
        <ele>266.48</ele>
      </trkpt>
      <trkpt lat="40.14051" lon="15.55449">
        <ele>267.49</ele>
      </trkpt>
      <trkpt lat="40.14051" lon="15.55449">
        <ele>267.49</ele>
      </trkpt>
      <trkpt lat="40.14051" lon="15.55449">
        <ele>267.49</ele>
      </trkpt>
      <trkpt lat="40.14049" lon="15.55447">
        <ele>266.7</ele>
      </trkpt>
      <trkpt lat="40.14046" lon="15.55444">
        <ele>265.55</ele>
      </trkpt>
      <trkpt lat="40.14043" lon="15.55443">
        <ele>264.96</ele>
      </trkpt>
      <trkpt lat="40.14038" lon="15.55441">
        <ele>263.93</ele>
      </trkpt>
      <trkpt lat="40.14029" lon="15.55441">
        <ele>262.67</ele>
      </trkpt>
      <trkpt lat="40.14022" lon="15.55438">
        <ele>261.72</ele>
      </trkpt>
      <trkpt lat="40.14013" lon="15.55431">
        <ele>259.76</ele>
      </trkpt>
      <trkpt lat="40.14007" lon="15.55427">
        <ele>258.33</ele>
      </trkpt>
      <trkpt lat="40.14004" lon="15.55427">
        <ele>258.02</ele>
      </trkpt>
      <trkpt lat="40.13999" lon="15.5543">
        <ele>258.56</ele>
      </trkpt>
      <trkpt lat="40.13988" lon="15.55423">
        <ele>258.62</ele>
      </trkpt>
      <trkpt lat="40.13988" lon="15.55423">
        <ele>258.62</ele>
      </trkpt>
      <trkpt lat="40.13988" lon="15.55423">
        <ele>258.62</ele>
      </trkpt>
      <trkpt lat="40.13984" lon="15.55421">
        <ele>258.67</ele>
      </trkpt>
      <trkpt lat="40.13958" lon="15.55417">
        <ele>261.66</ele>
      </trkpt>
      <trkpt lat="40.13935" lon="15.5542">
        <ele>264.2</ele>
      </trkpt>
      <trkpt lat="40.13935" lon="15.5542">
        <ele>264.2</ele>
      </trkpt>
      <trkpt lat="40.13935" lon="15.5542">
        <ele>264.2</ele>
      </trkpt>
      <trkpt lat="40.13924" lon="15.55422">
        <ele>264.01</ele>
      </trkpt>
      <trkpt lat="40.13915" lon="15.55422">
        <ele>263.45</ele>
      </trkpt>
      <trkpt lat="40.13896" lon="15.55414">
        <ele>260.68</ele>
      </trkpt>
      <trkpt lat="40.13887" lon="15.55412">
        <ele>260.34</ele>
      </trkpt>
      <trkpt lat="40.13878" lon="15.55412">
        <ele>261.2</ele>
      </trkpt>
      <trkpt lat="40.13866" lon="15.55419">
        <ele>263.77</ele>
      </trkpt>
      <trkpt lat="40.13864" lon="15.55421">
        <ele>264.2</ele>
      </trkpt>
      <trkpt lat="40.13861" lon="15.55425">
        <ele>264.9</ele>
      </trkpt>
      <trkpt lat="40.13861" lon="15.55425">
        <ele>264.9</ele>
      </trkpt>
      <trkpt lat="40.13861" lon="15.55425">
        <ele>264.9</ele>
      </trkpt>
      <trkpt lat="40.13858" lon="15.55431">
        <ele>265.44</ele>
      </trkpt>
      <trkpt lat="40.13857" lon="15.55443">
        <ele>266.7</ele>
      </trkpt>
      <trkpt lat="40.13858" lon="15.55491">
        <ele>270.04</ele>
      </trkpt>
      <trkpt lat="40.1386" lon="15.55508">
        <ele>270.11</ele>
      </trkpt>
      <trkpt lat="40.13868" lon="15.55526">
        <ele>270.07</ele>
      </trkpt>
      <trkpt lat="40.13888" lon="15.55554">
        <ele>271.75</ele>
      </trkpt>
      <trkpt lat="40.13929" lon="15.55599">
        <ele>265.57</ele>
      </trkpt>
      <trkpt lat="40.1395" lon="15.55619">
        <ele>259.88</ele>
      </trkpt>
      <trkpt lat="40.13958" lon="15.55624">
        <ele>258.56</ele>
      </trkpt>
      <trkpt lat="40.13994" lon="15.55636">
        <ele>263.78</ele>
      </trkpt>
      <trkpt lat="40.13996" lon="15.55638">
        <ele>263.93</ele>
      </trkpt>
      <trkpt lat="40.13996" lon="15.55638">
        <ele>263.93</ele>
      </trkpt>
      <trkpt lat="40.13996" lon="15.55638">
        <ele>263.93</ele>
      </trkpt>
      <trkpt lat="40.14029" lon="15.55667">
        <ele>267.28</ele>
      </trkpt>
      <trkpt lat="40.14034" lon="15.55678">
        <ele>266.34</ele>
      </trkpt>
      <trkpt lat="40.14037" lon="15.55699">
        <ele>262.73</ele>
      </trkpt>
      <trkpt lat="40.14038" lon="15.55728">
        <ele>257.9</ele>
      </trkpt>
      <trkpt lat="40.14038" lon="15.55734">
        <ele>257.46</ele>
      </trkpt>
      <trkpt lat="40.14021" lon="15.55794">
        <ele>254.11</ele>
      </trkpt>
      <trkpt lat="40.1402" lon="15.55819">
        <ele>255.24</ele>
      </trkpt>
      <trkpt lat="40.14023" lon="15.55848">
        <ele>255.48</ele>
      </trkpt>
      <trkpt lat="40.14042" lon="15.55929">
        <ele>250.83</ele>
      </trkpt>
      <trkpt lat="40.14049" lon="15.55966">
        <ele>249.51</ele>
      </trkpt>
      <trkpt lat="40.14047" lon="15.55982">
        <ele>248.78</ele>
      </trkpt>
      <trkpt lat="40.14047" lon="15.55982">
        <ele>248.78</ele>
      </trkpt>
      <trkpt lat="40.14047" lon="15.55982">
        <ele>248.78</ele>
      </trkpt>
      <trkpt lat="40.14043" lon="15.56012">
        <ele>247.22</ele>
      </trkpt>
      <trkpt lat="40.14041" lon="15.56041">
        <ele>245.61</ele>
      </trkpt>
      <trkpt lat="40.14046" lon="15.56071">
        <ele>245.65</ele>
      </trkpt>
      <trkpt lat="40.1405" lon="15.56086">
        <ele>245.6</ele>
      </trkpt>
      <trkpt lat="40.14054" lon="15.56099">
        <ele>244.08</ele>
      </trkpt>
      <trkpt lat="40.14068" lon="15.5612">
        <ele>244.58</ele>
      </trkpt>
      <trkpt lat="40.14077" lon="15.56132">
        <ele>244.24</ele>
      </trkpt>
      <trkpt lat="40.14094" lon="15.56161">
        <ele>244.43</ele>
      </trkpt>
      <trkpt lat="40.1412" lon="15.56197">
        <ele>248.41</ele>
      </trkpt>
      <trkpt lat="40.14129" lon="15.56209">
        <ele>250.45</ele>
      </trkpt>
      <trkpt lat="40.14136" lon="15.56222">
        <ele>251.29</ele>
      </trkpt>
      <trkpt lat="40.14164" lon="15.56291">
        <ele>250.22</ele>
      </trkpt>
      <trkpt lat="40.14173" lon="15.56315">
        <ele>250.29</ele>
      </trkpt>
      <trkpt lat="40.14178" lon="15.56338">
        <ele>249.61</ele>
      </trkpt>
      <trkpt lat="40.14176" lon="15.56353">
        <ele>246.42</ele>
      </trkpt>
      <trkpt lat="40.14148" lon="15.56414">
        <ele>228.3</ele>
      </trkpt>
      <trkpt lat="40.14138" lon="15.56427">
        <ele>224.97</ele>
      </trkpt>
      <trkpt lat="40.14135" lon="15.5643">
        <ele>224.65</ele>
      </trkpt>
      <trkpt lat="40.14135" lon="15.5643">
        <ele>224.65</ele>
      </trkpt>
      <trkpt lat="40.14135" lon="15.5643">
        <ele>224.65</ele>
      </trkpt>
      <trkpt lat="40.14121" lon="15.56444">
        <ele>222.5</ele>
      </trkpt>
      <trkpt lat="40.14115" lon="15.56455">
        <ele>221.77</ele>
      </trkpt>
      <trkpt lat="40.14103" lon="15.56499">
        <ele>221.8</ele>
      </trkpt>
      <trkpt lat="40.14104" lon="15.56514">
        <ele>222.92</ele>
      </trkpt>
      <trkpt lat="40.14108" lon="15.56539">
        <ele>225.84</ele>
      </trkpt>
      <trkpt lat="40.14107" lon="15.56554">
        <ele>225.87</ele>
      </trkpt>
      <trkpt lat="40.14106" lon="15.56559">
        <ele>225.59</ele>
      </trkpt>
      <trkpt lat="40.14098" lon="15.56594">
        <ele>225.23</ele>
      </trkpt>
      <trkpt lat="40.1409" lon="15.56611">
        <ele>225.38</ele>
      </trkpt>
      <trkpt lat="40.14087" lon="15.56615">
        <ele>225.24</ele>
      </trkpt>
      <trkpt lat="40.14082" lon="15.56617">
        <ele>224.04</ele>
      </trkpt>
      <trkpt lat="40.14078" lon="15.56616">
        <ele>222.47</ele>
      </trkpt>
      <trkpt lat="40.14076" lon="15.56613">
        <ele>221.08</ele>
      </trkpt>
      <trkpt lat="40.14074" lon="15.56609">
        <ele>219.44</ele>
      </trkpt>
      <trkpt lat="40.14073" lon="15.56605">
        <ele>218.09</ele>
      </trkpt>
      <trkpt lat="40.14074" lon="15.56602">
        <ele>217.68</ele>
      </trkpt>
      <trkpt lat="40.14075" lon="15.566">
        <ele>217.54</ele>
      </trkpt>
      <trkpt lat="40.14078" lon="15.56596">
        <ele>217.69</ele>
      </trkpt>
      <trkpt lat="40.14089" lon="15.56586">
        <ele>219.98</ele>
      </trkpt>
      <trkpt lat="40.14093" lon="15.56579">
        <ele>220.82</ele>
      </trkpt>
      <trkpt lat="40.14098" lon="15.56558">
        <ele>221.56</ele>
      </trkpt>
      <trkpt lat="40.14099" lon="15.56541">
        <ele>221.37</ele>
      </trkpt>
      <trkpt lat="40.14095" lon="15.5652">
        <ele>218.6</ele>
      </trkpt>
      <trkpt lat="40.14095" lon="15.56507">
        <ele>218.13</ele>
      </trkpt>
      <trkpt lat="40.141" lon="15.56463">
        <ele>215.87</ele>
      </trkpt>
      <trkpt lat="40.141" lon="15.56463">
        <ele>215.87</ele>
      </trkpt>
      <trkpt lat="40.141" lon="15.56463">
        <ele>215.87</ele>
      </trkpt>
      <trkpt lat="40.14104" lon="15.56439">
        <ele>213.5</ele>
      </trkpt>
      <trkpt lat="40.1411" lon="15.56422">
        <ele>211.95</ele>
      </trkpt>
      <trkpt lat="40.14123" lon="15.56396">
        <ele>213.48</ele>
      </trkpt>
      <trkpt lat="40.14127" lon="15.5638">
        <ele>213.97</ele>
      </trkpt>
      <trkpt lat="40.14127" lon="15.56359">
        <ele>213.38</ele>
      </trkpt>
      <trkpt lat="40.14104" lon="15.56281">
        <ele>212.47</ele>
      </trkpt>
      <trkpt lat="40.14089" lon="15.56243">
        <ele>214.84</ele>
      </trkpt>
      <trkpt lat="40.14085" lon="15.56237">
        <ele>215.49</ele>
      </trkpt>
      <trkpt lat="40.14083" lon="15.56234">
        <ele>215.86</ele>
      </trkpt>
      <trkpt lat="40.1408" lon="15.56233">
        <ele>214.51</ele>
      </trkpt>
      <trkpt lat="40.14076" lon="15.56232">
        <ele>212.46</ele>
      </trkpt>
      <trkpt lat="40.14072" lon="15.56232">
        <ele>209.94</ele>
      </trkpt>
      <trkpt lat="40.14068" lon="15.56235">
        <ele>206.51</ele>
      </trkpt>
      <trkpt lat="40.14068" lon="15.56235">
        <ele>206.51</ele>
      </trkpt>
      <trkpt lat="40.14068" lon="15.56235">
        <ele>206.51</ele>
      </trkpt>
      <trkpt lat="40.14067" lon="15.56237">
        <ele>205.33</ele>
      </trkpt>
      <trkpt lat="40.14066" lon="15.56242">
        <ele>203.37</ele>
      </trkpt>
      <trkpt lat="40.14065" lon="15.56246">
        <ele>201.81</ele>
      </trkpt>
      <trkpt lat="40.14068" lon="15.56256">
        <ele>200.99</ele>
      </trkpt>
      <trkpt lat="40.14075" lon="15.56281">
        <ele>199.29</ele>
      </trkpt>
      <trkpt lat="40.14078" lon="15.56296">
        <ele>198.62</ele>
      </trkpt>
      <trkpt lat="40.14083" lon="15.56341">
        <ele>199.93</ele>
      </trkpt>
      <trkpt lat="40.14082" lon="15.56354">
        <ele>199.81</ele>
      </trkpt>
      <trkpt lat="40.14078" lon="15.56364">
        <ele>199.34</ele>
      </trkpt>
      <trkpt lat="40.14059" lon="15.56392">
        <ele>197.29</ele>
      </trkpt>
      <trkpt lat="40.14054" lon="15.56406">
        <ele>196.48</ele>
      </trkpt>
      <trkpt lat="40.14053" lon="15.56428">
        <ele>196.04</ele>
      </trkpt>
      <trkpt lat="40.14058" lon="15.56455">
        <ele>197.49</ele>
      </trkpt>
      <trkpt lat="40.14063" lon="15.56482">
        <ele>199.51</ele>
      </trkpt>
      <trkpt lat="40.14063" lon="15.56482">
        <ele>199.51</ele>
      </trkpt>
      <trkpt lat="40.14063" lon="15.56482">
        <ele>199.51</ele>
      </trkpt>
      <trkpt lat="40.14067" lon="15.56502">
        <ele>202.08</ele>
      </trkpt>
      <trkpt lat="40.14068" lon="15.56521">
        <ele>203.37</ele>
      </trkpt>
      <trkpt lat="40.14064" lon="15.56536">
        <ele>202.08</ele>
      </trkpt>
      <trkpt lat="40.14051" lon="15.56565">
        <ele>198.75</ele>
      </trkpt>
      <trkpt lat="40.14041" lon="15.56575">
        <ele>194.07</ele>
      </trkpt>
      <trkpt lat="40.14004" lon="15.56603">
        <ele>186.62</ele>
      </trkpt>
      <trkpt lat="40.1399" lon="15.5662">
        <ele>186.58</ele>
      </trkpt>
      <trkpt lat="40.13985" lon="15.56636">
        <ele>186.9</ele>
      </trkpt>
      <trkpt lat="40.13986" lon="15.56655">
        <ele>188.33</ele>
      </trkpt>
      <trkpt lat="40.13984" lon="15.56672">
        <ele>188.98</ele>
      </trkpt>
      <trkpt lat="40.1398" lon="15.56677">
        <ele>188.12</ele>
      </trkpt>
      <trkpt lat="40.13971" lon="15.5668">
        <ele>185.11</ele>
      </trkpt>
      <trkpt lat="40.13966" lon="15.56679">
        <ele>183.66</ele>
      </trkpt>
      <trkpt lat="40.13961" lon="15.56673">
        <ele>181.76</ele>
      </trkpt>
      <trkpt lat="40.13939" lon="15.56609">
        <ele>172.31</ele>
      </trkpt>
      <trkpt lat="40.13937" lon="15.56591">
        <ele>170.26</ele>
      </trkpt>
      <trkpt lat="40.1394" lon="15.5658">
        <ele>170.9</ele>
      </trkpt>
      <trkpt lat="40.13949" lon="15.56575">
        <ele>173.63</ele>
      </trkpt>
      <trkpt lat="40.13972" lon="15.56578">
        <ele>178.57</ele>
      </trkpt>
      <trkpt lat="40.13987" lon="15.56578">
        <ele>179.37</ele>
      </trkpt>
      <trkpt lat="40.14" lon="15.56572">
        <ele>178.96</ele>
      </trkpt>
      <trkpt lat="40.14008" lon="15.56565">
        <ele>179.43</ele>
      </trkpt>
      <trkpt lat="40.14012" lon="15.56554">
        <ele>178.42</ele>
      </trkpt>
      <trkpt lat="40.14013" lon="15.56533">
        <ele>176.37</ele>
      </trkpt>
      <trkpt lat="40.1401" lon="15.56511">
        <ele>176.15</ele>
      </trkpt>
      <trkpt lat="40.14005" lon="15.56499">
        <ele>175.86</ele>
      </trkpt>
      <trkpt lat="40.13984" lon="15.56454">
        <ele>168.49</ele>
      </trkpt>
      <trkpt lat="40.13979" lon="15.56434">
        <ele>166.16</ele>
      </trkpt>
      <trkpt lat="40.13975" lon="15.5637">
        <ele>162.59</ele>
      </trkpt>
      <trkpt lat="40.13969" lon="15.56335">
        <ele>158.67</ele>
      </trkpt>
      <trkpt lat="40.13969" lon="15.56335">
        <ele>158.67</ele>
      </trkpt>
      <trkpt lat="40.13969" lon="15.56335">
        <ele>158.67</ele>
      </trkpt>
      <trkpt lat="40.13968" lon="15.56329">
        <ele>158.0</ele>
      </trkpt>
      <trkpt lat="40.1396" lon="15.56305">
        <ele>153.3</ele>
      </trkpt>
      <trkpt lat="40.13946" lon="15.56279">
        <ele>149.38</ele>
      </trkpt>
      <trkpt lat="40.13934" lon="15.56254">
        <ele>146.25</ele>
      </trkpt>
      <trkpt lat="40.1393" lon="15.56241">
        <ele>145.42</ele>
      </trkpt>
      <trkpt lat="40.13927" lon="15.56219">
        <ele>145.82</ele>
      </trkpt>
      <trkpt lat="40.13922" lon="15.56191">
        <ele>145.99</ele>
      </trkpt>
      <trkpt lat="40.13915" lon="15.5616">
        <ele>148.69</ele>
      </trkpt>
      <trkpt lat="40.13913" lon="15.56156">
        <ele>148.15</ele>
      </trkpt>
      <trkpt lat="40.13911" lon="15.56153">
        <ele>147.56</ele>
      </trkpt>
      <trkpt lat="40.13908" lon="15.56151">
        <ele>146.58</ele>
      </trkpt>
      <trkpt lat="40.13906" lon="15.5615">
        <ele>145.91</ele>
      </trkpt>
      <trkpt lat="40.13902" lon="15.5615">
        <ele>144.53</ele>
      </trkpt>
      <trkpt lat="40.139" lon="15.56151">
        <ele>143.83</ele>
      </trkpt>
      <trkpt lat="40.13897" lon="15.56153">
        <ele>142.77</ele>
      </trkpt>
      <trkpt lat="40.13894" lon="15.56157">
        <ele>141.72</ele>
      </trkpt>
      <trkpt lat="40.13893" lon="15.56163">
        <ele>141.35</ele>
      </trkpt>
      <trkpt lat="40.13893" lon="15.56163">
        <ele>141.35</ele>
      </trkpt>
      <trkpt lat="40.13893" lon="15.56163">
        <ele>141.35</ele>
      </trkpt>
      <trkpt lat="40.13893" lon="15.56165">
        <ele>141.34</ele>
      </trkpt>
      <trkpt lat="40.13909" lon="15.56212">
        <ele>140.28</ele>
      </trkpt>
      <trkpt lat="40.13914" lon="15.56234">
        <ele>139.85</ele>
      </trkpt>
      <trkpt lat="40.13915" lon="15.56272">
        <ele>137.87</ele>
      </trkpt>
      <trkpt lat="40.13917" lon="15.5629">
        <ele>137.25</ele>
      </trkpt>
      <trkpt lat="40.13924" lon="15.56339">
        <ele>138.84</ele>
      </trkpt>
      <trkpt lat="40.13926" lon="15.56353">
        <ele>140.78</ele>
      </trkpt>
      <trkpt lat="40.13926" lon="15.56367">
        <ele>142.07</ele>
      </trkpt>
      <trkpt lat="40.13917" lon="15.56394">
        <ele>141.87</ele>
      </trkpt>
      <trkpt lat="40.13911" lon="15.56403">
        <ele>142.43</ele>
      </trkpt>
      <trkpt lat="40.13905" lon="15.56408">
        <ele>142.81</ele>
      </trkpt>
      <trkpt lat="40.13898" lon="15.5641">
        <ele>142.72</ele>
      </trkpt>
      <trkpt lat="40.13879" lon="15.56412">
        <ele>146.34</ele>
      </trkpt>
      <trkpt lat="40.13871" lon="15.56408">
        <ele>148.35</ele>
      </trkpt>
      <trkpt lat="40.13863" lon="15.56396">
        <ele>148.75</ele>
      </trkpt>
      <trkpt lat="40.13855" lon="15.56371">
        <ele>145.49</ele>
      </trkpt>
      <trkpt lat="40.13842" lon="15.56303">
        <ele>138.85</ele>
      </trkpt>
      <trkpt lat="40.13842" lon="15.56303">
        <ele>138.85</ele>
      </trkpt>
      <trkpt lat="40.13842" lon="15.56303">
        <ele>138.85</ele>
      </trkpt>
      <trkpt lat="40.13836" lon="15.56271">
        <ele>137.09</ele>
      </trkpt>
      <trkpt lat="40.13831" lon="15.56261">
        <ele>137.98</ele>
      </trkpt>
      <trkpt lat="40.13824" lon="15.56255">
        <ele>139.53</ele>
      </trkpt>
      <trkpt lat="40.13814" lon="15.56252">
        <ele>141.94</ele>
      </trkpt>
      <trkpt lat="40.1381" lon="15.56247">
        <ele>142.41</ele>
      </trkpt>
      <trkpt lat="40.13799" lon="15.5623">
        <ele>143.24</ele>
      </trkpt>
      <trkpt lat="40.13798" lon="15.56221">
        <ele>142.26</ele>
      </trkpt>
      <trkpt lat="40.13798" lon="15.56204">
        <ele>139.65</ele>
      </trkpt>
      <trkpt lat="40.13797" lon="15.56187">
        <ele>138.57</ele>
      </trkpt>
      <trkpt lat="40.13794" lon="15.56174">
        <ele>139.45</ele>
      </trkpt>
      <trkpt lat="40.13763" lon="15.56113">
        <ele>141.87</ele>
      </trkpt>
      <trkpt lat="40.13754" lon="15.56106">
        <ele>143.1</ele>
      </trkpt>
      <trkpt lat="40.13734" lon="15.56105">
        <ele>151.66</ele>
      </trkpt>
      <trkpt lat="40.13723" lon="15.56102">
        <ele>156.34</ele>
      </trkpt>
      <trkpt lat="40.13668" lon="15.56059">
        <ele>158.64</ele>
      </trkpt>
      <trkpt lat="40.1365" lon="15.56042">
        <ele>158.03</ele>
      </trkpt>
      <trkpt lat="40.13633" lon="15.56018">
        <ele>160.18</ele>
      </trkpt>
      <trkpt lat="40.1362" lon="15.55981">
        <ele>162.75</ele>
      </trkpt>
      <trkpt lat="40.13616" lon="15.55948">
        <ele>165.16</ele>
      </trkpt>
      <trkpt lat="40.1362" lon="15.55919">
        <ele>164.41</ele>
      </trkpt>
      <trkpt lat="40.1362" lon="15.55919">
        <ele>164.41</ele>
      </trkpt>
      <trkpt lat="40.1362" lon="15.55919">
        <ele>164.41</ele>
      </trkpt>
      <trkpt lat="40.1363" lon="15.55856">
        <ele>164.92</ele>
      </trkpt>
      <trkpt lat="40.13638" lon="15.5582">
        <ele>167.14</ele>
      </trkpt>
      <trkpt lat="40.13653" lon="15.55791">
        <ele>164.96</ele>
      </trkpt>
      <trkpt lat="40.13655" lon="15.55778">
        <ele>164.68</ele>
      </trkpt>
      <trkpt lat="40.1365" lon="15.55765">
        <ele>165.49</ele>
      </trkpt>
      <trkpt lat="40.13639" lon="15.55759">
        <ele>167.65</ele>
      </trkpt>
      <trkpt lat="40.13604" lon="15.55758">
        <ele>174.84</ele>
      </trkpt>
      <trkpt lat="40.13584" lon="15.5575">
        <ele>177.86</ele>
      </trkpt>
      <trkpt lat="40.13567" lon="15.55723">
        <ele>174.67</ele>
      </trkpt>
      <trkpt lat="40.13559" lon="15.55698">
        <ele>178.88</ele>
      </trkpt>
      <trkpt lat="40.13557" lon="15.55673">
        <ele>180.96</ele>
      </trkpt>
      <trkpt lat="40.13554" lon="15.55655">
        <ele>178.11</ele>
      </trkpt>
      <trkpt lat="40.13548" lon="15.55639">
        <ele>174.58</ele>
      </trkpt>
      <trkpt lat="40.13483" lon="15.55552">
        <ele>181.26</ele>
      </trkpt>
      <trkpt lat="40.13468" lon="15.55545">
        <ele>181.41</ele>
      </trkpt>
      <trkpt lat="40.13453" lon="15.55543">
        <ele>185.53</ele>
      </trkpt>
      <trkpt lat="40.1343" lon="15.55551">
        <ele>194.5</ele>
      </trkpt>
      <trkpt lat="40.13409" lon="15.55568">
        <ele>205.97</ele>
      </trkpt>
      <trkpt lat="40.13394" lon="15.55571">
        <ele>209.93</ele>
      </trkpt>
      <trkpt lat="40.13384" lon="15.55561">
        <ele>209.82</ele>
      </trkpt>
      <trkpt lat="40.13377" lon="15.55542">
        <ele>207.92</ele>
      </trkpt>
      <trkpt lat="40.13372" lon="15.55513">
        <ele>205.11</ele>
      </trkpt>
      <trkpt lat="40.13373" lon="15.55482">
        <ele>203.81</ele>
      </trkpt>
      <trkpt lat="40.13382" lon="15.55437">
        <ele>202.74</ele>
      </trkpt>
      <trkpt lat="40.13383" lon="15.55427">
        <ele>202.48</ele>
      </trkpt>
      <trkpt lat="40.13383" lon="15.55423">
        <ele>202.48</ele>
      </trkpt>
      <trkpt lat="40.13383" lon="15.5542">
        <ele>202.48</ele>
      </trkpt>
      <trkpt lat="40.13383" lon="15.55416">
        <ele>202.48</ele>
      </trkpt>
      <trkpt lat="40.13382" lon="15.55414">
        <ele>202.71</ele>
      </trkpt>
      <trkpt lat="40.13381" lon="15.55411">
        <ele>202.93</ele>
      </trkpt>
      <trkpt lat="40.1338" lon="15.55408">
        <ele>203.14</ele>
      </trkpt>
      <trkpt lat="40.13378" lon="15.55406">
        <ele>203.59</ele>
      </trkpt>
      <trkpt lat="40.13376" lon="15.55405">
        <ele>204.05</ele>
      </trkpt>
      <trkpt lat="40.13374" lon="15.55404">
        <ele>204.51</ele>
      </trkpt>
      <trkpt lat="40.13371" lon="15.55404">
        <ele>205.21</ele>
      </trkpt>
      <trkpt lat="40.1338" lon="15.55353">
        <ele>206.91</ele>
      </trkpt>
      <trkpt lat="40.13399" lon="15.55247">
        <ele>207.05</ele>
      </trkpt>
      <trkpt lat="40.13396" lon="15.55228">
        <ele>204.7</ele>
      </trkpt>
      <trkpt lat="40.13389" lon="15.55215">
        <ele>201.98</ele>
      </trkpt>
      <trkpt lat="40.13389" lon="15.55215">
        <ele>201.98</ele>
      </trkpt>
      <trkpt lat="40.13389" lon="15.55215">
        <ele>201.98</ele>
      </trkpt>
      <trkpt lat="40.13387" lon="15.5521">
        <ele>201.1</ele>
      </trkpt>
      <trkpt lat="40.1337" lon="15.55195">
        <ele>197.72</ele>
      </trkpt>
      <trkpt lat="40.13343" lon="15.5518">
        <ele>196.77</ele>
      </trkpt>
      <trkpt lat="40.13321" lon="15.55176">
        <ele>195.46</ele>
      </trkpt>
      <trkpt lat="40.13288" lon="15.55181">
        <ele>193.19</ele>
      </trkpt>
      <trkpt lat="40.13261" lon="15.55196">
        <ele>194.07</ele>
      </trkpt>
      <trkpt lat="40.13231" lon="15.55205">
        <ele>192.42</ele>
      </trkpt>
      <trkpt lat="40.13219" lon="15.55217">
        <ele>193.01</ele>
      </trkpt>
      <trkpt lat="40.13199" lon="15.55245">
        <ele>193.92</ele>
      </trkpt>
      <trkpt lat="40.1319" lon="15.55249">
        <ele>192.01</ele>
      </trkpt>
      <trkpt lat="40.13183" lon="15.55247">
        <ele>188.85</ele>
      </trkpt>
      <trkpt lat="40.13179" lon="15.5524">
        <ele>185.96</ele>
      </trkpt>
      <trkpt lat="40.13178" lon="15.55232">
        <ele>184.1</ele>
      </trkpt>
      <trkpt lat="40.1318" lon="15.55223">
        <ele>182.99</ele>
      </trkpt>
      <trkpt lat="40.13184" lon="15.55216">
        <ele>183.32</ele>
      </trkpt>
      <trkpt lat="40.13236" lon="15.55153">
        <ele>179.8</ele>
      </trkpt>
      <trkpt lat="40.13267" lon="15.55128">
        <ele>178.38</ele>
      </trkpt>
      <trkpt lat="40.13275" lon="15.55115">
        <ele>176.43</ele>
      </trkpt>
      <trkpt lat="40.13281" lon="15.55102">
        <ele>174.48</ele>
      </trkpt>
      <trkpt lat="40.13287" lon="15.55078">
        <ele>171.66</ele>
      </trkpt>
      <trkpt lat="40.13297" lon="15.54938">
        <ele>166.07</ele>
      </trkpt>
      <trkpt lat="40.13305" lon="15.54922">
        <ele>165.5</ele>
      </trkpt>
      <trkpt lat="40.13375" lon="15.54829">
        <ele>156.56</ele>
      </trkpt>
      <trkpt lat="40.13388" lon="15.5482">
        <ele>158.83</ele>
      </trkpt>
      <trkpt lat="40.13414" lon="15.54812">
        <ele>161.43</ele>
      </trkpt>
      <trkpt lat="40.13419" lon="15.54809">
        <ele>160.88</ele>
      </trkpt>
      <trkpt lat="40.13423" lon="15.54807">
        <ele>160.02</ele>
      </trkpt>
      <trkpt lat="40.13426" lon="15.54802">
        <ele>158.09</ele>
      </trkpt>
      <trkpt lat="40.13429" lon="15.54795">
        <ele>155.35</ele>
      </trkpt>
      <trkpt lat="40.13428" lon="15.54787">
        <ele>152.63</ele>
      </trkpt>
      <trkpt lat="40.13425" lon="15.54782">
        <ele>151.26</ele>
      </trkpt>
      <trkpt lat="40.13421" lon="15.54779">
        <ele>150.79</ele>
      </trkpt>
      <trkpt lat="40.13417" lon="15.54779">
        <ele>151.35</ele>
      </trkpt>
      <trkpt lat="40.13412" lon="15.54779">
        <ele>151.05</ele>
      </trkpt>
      <trkpt lat="40.13374" lon="15.54793">
        <ele>148.25</ele>
      </trkpt>
      <trkpt lat="40.13346" lon="15.54796">
        <ele>143.12</ele>
      </trkpt>
      <trkpt lat="40.13329" lon="15.54803">
        <ele>142.09</ele>
      </trkpt>
      <trkpt lat="40.13259" lon="15.54869">
        <ele>139.41</ele>
      </trkpt>
      <trkpt lat="40.13229" lon="15.54888">
        <ele>133.19</ele>
      </trkpt>
      <trkpt lat="40.13221" lon="15.54904">
        <ele>132.78</ele>
      </trkpt>
      <trkpt lat="40.13207" lon="15.5497">
        <ele>132.94</ele>
      </trkpt>
      <trkpt lat="40.132" lon="15.54991">
        <ele>132.09</ele>
      </trkpt>
      <trkpt lat="40.13188" lon="15.55005">
        <ele>130.96</ele>
      </trkpt>
      <trkpt lat="40.13129" lon="15.55038">
        <ele>131.8</ele>
      </trkpt>
      <trkpt lat="40.13123" lon="15.55039">
        <ele>132.17</ele>
      </trkpt>
      <trkpt lat="40.13117" lon="15.55039">
        <ele>132.3</ele>
      </trkpt>
      <trkpt lat="40.13112" lon="15.55035">
        <ele>131.54</ele>
      </trkpt>
      <trkpt lat="40.13109" lon="15.55031">
        <ele>130.66</ele>
      </trkpt>
      <trkpt lat="40.13106" lon="15.55023">
        <ele>128.76</ele>
      </trkpt>
      <trkpt lat="40.13106" lon="15.55017">
        <ele>127.21</ele>
      </trkpt>
      <trkpt lat="40.13106" lon="15.55012">
        <ele>125.92</ele>
      </trkpt>
      <trkpt lat="40.13113" lon="15.54998">
        <ele>122.78</ele>
      </trkpt>
      <trkpt lat="40.13141" lon="15.54955">
        <ele>118.19</ele>
      </trkpt>
      <trkpt lat="40.13149" lon="15.54933">
        <ele>116.58</ele>
      </trkpt>
      <trkpt lat="40.13152" lon="15.5491">
        <ele>114.64</ele>
      </trkpt>
      <trkpt lat="40.13152" lon="15.54873">
        <ele>110.34</ele>
      </trkpt>
      <trkpt lat="40.13156" lon="15.54854">
        <ele>108.32</ele>
      </trkpt>
      <trkpt lat="40.13172" lon="15.54824">
        <ele>106.14</ele>
      </trkpt>
      <trkpt lat="40.13213" lon="15.54775">
        <ele>105.11</ele>
      </trkpt>
      <trkpt lat="40.13239" lon="15.54732">
        <ele>99.06</ele>
      </trkpt>
      <trkpt lat="40.13269" lon="15.54666">
        <ele>94.02</ele>
      </trkpt>
      <trkpt lat="40.13279" lon="15.54632">
        <ele>91.49</ele>
      </trkpt>
      <trkpt lat="40.13284" lon="15.54611">
        <ele>89.66</ele>
      </trkpt>
      <trkpt lat="40.13284" lon="15.54611">
        <ele>89.66</ele>
      </trkpt>
      <trkpt lat="40.13284" lon="15.54611">
        <ele>89.66</ele>
      </trkpt>
      <trkpt lat="40.13289" lon="15.54585">
        <ele>87.19</ele>
      </trkpt>
      <trkpt lat="40.13303" lon="15.5456">
        <ele>84.56</ele>
      </trkpt>
      <trkpt lat="40.13352" lon="15.54516">
        <ele>85.29</ele>
      </trkpt>
      <trkpt lat="40.13361" lon="15.54503">
        <ele>85.41</ele>
      </trkpt>
      <trkpt lat="40.1337" lon="15.54489">
        <ele>85.29</ele>
      </trkpt>
      <trkpt lat="40.13378" lon="15.5447">
        <ele>85.42</ele>
      </trkpt>
      <trkpt lat="40.13387" lon="15.54444">
        <ele>87.47</ele>
      </trkpt>
      <trkpt lat="40.13405" lon="15.54399">
        <ele>83.25</ele>
      </trkpt>
      <trkpt lat="40.13406" lon="15.54394">
        <ele>82.78</ele>
      </trkpt>
      <trkpt lat="40.13415" lon="15.54372">
        <ele>81.06</ele>
      </trkpt>
      <trkpt lat="40.13419" lon="15.54378">
        <ele>82.11</ele>
      </trkpt>
      <trkpt lat="40.13419" lon="15.54378">
        <ele>82.11</ele>
      </trkpt>
      <trkpt lat="40.13419" lon="15.54378">
        <ele>82.11</ele>
      </trkpt>
      <trkpt lat="40.1343" lon="15.54398">
        <ele>85.11</ele>
      </trkpt>
      <trkpt lat="40.13445" lon="15.54413">
        <ele>87.06</ele>
      </trkpt>
      <trkpt lat="40.13453" lon="15.5443">
        <ele>89.33</ele>
      </trkpt>
      <trkpt lat="40.13459" lon="15.54446">
        <ele>89.97</ele>
      </trkpt>
      <trkpt lat="40.1347" lon="15.54458">
        <ele>90.24</ele>
      </trkpt>
      <trkpt lat="40.13482" lon="15.54467">
        <ele>89.91</ele>
      </trkpt>
      <trkpt lat="40.13498" lon="15.54468">
        <ele>91.18</ele>
      </trkpt>
      <trkpt lat="40.13555" lon="15.5447">
        <ele>103.36</ele>
      </trkpt>
      <trkpt lat="40.13574" lon="15.5448">
        <ele>106.24</ele>
      </trkpt>
      <trkpt lat="40.13586" lon="15.54492">
        <ele>108.22</ele>
      </trkpt>
      <trkpt lat="40.13612" lon="15.54523">
        <ele>113.36</ele>
      </trkpt>
      <trkpt lat="40.13618" lon="15.54524">
        <ele>114.62</ele>
      </trkpt>
      <trkpt lat="40.13622" lon="15.54518">
        <ele>115.7</ele>
      </trkpt>
      <trkpt lat="40.13624" lon="15.54502">
        <ele>116.71</ele>
      </trkpt>
      <trkpt lat="40.13619" lon="15.54478">
        <ele>116.5</ele>
      </trkpt>
      <trkpt lat="40.13619" lon="15.54466">
        <ele>117.44</ele>
      </trkpt>
      <trkpt lat="40.13624" lon="15.54427">
        <ele>124.39</ele>
      </trkpt>
      <trkpt lat="40.13623" lon="15.54419">
        <ele>125.58</ele>
      </trkpt>
      <trkpt lat="40.1362" lon="15.54411">
        <ele>126.47</ele>
      </trkpt>
      <trkpt lat="40.13593" lon="15.54388">
        <ele>126.2</ele>
      </trkpt>
      <trkpt lat="40.1359" lon="15.5438">
        <ele>126.64</ele>
      </trkpt>
      <trkpt lat="40.13588" lon="15.5437">
        <ele>127.61</ele>
      </trkpt>
      <trkpt lat="40.13605" lon="15.54298">
        <ele>134.35</ele>
      </trkpt>
      <trkpt lat="40.13609" lon="15.54288">
        <ele>134.86</ele>
      </trkpt>
      <trkpt lat="40.13646" lon="15.54238">
        <ele>140.64</ele>
      </trkpt>
      <trkpt lat="40.13659" lon="15.54228">
        <ele>142.84</ele>
      </trkpt>
      <trkpt lat="40.13673" lon="15.54226">
        <ele>145.94</ele>
      </trkpt>
      <trkpt lat="40.13678" lon="15.54232">
        <ele>148.0</ele>
      </trkpt>
      <trkpt lat="40.13678" lon="15.54239">
        <ele>149.11</ele>
      </trkpt>
      <trkpt lat="40.13674" lon="15.54252">
        <ele>149.99</ele>
      </trkpt>
      <trkpt lat="40.13672" lon="15.54272">
        <ele>150.93</ele>
      </trkpt>
      <trkpt lat="40.13674" lon="15.54285">
        <ele>151.71</ele>
      </trkpt>
      <trkpt lat="40.1368" lon="15.54294">
        <ele>152.8</ele>
      </trkpt>
      <trkpt lat="40.13687" lon="15.54293">
        <ele>154.32</ele>
      </trkpt>
      <trkpt lat="40.13687" lon="15.54293">
        <ele>154.32</ele>
      </trkpt>
      <trkpt lat="40.13687" lon="15.54293">
        <ele>154.32</ele>
      </trkpt>
      <trkpt lat="40.1368" lon="15.54294">
        <ele>152.8</ele>
      </trkpt>
      <trkpt lat="40.13674" lon="15.54285">
        <ele>151.71</ele>
      </trkpt>
      <trkpt lat="40.13672" lon="15.54272">
        <ele>150.93</ele>
      </trkpt>
      <trkpt lat="40.13674" lon="15.54252">
        <ele>149.99</ele>
      </trkpt>
      <trkpt lat="40.13678" lon="15.54239">
        <ele>149.11</ele>
      </trkpt>
      <trkpt lat="40.13678" lon="15.54232">
        <ele>148.0</ele>
      </trkpt>
      <trkpt lat="40.13673" lon="15.54226">
        <ele>145.94</ele>
      </trkpt>
      <trkpt lat="40.13659" lon="15.54228">
        <ele>142.84</ele>
      </trkpt>
      <trkpt lat="40.13646" lon="15.54238">
        <ele>140.64</ele>
      </trkpt>
      <trkpt lat="40.13609" lon="15.54288">
        <ele>134.86</ele>
      </trkpt>
      <trkpt lat="40.13605" lon="15.54298">
        <ele>134.35</ele>
      </trkpt>
      <trkpt lat="40.13588" lon="15.5437">
        <ele>127.61</ele>
      </trkpt>
      <trkpt lat="40.1359" lon="15.5438">
        <ele>126.64</ele>
      </trkpt>
      <trkpt lat="40.13593" lon="15.54388">
        <ele>126.2</ele>
      </trkpt>
      <trkpt lat="40.1362" lon="15.54411">
        <ele>126.47</ele>
      </trkpt>
      <trkpt lat="40.13623" lon="15.54419">
        <ele>125.58</ele>
      </trkpt>
      <trkpt lat="40.13624" lon="15.54427">
        <ele>124.39</ele>
      </trkpt>
      <trkpt lat="40.13619" lon="15.54466">
        <ele>117.44</ele>
      </trkpt>
      <trkpt lat="40.13619" lon="15.54478">
        <ele>116.5</ele>
      </trkpt>
      <trkpt lat="40.13624" lon="15.54502">
        <ele>116.71</ele>
      </trkpt>
      <trkpt lat="40.13622" lon="15.54518">
        <ele>115.7</ele>
      </trkpt>
      <trkpt lat="40.13618" lon="15.54524">
        <ele>114.62</ele>
      </trkpt>
      <trkpt lat="40.13612" lon="15.54523">
        <ele>113.36</ele>
      </trkpt>
      <trkpt lat="40.13586" lon="15.54492">
        <ele>108.22</ele>
      </trkpt>
      <trkpt lat="40.13574" lon="15.5448">
        <ele>106.24</ele>
      </trkpt>
      <trkpt lat="40.13555" lon="15.5447">
        <ele>103.36</ele>
      </trkpt>
      <trkpt lat="40.13498" lon="15.54468">
        <ele>91.18</ele>
      </trkpt>
      <trkpt lat="40.13482" lon="15.54467">
        <ele>89.91</ele>
      </trkpt>
      <trkpt lat="40.1347" lon="15.54458">
        <ele>90.24</ele>
      </trkpt>
      <trkpt lat="40.13459" lon="15.54446">
        <ele>89.97</ele>
      </trkpt>
      <trkpt lat="40.13453" lon="15.5443">
        <ele>89.33</ele>
      </trkpt>
      <trkpt lat="40.13445" lon="15.54413">
        <ele>87.06</ele>
      </trkpt>
      <trkpt lat="40.1343" lon="15.54398">
        <ele>85.11</ele>
      </trkpt>
      <trkpt lat="40.13415" lon="15.54372">
        <ele>81.06</ele>
      </trkpt>
      <trkpt lat="40.13424" lon="15.54337">
        <ele>80.37</ele>
      </trkpt>
      <trkpt lat="40.13439" lon="15.54242">
        <ele>82.11</ele>
      </trkpt>
      <trkpt lat="40.13439" lon="15.54242">
        <ele>82.11</ele>
      </trkpt>
      <trkpt lat="40.13439" lon="15.54242">
        <ele>82.11</ele>
      </trkpt>
      <trkpt lat="40.13445" lon="15.54204">
        <ele>82.76</ele>
      </trkpt>
      <trkpt lat="40.13453" lon="15.54142">
        <ele>82.3</ele>
      </trkpt>
      <trkpt lat="40.1345" lon="15.54108">
        <ele>83.09</ele>
      </trkpt>
      <trkpt lat="40.13412" lon="15.53946">
        <ele>89.26</ele>
      </trkpt>
      <trkpt lat="40.13408" lon="15.53917">
        <ele>91.84</ele>
      </trkpt>
      <trkpt lat="40.13411" lon="15.53879">
        <ele>88.96</ele>
      </trkpt>
      <trkpt lat="40.13413" lon="15.53868">
        <ele>88.1</ele>
      </trkpt>
      <trkpt lat="40.13423" lon="15.53797">
        <ele>85.3</ele>
      </trkpt>
      <trkpt lat="40.13423" lon="15.53773">
        <ele>87.33</ele>
      </trkpt>
      <trkpt lat="40.13417" lon="15.53756">
        <ele>89.16</ele>
      </trkpt>
      <trkpt lat="40.13407" lon="15.53743">
        <ele>90.54</ele>
      </trkpt>
      <trkpt lat="40.13355" lon="15.53681">
        <ele>93.84</ele>
      </trkpt>
      <trkpt lat="40.13346" lon="15.53671">
        <ele>93.66</ele>
      </trkpt>
      <trkpt lat="40.13336" lon="15.53652">
        <ele>94.69</ele>
      </trkpt>
      <trkpt lat="40.13315" lon="15.53578">
        <ele>102.87</ele>
      </trkpt>
      <trkpt lat="40.13308" lon="15.53561">
        <ele>103.81</ele>
      </trkpt>
      <trkpt lat="40.1329" lon="15.53531">
        <ele>101.74</ele>
      </trkpt>
      <trkpt lat="40.13284" lon="15.53513">
        <ele>100.19</ele>
      </trkpt>
      <trkpt lat="40.13285" lon="15.535">
        <ele>100.56</ele>
      </trkpt>
      <trkpt lat="40.13291" lon="15.53481">
        <ele>100.81</ele>
      </trkpt>
      <trkpt lat="40.13312" lon="15.53431">
        <ele>107.02</ele>
      </trkpt>
      <trkpt lat="40.13316" lon="15.53413">
        <ele>111.12</ele>
      </trkpt>
      <trkpt lat="40.13313" lon="15.53391">
        <ele>112.02</ele>
      </trkpt>
      <trkpt lat="40.13298" lon="15.53341">
        <ele>112.34</ele>
      </trkpt>
      <trkpt lat="40.13286" lon="15.53325">
        <ele>111.09</ele>
      </trkpt>
      <trkpt lat="40.13269" lon="15.53313">
        <ele>110.3</ele>
      </trkpt>
      <trkpt lat="40.13222" lon="15.533">
        <ele>115.21</ele>
      </trkpt>
      <trkpt lat="40.13211" lon="15.53291">
        <ele>115.93</ele>
      </trkpt>
      <trkpt lat="40.13204" lon="15.53273">
        <ele>116.83</ele>
      </trkpt>
      <trkpt lat="40.13183" lon="15.53113">
        <ele>131.12</ele>
      </trkpt>
      <trkpt lat="40.13169" lon="15.53003">
        <ele>136.12</ele>
      </trkpt>
      <trkpt lat="40.1316" lon="15.52959">
        <ele>139.64</ele>
      </trkpt>
      <trkpt lat="40.13119" lon="15.52833">
        <ele>146.99</ele>
      </trkpt>
      <trkpt lat="40.13111" lon="15.5278">
        <ele>146.81</ele>
      </trkpt>
      <trkpt lat="40.13109" lon="15.52754">
        <ele>147.39</ele>
      </trkpt>
      <trkpt lat="40.13112" lon="15.52733">
        <ele>148.15</ele>
      </trkpt>
      <trkpt lat="40.13137" lon="15.52708">
        <ele>152.31</ele>
      </trkpt>
      <trkpt lat="40.13153" lon="15.52702">
        <ele>156.79</ele>
      </trkpt>
      <trkpt lat="40.13167" lon="15.52703">
        <ele>160.81</ele>
      </trkpt>
      <trkpt lat="40.13176" lon="15.52715">
        <ele>164.03</ele>
      </trkpt>
      <trkpt lat="40.13176" lon="15.5273">
        <ele>164.31</ele>
      </trkpt>
      <trkpt lat="40.13163" lon="15.52764">
        <ele>161.02</ele>
      </trkpt>
      <trkpt lat="40.13163" lon="15.52778">
        <ele>161.96</ele>
      </trkpt>
      <trkpt lat="40.13163" lon="15.52778">
        <ele>161.96</ele>
      </trkpt>
      <trkpt lat="40.13163" lon="15.52778">
        <ele>161.96</ele>
      </trkpt>
      <trkpt lat="40.13163" lon="15.52784">
        <ele>162.36</ele>
      </trkpt>
      <trkpt lat="40.13175" lon="15.52822">
        <ele>163.89</ele>
      </trkpt>
      <trkpt lat="40.13195" lon="15.52845">
        <ele>165.31</ele>
      </trkpt>
      <trkpt lat="40.1325" lon="15.52889">
        <ele>175.99</ele>
      </trkpt>
      <trkpt lat="40.13292" lon="15.52949">
        <ele>174.53</ele>
      </trkpt>
      <trkpt lat="40.13305" lon="15.52956">
        <ele>174.31</ele>
      </trkpt>
      <trkpt lat="40.13318" lon="15.52954">
        <ele>173.57</ele>
      </trkpt>
      <trkpt lat="40.13385" lon="15.52906">
        <ele>179.74</ele>
      </trkpt>
      <trkpt lat="40.13396" lon="15.52899">
        <ele>180.41</ele>
      </trkpt>
      <trkpt lat="40.13408" lon="15.52897">
        <ele>180.99</ele>
      </trkpt>
      <trkpt lat="40.13424" lon="15.52903">
        <ele>181.93</ele>
      </trkpt>
      <trkpt lat="40.13447" lon="15.52919">
        <ele>184.48</ele>
      </trkpt>
      <trkpt lat="40.13459" lon="15.52939">
        <ele>185.08</ele>
      </trkpt>
      <trkpt lat="40.13475" lon="15.52989">
        <ele>182.79</ele>
      </trkpt>
      <trkpt lat="40.13482" lon="15.53">
        <ele>184.52</ele>
      </trkpt>
      <trkpt lat="40.135" lon="15.53024">
        <ele>189.27</ele>
      </trkpt>
      <trkpt lat="40.135" lon="15.53024">
        <ele>189.27</ele>
      </trkpt>
      <trkpt lat="40.135" lon="15.53024">
        <ele>189.27</ele>
      </trkpt>
      <trkpt lat="40.13503" lon="15.53026">
        <ele>190.01</ele>
      </trkpt>
      <trkpt lat="40.13511" lon="15.53046">
        <ele>189.8</ele>
      </trkpt>
      <trkpt lat="40.13515" lon="15.53075">
        <ele>188.08</ele>
      </trkpt>
      <trkpt lat="40.13516" lon="15.53149">
        <ele>184.25</ele>
      </trkpt>
      <trkpt lat="40.1352" lon="15.53162">
        <ele>184.72</ele>
      </trkpt>
      <trkpt lat="40.13528" lon="15.53169">
        <ele>185.66</ele>
      </trkpt>
      <trkpt lat="40.1354" lon="15.53168">
        <ele>185.43</ele>
      </trkpt>
      <trkpt lat="40.1355" lon="15.53163">
        <ele>185.65</ele>
      </trkpt>
      <trkpt lat="40.13554" lon="15.53152">
        <ele>187.08</ele>
      </trkpt>
      <trkpt lat="40.13553" lon="15.53126">
        <ele>190.63</ele>
      </trkpt>
      <trkpt lat="40.13536" lon="15.53063">
        <ele>194.46</ele>
      </trkpt>
      <trkpt lat="40.13517" lon="15.52975">
        <ele>199.47</ele>
      </trkpt>
      <trkpt lat="40.13515" lon="15.52955">
        <ele>201.75</ele>
      </trkpt>
      <trkpt lat="40.13515" lon="15.52921">
        <ele>205.49</ele>
      </trkpt>
      <trkpt lat="40.13515" lon="15.52894">
        <ele>210.25</ele>
      </trkpt>
      <trkpt lat="40.13515" lon="15.52888">
        <ele>211.54</ele>
      </trkpt>
      <trkpt lat="40.13515" lon="15.52888">
        <ele>211.54</ele>
      </trkpt>
      <trkpt lat="40.13515" lon="15.52888">
        <ele>211.54</ele>
      </trkpt>
      <trkpt lat="40.13514" lon="15.52878">
        <ele>214.56</ele>
      </trkpt>
      <trkpt lat="40.1351" lon="15.52871">
        <ele>215.42</ele>
      </trkpt>
      <trkpt lat="40.13487" lon="15.52845">
        <ele>213.46</ele>
      </trkpt>
      <trkpt lat="40.13478" lon="15.52833">
        <ele>212.9</ele>
      </trkpt>
      <trkpt lat="40.13472" lon="15.52817">
        <ele>212.11</ele>
      </trkpt>
      <trkpt lat="40.13466" lon="15.52769">
        <ele>213.52</ele>
      </trkpt>
      <trkpt lat="40.13464" lon="15.52756">
        <ele>213.42</ele>
      </trkpt>
      <trkpt lat="40.13458" lon="15.52744">
        <ele>213.54</ele>
      </trkpt>
      <trkpt lat="40.13444" lon="15.52738">
        <ele>212.27</ele>
      </trkpt>
      <trkpt lat="40.13394" lon="15.52731">
        <ele>209.48</ele>
      </trkpt>
      <trkpt lat="40.1337" lon="15.52724">
        <ele>208.58</ele>
      </trkpt>
      <trkpt lat="40.1336" lon="15.52711">
        <ele>209.1</ele>
      </trkpt>
      <trkpt lat="40.13354" lon="15.52689">
        <ele>210.42</ele>
      </trkpt>
      <trkpt lat="40.13346" lon="15.52594">
        <ele>213.72</ele>
      </trkpt>
      <trkpt lat="40.13333" lon="15.52513">
        <ele>214.38</ele>
      </trkpt>
      <trkpt lat="40.13333" lon="15.5249">
        <ele>211.93</ele>
      </trkpt>
      <trkpt lat="40.13342" lon="15.52475">
        <ele>210.71</ele>
      </trkpt>
      <trkpt lat="40.13356" lon="15.52468">
        <ele>209.99</ele>
      </trkpt>
      <trkpt lat="40.13373" lon="15.52472">
        <ele>210.52</ele>
      </trkpt>
      <trkpt lat="40.13412" lon="15.525">
        <ele>213.67</ele>
      </trkpt>
      <trkpt lat="40.13429" lon="15.52502">
        <ele>213.6</ele>
      </trkpt>
      <trkpt lat="40.13459" lon="15.52493">
        <ele>216.48</ele>
      </trkpt>
      <trkpt lat="40.1347" lon="15.52483">
        <ele>217.92</ele>
      </trkpt>
      <trkpt lat="40.13479" lon="15.52467">
        <ele>218.19</ele>
      </trkpt>
      <trkpt lat="40.13485" lon="15.52441">
        <ele>216.03</ele>
      </trkpt>
      <trkpt lat="40.13492" lon="15.52424">
        <ele>216.29</ele>
      </trkpt>
      <trkpt lat="40.13505" lon="15.52415">
        <ele>219.22</ele>
      </trkpt>
      <trkpt lat="40.13527" lon="15.52407">
        <ele>225.06</ele>
      </trkpt>
      <trkpt lat="40.13535" lon="15.52399">
        <ele>227.33</ele>
      </trkpt>
      <trkpt lat="40.1354" lon="15.52383">
        <ele>227.98</ele>
      </trkpt>
      <trkpt lat="40.13541" lon="15.52356">
        <ele>226.21</ele>
      </trkpt>
      <trkpt lat="40.13545" lon="15.5234">
        <ele>225.92</ele>
      </trkpt>
      <trkpt lat="40.13553" lon="15.52324">
        <ele>225.73</ele>
      </trkpt>
      <trkpt lat="40.13572" lon="15.52305">
        <ele>227.77</ele>
      </trkpt>
      <trkpt lat="40.13611" lon="15.52269">
        <ele>229.08</ele>
      </trkpt>
      <trkpt lat="40.13624" lon="15.5226">
        <ele>230.87</ele>
      </trkpt>
      <trkpt lat="40.13643" lon="15.52249">
        <ele>234.73</ele>
      </trkpt>
      <trkpt lat="40.13649" lon="15.52238">
        <ele>236.78</ele>
      </trkpt>
      <trkpt lat="40.13651" lon="15.52225">
        <ele>236.94</ele>
      </trkpt>
      <trkpt lat="40.13649" lon="15.52176">
        <ele>234.71</ele>
      </trkpt>
      <trkpt lat="40.13656" lon="15.52161">
        <ele>236.21</ele>
      </trkpt>
      <trkpt lat="40.13667" lon="15.52152">
        <ele>239.63</ele>
      </trkpt>
      <trkpt lat="40.13678" lon="15.52148">
        <ele>243.07</ele>
      </trkpt>
      <trkpt lat="40.13689" lon="15.52135">
        <ele>246.43</ele>
      </trkpt>
      <trkpt lat="40.13691" lon="15.52115">
        <ele>246.68</ele>
      </trkpt>
      <trkpt lat="40.13682" lon="15.52073">
        <ele>246.1</ele>
      </trkpt>
      <trkpt lat="40.13682" lon="15.52053">
        <ele>245.83</ele>
      </trkpt>
      <trkpt lat="40.13691" lon="15.52038">
        <ele>244.86</ele>
      </trkpt>
      <trkpt lat="40.13706" lon="15.52035">
        <ele>244.47</ele>
      </trkpt>
      <trkpt lat="40.13722" lon="15.52042">
        <ele>245.05</ele>
      </trkpt>
      <trkpt lat="40.13766" lon="15.52075">
        <ele>244.05</ele>
      </trkpt>
      <trkpt lat="40.13793" lon="15.52084">
        <ele>246.36</ele>
      </trkpt>
      <trkpt lat="40.13819" lon="15.52077">
        <ele>248.09</ele>
      </trkpt>
      <trkpt lat="40.1389" lon="15.52022">
        <ele>246.38</ele>
      </trkpt>
      <trkpt lat="40.13905" lon="15.52017">
        <ele>245.12</ele>
      </trkpt>
      <trkpt lat="40.13918" lon="15.5202">
        <ele>247.1</ele>
      </trkpt>
      <trkpt lat="40.13942" lon="15.52032">
        <ele>246.91</ele>
      </trkpt>
      <trkpt lat="40.1397" lon="15.5207">
        <ele>250.32</ele>
      </trkpt>
      <trkpt lat="40.13976" lon="15.521">
        <ele>252.81</ele>
      </trkpt>
      <trkpt lat="40.13976" lon="15.52156">
        <ele>256.95</ele>
      </trkpt>
      <trkpt lat="40.13985" lon="15.52184">
        <ele>258.33</ele>
      </trkpt>
      <trkpt lat="40.14002" lon="15.522">
        <ele>255.97</ele>
      </trkpt>
      <trkpt lat="40.14034" lon="15.522">
        <ele>256.41</ele>
      </trkpt>
      <trkpt lat="40.14052" lon="15.52191">
        <ele>256.78</ele>
      </trkpt>
      <trkpt lat="40.14086" lon="15.52163">
        <ele>251.94</ele>
      </trkpt>
      <trkpt lat="40.14086" lon="15.52163">
        <ele>251.94</ele>
      </trkpt>
      <trkpt lat="40.14086" lon="15.52163">
        <ele>251.94</ele>
      </trkpt>
      <trkpt lat="40.14113" lon="15.52141">
        <ele>252.64</ele>
      </trkpt>
      <trkpt lat="40.14151" lon="15.52108">
        <ele>255.24</ele>
      </trkpt>
      <trkpt lat="40.14151" lon="15.52108">
        <ele>255.24</ele>
      </trkpt>
      <trkpt lat="40.14183" lon="15.5213">
        <ele>259.04</ele>
      </trkpt>
      <trkpt lat="40.14183" lon="15.5213">
        <ele>259.04</ele>
      </trkpt>
      <trkpt lat="40.14159" lon="15.52105">
        <ele>256.11</ele>
      </trkpt>
      <trkpt lat="40.14159" lon="15.52105">
        <ele>256.11</ele>
      </trkpt>
      <trkpt lat="40.14158" lon="15.52102">
        <ele>255.96</ele>
      </trkpt>
      <trkpt lat="40.14229" lon="15.5204">
        <ele>251.82</ele>
      </trkpt>
      <trkpt lat="40.14241" lon="15.52029">
        <ele>251.22</ele>
      </trkpt>
      <trkpt lat="40.14252" lon="15.52016">
        <ele>248.99</ele>
      </trkpt>
      <trkpt lat="40.14252" lon="15.52016">
        <ele>248.99</ele>
      </trkpt>
      <trkpt lat="40.14252" lon="15.52016">
        <ele>248.99</ele>
      </trkpt>
      <trkpt lat="40.14258" lon="15.52008">
        <ele>246.93</ele>
      </trkpt>
      <trkpt lat="40.14264" lon="15.52002">
        <ele>245.47</ele>
      </trkpt>
      <trkpt lat="40.14271" lon="15.51998">
        <ele>244.64</ele>
      </trkpt>
      <trkpt lat="40.14277" lon="15.51998">
        <ele>244.64</ele>
      </trkpt>
      <trkpt lat="40.14289" lon="15.52005">
        <ele>245.82</ele>
      </trkpt>
      <trkpt lat="40.14313" lon="15.5202">
        <ele>250.83</ele>
      </trkpt>
      <trkpt lat="40.14324" lon="15.52018">
        <ele>251.84</ele>
      </trkpt>
      <trkpt lat="40.14337" lon="15.52008">
        <ele>251.43</ele>
      </trkpt>
      <trkpt lat="40.14351" lon="15.51978">
        <ele>250.47</ele>
      </trkpt>
      <trkpt lat="40.14382" lon="15.51888">
        <ele>246.42</ele>
      </trkpt>
      <trkpt lat="40.14384" lon="15.51865">
        <ele>244.52</ele>
      </trkpt>
      <trkpt lat="40.14384" lon="15.51855">
        <ele>243.02</ele>
      </trkpt>
      <trkpt lat="40.14384" lon="15.51855">
        <ele>243.02</ele>
      </trkpt>
      <trkpt lat="40.14384" lon="15.51855">
        <ele>243.02</ele>
      </trkpt>
      <trkpt lat="40.14383" lon="15.51838">
        <ele>239.78</ele>
      </trkpt>
      <trkpt lat="40.14387" lon="15.51819">
        <ele>238.97</ele>
      </trkpt>
      <trkpt lat="40.14397" lon="15.51799">
        <ele>240.17</ele>
      </trkpt>
      <trkpt lat="40.14403" lon="15.51782">
        <ele>239.59</ele>
      </trkpt>
      <trkpt lat="40.14404" lon="15.51761">
        <ele>236.88</ele>
      </trkpt>
      <trkpt lat="40.14401" lon="15.51735">
        <ele>230.53</ele>
      </trkpt>
      <trkpt lat="40.14403" lon="15.51724">
        <ele>228.04</ele>
      </trkpt>
      <trkpt lat="40.14414" lon="15.51713">
        <ele>227.37</ele>
      </trkpt>
      <trkpt lat="40.14464" lon="15.51698">
        <ele>230.05</ele>
      </trkpt>
      <trkpt lat="40.14475" lon="15.51689">
        <ele>228.77</ele>
      </trkpt>
      <trkpt lat="40.14496" lon="15.51668">
        <ele>226.58</ele>
      </trkpt>
      <trkpt lat="40.14508" lon="15.5166">
        <ele>225.73</ele>
      </trkpt>
      <trkpt lat="40.14519" lon="15.51659">
        <ele>225.43</ele>
      </trkpt>
    </trkseg>
  </trk>
</gpx>
