<?xml version="1.0"?>
<gpx xmlns="http://www.topografix.com/GPX/1/1" xmlns:xsi="http://www.w3.org/2001/XMLSchema-instance" version="1.1" creator="AllTrails.com" xsi:schemaLocation="http://www.topografix.com/GPX/1/1 http://www.topografix.com/GPX/1/1/gpx.xsd">
  <metadata>
    <name><![CDATA[Itinerario 3 - via carsica del geosito del Bussento]]></name>
    <desc><![CDATA[]]></desc>
    <link href="http://www.alltrails.com">
      <text>AllTrails, LLC</text>
    </link>
    <bounds minlat="40.13818" minlon="15.52491" maxlat="40.15402" maxlon="15.55525"/>
  </metadata>
  <trk>
    <name><![CDATA[Itinerario 3 - via carsica del geosito del Bussento]]></name>
    <src>AllTrails</src>
    <trkseg>
      <trkpt lat="40.14012" lon="15.55525">
        <ele>282.42</ele>
      </trkpt>
      <trkpt lat="40.14011" lon="15.55521">
        <ele>282.13</ele>
      </trkpt>
      <trkpt lat="40.14007" lon="15.55521">
        <ele>282.63</ele>
      </trkpt>
      <trkpt lat="40.14003" lon="15.55518">
        <ele>282.9</ele>
      </trkpt>
      <trkpt lat="40.14004" lon="15.55513">
        <ele>282.35</ele>
      </trkpt>
      <trkpt lat="40.14007" lon="15.55509">
        <ele>281.55</ele>
      </trkpt>
      <trkpt lat="40.14007" lon="15.55509">
        <ele>281.55</ele>
      </trkpt>
      <trkpt lat="40.14005" lon="15.55505">
        <ele>281.52</ele>
      </trkpt>
      <trkpt lat="40.14005" lon="15.55505">
        <ele>281.52</ele>
      </trkpt>
      <trkpt lat="40.14005" lon="15.55505">
        <ele>281.52</ele>
      </trkpt>
      <trkpt lat="40.14021" lon="15.55491">
        <ele>275.56</ele>
      </trkpt>
      <trkpt lat="40.14032" lon="15.5548">
        <ele>272.48</ele>
      </trkpt>
      <trkpt lat="40.14037" lon="15.55473">
        <ele>271.51</ele>
      </trkpt>
      <trkpt lat="40.14043" lon="15.55466">
        <ele>270.62</ele>
      </trkpt>
      <trkpt lat="40.14051" lon="15.55449">
        <ele>267.49</ele>
      </trkpt>
      <trkpt lat="40.14051" lon="15.55449">
        <ele>267.49</ele>
      </trkpt>
      <trkpt lat="40.14051" lon="15.55449">
        <ele>267.49</ele>
      </trkpt>
      <trkpt lat="40.14055" lon="15.55442">
        <ele>266.48</ele>
      </trkpt>
      <trkpt lat="40.14057" lon="15.55436">
        <ele>265.58</ele>
      </trkpt>
      <trkpt lat="40.14059" lon="15.55425">
        <ele>263.75</ele>
      </trkpt>
      <trkpt lat="40.14062" lon="15.55417">
        <ele>262.52</ele>
      </trkpt>
      <trkpt lat="40.14079" lon="15.5539">
        <ele>259.85</ele>
      </trkpt>
      <trkpt lat="40.14082" lon="15.5538">
        <ele>258.61</ele>
      </trkpt>
      <trkpt lat="40.14084" lon="15.5537">
        <ele>257.34</ele>
      </trkpt>
      <trkpt lat="40.14085" lon="15.55356">
        <ele>255.37</ele>
      </trkpt>
      <trkpt lat="40.14084" lon="15.55344">
        <ele>253.57</ele>
      </trkpt>
      <trkpt lat="40.14081" lon="15.5533">
        <ele>251.33</ele>
      </trkpt>
      <trkpt lat="40.14075" lon="15.55305">
        <ele>246.92</ele>
      </trkpt>
      <trkpt lat="40.14074" lon="15.55302">
        <ele>246.49</ele>
      </trkpt>
      <trkpt lat="40.14075" lon="15.55297">
        <ele>245.8</ele>
      </trkpt>
      <trkpt lat="40.14075" lon="15.55297">
        <ele>245.8</ele>
      </trkpt>
      <trkpt lat="40.14075" lon="15.55297">
        <ele>245.8</ele>
      </trkpt>
      <trkpt lat="40.14079" lon="15.55292">
        <ele>245.31</ele>
      </trkpt>
      <trkpt lat="40.14083" lon="15.55288">
        <ele>245.08</ele>
      </trkpt>
      <trkpt lat="40.14091" lon="15.55285">
        <ele>245.54</ele>
      </trkpt>
      <trkpt lat="40.14099" lon="15.55281">
        <ele>245.97</ele>
      </trkpt>
      <trkpt lat="40.14105" lon="15.55274">
        <ele>245.66</ele>
      </trkpt>
      <trkpt lat="40.14119" lon="15.55258">
        <ele>244.01</ele>
      </trkpt>
      <trkpt lat="40.14141" lon="15.55232">
        <ele>239.44</ele>
      </trkpt>
      <trkpt lat="40.14147" lon="15.55226">
        <ele>237.74</ele>
      </trkpt>
      <trkpt lat="40.14147" lon="15.55226">
        <ele>237.74</ele>
      </trkpt>
      <trkpt lat="40.14147" lon="15.55226">
        <ele>237.74</ele>
      </trkpt>
      <trkpt lat="40.14147" lon="15.55219">
        <ele>235.86</ele>
      </trkpt>
      <trkpt lat="40.1415" lon="15.55215">
        <ele>234.68</ele>
      </trkpt>
      <trkpt lat="40.14159" lon="15.55211">
        <ele>233.16</ele>
      </trkpt>
      <trkpt lat="40.14176" lon="15.55203">
        <ele>229.43</ele>
      </trkpt>
      <trkpt lat="40.14198" lon="15.55204">
        <ele>227.53</ele>
      </trkpt>
      <trkpt lat="40.14221" lon="15.55211">
        <ele>229.4</ele>
      </trkpt>
      <trkpt lat="40.14229" lon="15.55206">
        <ele>226.64</ele>
      </trkpt>
      <trkpt lat="40.14237" lon="15.55194">
        <ele>219.72</ele>
      </trkpt>
      <trkpt lat="40.14245" lon="15.55188">
        <ele>216.15</ele>
      </trkpt>
      <trkpt lat="40.14247" lon="15.55188">
        <ele>215.99</ele>
      </trkpt>
      <trkpt lat="40.14252" lon="15.55191">
        <ele>217.5</ele>
      </trkpt>
      <trkpt lat="40.14256" lon="15.55191">
        <ele>217.97</ele>
      </trkpt>
      <trkpt lat="40.14262" lon="15.55188">
        <ele>217.25</ele>
      </trkpt>
      <trkpt lat="40.14278" lon="15.55175">
        <ele>213.66</ele>
      </trkpt>
      <trkpt lat="40.14285" lon="15.55164">
        <ele>210.71</ele>
      </trkpt>
      <trkpt lat="40.14287" lon="15.55163">
        <ele>210.72</ele>
      </trkpt>
      <trkpt lat="40.1429" lon="15.55163">
        <ele>211.51</ele>
      </trkpt>
      <trkpt lat="40.14292" lon="15.55161">
        <ele>210.92</ele>
      </trkpt>
      <trkpt lat="40.14292" lon="15.55159">
        <ele>209.8</ele>
      </trkpt>
      <trkpt lat="40.14285" lon="15.55153">
        <ele>205.04</ele>
      </trkpt>
      <trkpt lat="40.14285" lon="15.5515">
        <ele>203.5</ele>
      </trkpt>
      <trkpt lat="40.14286" lon="15.55148">
        <ele>202.64</ele>
      </trkpt>
      <trkpt lat="40.14288" lon="15.55147">
        <ele>202.44</ele>
      </trkpt>
      <trkpt lat="40.14296" lon="15.55147">
        <ele>203.72</ele>
      </trkpt>
      <trkpt lat="40.14299" lon="15.55149">
        <ele>205.41</ele>
      </trkpt>
      <trkpt lat="40.14311" lon="15.55151">
        <ele>207.66</ele>
      </trkpt>
      <trkpt lat="40.14326" lon="15.55148">
        <ele>204.65</ele>
      </trkpt>
      <trkpt lat="40.14339" lon="15.55141">
        <ele>199.28</ele>
      </trkpt>
      <trkpt lat="40.14352" lon="15.55132">
        <ele>195.16</ele>
      </trkpt>
      <trkpt lat="40.14356" lon="15.55127">
        <ele>191.83</ele>
      </trkpt>
      <trkpt lat="40.14358" lon="15.55122">
        <ele>187.96</ele>
      </trkpt>
      <trkpt lat="40.14362" lon="15.55105">
        <ele>175.36</ele>
      </trkpt>
      <trkpt lat="40.14365" lon="15.55101">
        <ele>173.17</ele>
      </trkpt>
      <trkpt lat="40.14372" lon="15.55098">
        <ele>171.8</ele>
      </trkpt>
      <trkpt lat="40.144" lon="15.55102">
        <ele>177.84</ele>
      </trkpt>
      <trkpt lat="40.14417" lon="15.55097">
        <ele>176.91</ele>
      </trkpt>
      <trkpt lat="40.14419" lon="15.55094">
        <ele>175.15</ele>
      </trkpt>
      <trkpt lat="40.14421" lon="15.55079">
        <ele>165.26</ele>
      </trkpt>
      <trkpt lat="40.14426" lon="15.5507">
        <ele>160.98</ele>
      </trkpt>
      <trkpt lat="40.14426" lon="15.55062">
        <ele>156.57</ele>
      </trkpt>
      <trkpt lat="40.14426" lon="15.5506">
        <ele>155.46</ele>
      </trkpt>
      <trkpt lat="40.14425" lon="15.55059">
        <ele>154.8</ele>
      </trkpt>
      <trkpt lat="40.1442" lon="15.5506">
        <ele>154.78</ele>
      </trkpt>
      <trkpt lat="40.14411" lon="15.55067">
        <ele>157.76</ele>
      </trkpt>
      <trkpt lat="40.14408" lon="15.55067">
        <ele>157.54</ele>
      </trkpt>
      <trkpt lat="40.14402" lon="15.55062">
        <ele>154.87</ele>
      </trkpt>
      <trkpt lat="40.1439" lon="15.55061">
        <ele>154.0</ele>
      </trkpt>
      <trkpt lat="40.14375" lon="15.55066">
        <ele>155.45</ele>
      </trkpt>
      <trkpt lat="40.14375" lon="15.55066">
        <ele>155.45</ele>
      </trkpt>
      <trkpt lat="40.14375" lon="15.55066">
        <ele>155.45</ele>
      </trkpt>
      <trkpt lat="40.14356" lon="15.55077">
        <ele>159.29</ele>
      </trkpt>
      <trkpt lat="40.14337" lon="15.55083">
        <ele>160.17</ele>
      </trkpt>
      <trkpt lat="40.14323" lon="15.55086">
        <ele>161.1</ele>
      </trkpt>
      <trkpt lat="40.14317" lon="15.55082">
        <ele>158.43</ele>
      </trkpt>
      <trkpt lat="40.14307" lon="15.55065">
        <ele>152.23</ele>
      </trkpt>
      <trkpt lat="40.14257" lon="15.5504">
        <ele>142.66</ele>
      </trkpt>
      <trkpt lat="40.14257" lon="15.5504">
        <ele>142.66</ele>
      </trkpt>
      <trkpt lat="40.14257" lon="15.5504">
        <ele>142.66</ele>
      </trkpt>
      <trkpt lat="40.14265" lon="15.55037">
        <ele>144.76</ele>
      </trkpt>
      <trkpt lat="40.14265" lon="15.5503">
        <ele>145.53</ele>
      </trkpt>
      <trkpt lat="40.14272" lon="15.55025">
        <ele>148.29</ele>
      </trkpt>
      <trkpt lat="40.1434" lon="15.55014">
        <ele>155.03</ele>
      </trkpt>
      <trkpt lat="40.14341" lon="15.55025">
        <ele>151.69</ele>
      </trkpt>
      <trkpt lat="40.14341" lon="15.55025">
        <ele>151.69</ele>
      </trkpt>
      <trkpt lat="40.14341" lon="15.55025">
        <ele>151.69</ele>
      </trkpt>
      <trkpt lat="40.14354" lon="15.55028">
        <ele>149.04</ele>
      </trkpt>
      <trkpt lat="40.14373" lon="15.55036">
        <ele>149.01</ele>
      </trkpt>
      <trkpt lat="40.14394" lon="15.55038">
        <ele>149.94</ele>
      </trkpt>
      <trkpt lat="40.14394" lon="15.55038">
        <ele>149.94</ele>
      </trkpt>
      <trkpt lat="40.14394" lon="15.55038">
        <ele>149.94</ele>
      </trkpt>
      <trkpt lat="40.14411" lon="15.55025">
        <ele>151.55</ele>
      </trkpt>
      <trkpt lat="40.14413" lon="15.55015">
        <ele>153.03</ele>
      </trkpt>
      <trkpt lat="40.1442" lon="15.55008">
        <ele>154.34</ele>
      </trkpt>
      <trkpt lat="40.14422" lon="15.54992">
        <ele>159.01</ele>
      </trkpt>
      <trkpt lat="40.14416" lon="15.54985">
        <ele>161.49</ele>
      </trkpt>
      <trkpt lat="40.14425" lon="15.54985">
        <ele>162.57</ele>
      </trkpt>
      <trkpt lat="40.14424" lon="15.54972">
        <ele>168.46</ele>
      </trkpt>
      <trkpt lat="40.14431" lon="15.54971">
        <ele>170.26</ele>
      </trkpt>
      <trkpt lat="40.14446" lon="15.54977">
        <ele>169.62</ele>
      </trkpt>
      <trkpt lat="40.14446" lon="15.54977">
        <ele>169.62</ele>
      </trkpt>
      <trkpt lat="40.14446" lon="15.54977">
        <ele>169.62</ele>
      </trkpt>
      <trkpt lat="40.14448" lon="15.54967">
        <ele>174.62</ele>
      </trkpt>
      <trkpt lat="40.14451" lon="15.54965">
        <ele>175.77</ele>
      </trkpt>
      <trkpt lat="40.1445" lon="15.54958">
        <ele>178.64</ele>
      </trkpt>
      <trkpt lat="40.14443" lon="15.54952">
        <ele>180.74</ele>
      </trkpt>
      <trkpt lat="40.14425" lon="15.5494">
        <ele>187.5</ele>
      </trkpt>
      <trkpt lat="40.14418" lon="15.54939">
        <ele>188.62</ele>
      </trkpt>
      <trkpt lat="40.14393" lon="15.54943">
        <ele>189.46</ele>
      </trkpt>
      <trkpt lat="40.14328" lon="15.54939">
        <ele>186.3</ele>
      </trkpt>
      <trkpt lat="40.14317" lon="15.54938">
        <ele>183.92</ele>
      </trkpt>
      <trkpt lat="40.14313" lon="15.54935">
        <ele>183.58</ele>
      </trkpt>
      <trkpt lat="40.14303" lon="15.54921">
        <ele>183.81</ele>
      </trkpt>
      <trkpt lat="40.14279" lon="15.54861">
        <ele>188.42</ele>
      </trkpt>
      <trkpt lat="40.14275" lon="15.54838">
        <ele>193.44</ele>
      </trkpt>
      <trkpt lat="40.14271" lon="15.54826">
        <ele>195.37</ele>
      </trkpt>
      <trkpt lat="40.14262" lon="15.54818">
        <ele>194.77</ele>
      </trkpt>
      <trkpt lat="40.14257" lon="15.54801">
        <ele>195.51</ele>
      </trkpt>
      <trkpt lat="40.14257" lon="15.54801">
        <ele>195.51</ele>
      </trkpt>
      <trkpt lat="40.14257" lon="15.54801">
        <ele>195.51</ele>
      </trkpt>
      <trkpt lat="40.14259" lon="15.54791">
        <ele>196.78</ele>
      </trkpt>
      <trkpt lat="40.14265" lon="15.54773">
        <ele>200.11</ele>
      </trkpt>
      <trkpt lat="40.14271" lon="15.54757">
        <ele>203.06</ele>
      </trkpt>
      <trkpt lat="40.14284" lon="15.54747">
        <ele>208.53</ele>
      </trkpt>
      <trkpt lat="40.14293" lon="15.54743">
        <ele>212.05</ele>
      </trkpt>
      <trkpt lat="40.14305" lon="15.54739">
        <ele>216.59</ele>
      </trkpt>
      <trkpt lat="40.14315" lon="15.5473">
        <ele>218.61</ele>
      </trkpt>
      <trkpt lat="40.14327" lon="15.54713">
        <ele>221.44</ele>
      </trkpt>
      <trkpt lat="40.14338" lon="15.54696">
        <ele>222.96</ele>
      </trkpt>
      <trkpt lat="40.14346" lon="15.54671">
        <ele>223.05</ele>
      </trkpt>
      <trkpt lat="40.14346" lon="15.54671">
        <ele>223.05</ele>
      </trkpt>
      <trkpt lat="40.14346" lon="15.54671">
        <ele>223.05</ele>
      </trkpt>
      <trkpt lat="40.14349" lon="15.54672">
        <ele>223.56</ele>
      </trkpt>
      <trkpt lat="40.14353" lon="15.54668">
        <ele>223.91</ele>
      </trkpt>
      <trkpt lat="40.14372" lon="15.54638">
        <ele>225.99</ele>
      </trkpt>
      <trkpt lat="40.14376" lon="15.54627">
        <ele>227.14</ele>
      </trkpt>
      <trkpt lat="40.14378" lon="15.54612">
        <ele>228.22</ele>
      </trkpt>
      <trkpt lat="40.14395" lon="15.54567">
        <ele>234.02</ele>
      </trkpt>
      <trkpt lat="40.14401" lon="15.54559">
        <ele>236.25</ele>
      </trkpt>
      <trkpt lat="40.14422" lon="15.54552">
        <ele>242.47</ele>
      </trkpt>
      <trkpt lat="40.1444" lon="15.54523">
        <ele>244.45</ele>
      </trkpt>
      <trkpt lat="40.14469" lon="15.54487">
        <ele>253.54</ele>
      </trkpt>
      <trkpt lat="40.14484" lon="15.54457">
        <ele>259.72</ele>
      </trkpt>
      <trkpt lat="40.14484" lon="15.54457">
        <ele>259.72</ele>
      </trkpt>
      <trkpt lat="40.14484" lon="15.54457">
        <ele>259.72</ele>
      </trkpt>
      <trkpt lat="40.14532" lon="15.54401">
        <ele>278.6</ele>
      </trkpt>
      <trkpt lat="40.14539" lon="15.54389">
        <ele>282.22</ele>
      </trkpt>
      <trkpt lat="40.14543" lon="15.54379">
        <ele>285.36</ele>
      </trkpt>
      <trkpt lat="40.14548" lon="15.54371">
        <ele>288.51</ele>
      </trkpt>
      <trkpt lat="40.14562" lon="15.54365">
        <ele>294.08</ele>
      </trkpt>
      <trkpt lat="40.14562" lon="15.54365">
        <ele>294.08</ele>
      </trkpt>
      <trkpt lat="40.14562" lon="15.54365">
        <ele>294.08</ele>
      </trkpt>
      <trkpt lat="40.14566" lon="15.5437">
        <ele>294.33</ele>
      </trkpt>
      <trkpt lat="40.1457" lon="15.54373">
        <ele>295.04</ele>
      </trkpt>
      <trkpt lat="40.14577" lon="15.5437">
        <ele>297.75</ele>
      </trkpt>
      <trkpt lat="40.14585" lon="15.54361">
        <ele>301.32</ele>
      </trkpt>
      <trkpt lat="40.14606" lon="15.54316">
        <ele>313.21</ele>
      </trkpt>
      <trkpt lat="40.14632" lon="15.54289">
        <ele>324.86</ele>
      </trkpt>
      <trkpt lat="40.14638" lon="15.54275">
        <ele>326.97</ele>
      </trkpt>
      <trkpt lat="40.14639" lon="15.54264">
        <ele>328.03</ele>
      </trkpt>
      <trkpt lat="40.14638" lon="15.5425">
        <ele>328.74</ele>
      </trkpt>
      <trkpt lat="40.14647" lon="15.5422">
        <ele>330.74</ele>
      </trkpt>
      <trkpt lat="40.14658" lon="15.54201">
        <ele>334.67</ele>
      </trkpt>
      <trkpt lat="40.14671" lon="15.54192">
        <ele>338.58</ele>
      </trkpt>
      <trkpt lat="40.14679" lon="15.54193">
        <ele>341.1</ele>
      </trkpt>
      <trkpt lat="40.14689" lon="15.54194">
        <ele>344.27</ele>
      </trkpt>
      <trkpt lat="40.14712" lon="15.54184">
        <ele>349.76</ele>
      </trkpt>
      <trkpt lat="40.14721" lon="15.54192">
        <ele>350.17</ele>
      </trkpt>
      <trkpt lat="40.14732" lon="15.54197">
        <ele>350.02</ele>
      </trkpt>
      <trkpt lat="40.14732" lon="15.54197">
        <ele>350.02</ele>
      </trkpt>
      <trkpt lat="40.14732" lon="15.54197">
        <ele>350.02</ele>
      </trkpt>
      <trkpt lat="40.14735" lon="15.54204">
        <ele>349.24</ele>
      </trkpt>
      <trkpt lat="40.14739" lon="15.54207">
        <ele>349.07</ele>
      </trkpt>
      <trkpt lat="40.14744" lon="15.54209">
        <ele>349.1</ele>
      </trkpt>
      <trkpt lat="40.14753" lon="15.54208">
        <ele>349.16</ele>
      </trkpt>
      <trkpt lat="40.14784" lon="15.54194">
        <ele>347.24</ele>
      </trkpt>
      <trkpt lat="40.14791" lon="15.54192">
        <ele>346.93</ele>
      </trkpt>
      <trkpt lat="40.14802" lon="15.5419">
        <ele>346.21</ele>
      </trkpt>
      <trkpt lat="40.1481" lon="15.54189">
        <ele>344.81</ele>
      </trkpt>
      <trkpt lat="40.14815" lon="15.54187">
        <ele>344.05</ele>
      </trkpt>
      <trkpt lat="40.14831" lon="15.54181">
        <ele>341.11</ele>
      </trkpt>
      <trkpt lat="40.14846" lon="15.5417">
        <ele>342.48</ele>
      </trkpt>
      <trkpt lat="40.14857" lon="15.5416">
        <ele>343.89</ele>
      </trkpt>
      <trkpt lat="40.14865" lon="15.54156">
        <ele>345.13</ele>
      </trkpt>
      <trkpt lat="40.14873" lon="15.54156">
        <ele>346.53</ele>
      </trkpt>
      <trkpt lat="40.14879" lon="15.54162">
        <ele>346.05</ele>
      </trkpt>
      <trkpt lat="40.14896" lon="15.54187">
        <ele>344.18</ele>
      </trkpt>
      <trkpt lat="40.14908" lon="15.54199">
        <ele>343.24</ele>
      </trkpt>
      <trkpt lat="40.14924" lon="15.54204">
        <ele>344.86</ele>
      </trkpt>
      <trkpt lat="40.14955" lon="15.54201">
        <ele>353.71</ele>
      </trkpt>
      <trkpt lat="40.1497" lon="15.542">
        <ele>359.38</ele>
      </trkpt>
      <trkpt lat="40.14962" lon="15.5416">
        <ele>361.34</ele>
      </trkpt>
      <trkpt lat="40.14967" lon="15.54138">
        <ele>364.87</ele>
      </trkpt>
      <trkpt lat="40.14963" lon="15.54124">
        <ele>366.71</ele>
      </trkpt>
      <trkpt lat="40.14984" lon="15.5411">
        <ele>379.49</ele>
      </trkpt>
      <trkpt lat="40.14996" lon="15.54111">
        <ele>386.58</ele>
      </trkpt>
      <trkpt lat="40.15001" lon="15.54096">
        <ele>392.82</ele>
      </trkpt>
      <trkpt lat="40.15003" lon="15.54078">
        <ele>397.2</ele>
      </trkpt>
      <trkpt lat="40.15014" lon="15.5406">
        <ele>405.08</ele>
      </trkpt>
      <trkpt lat="40.15027" lon="15.54049">
        <ele>413.29</ele>
      </trkpt>
      <trkpt lat="40.15032" lon="15.54053">
        <ele>415.69</ele>
      </trkpt>
      <trkpt lat="40.1504" lon="15.54074">
        <ele>417.46</ele>
      </trkpt>
      <trkpt lat="40.15051" lon="15.54081">
        <ele>422.1</ele>
      </trkpt>
      <trkpt lat="40.15065" lon="15.54089">
        <ele>428.29</ele>
      </trkpt>
      <trkpt lat="40.15094" lon="15.54138">
        <ele>439.22</ele>
      </trkpt>
      <trkpt lat="40.15096" lon="15.54148">
        <ele>439.62</ele>
      </trkpt>
      <trkpt lat="40.151" lon="15.54158">
        <ele>441.4</ele>
      </trkpt>
      <trkpt lat="40.15114" lon="15.54167">
        <ele>450.03</ele>
      </trkpt>
      <trkpt lat="40.15114" lon="15.54154">
        <ele>451.9</ele>
      </trkpt>
      <trkpt lat="40.15122" lon="15.54142">
        <ele>459.39</ele>
      </trkpt>
      <trkpt lat="40.15122" lon="15.54129">
        <ele>461.56</ele>
      </trkpt>
      <trkpt lat="40.1513" lon="15.54124">
        <ele>467.72</ele>
      </trkpt>
      <trkpt lat="40.15133" lon="15.54113">
        <ele>471.15</ele>
      </trkpt>
      <trkpt lat="40.15138" lon="15.541">
        <ele>474.49</ele>
      </trkpt>
      <trkpt lat="40.15147" lon="15.541">
        <ele>478.21</ele>
      </trkpt>
      <trkpt lat="40.15161" lon="15.54115">
        <ele>483.67</ele>
      </trkpt>
      <trkpt lat="40.15173" lon="15.54114">
        <ele>490.18</ele>
      </trkpt>
      <trkpt lat="40.15184" lon="15.54109">
        <ele>497.23</ele>
      </trkpt>
      <trkpt lat="40.15197" lon="15.54092">
        <ele>505.9</ele>
      </trkpt>
      <trkpt lat="40.15206" lon="15.54094">
        <ele>512.64</ele>
      </trkpt>
      <trkpt lat="40.15205" lon="15.54106">
        <ele>512.22</ele>
      </trkpt>
      <trkpt lat="40.15211" lon="15.54105">
        <ele>516.85</ele>
      </trkpt>
      <trkpt lat="40.15265" lon="15.54062">
        <ele>548.73</ele>
      </trkpt>
      <trkpt lat="40.15279" lon="15.54053">
        <ele>556.45</ele>
      </trkpt>
      <trkpt lat="40.15296" lon="15.54053">
        <ele>562.68</ele>
      </trkpt>
      <trkpt lat="40.15301" lon="15.54055">
        <ele>564.39</ele>
      </trkpt>
      <trkpt lat="40.15301" lon="15.54055">
        <ele>564.39</ele>
      </trkpt>
      <trkpt lat="40.15305" lon="15.54056">
        <ele>565.82</ele>
      </trkpt>
      <trkpt lat="40.15313" lon="15.54068">
        <ele>568.3</ele>
      </trkpt>
      <trkpt lat="40.15324" lon="15.54078">
        <ele>571.87</ele>
      </trkpt>
      <trkpt lat="40.15326" lon="15.54087">
        <ele>573.35</ele>
      </trkpt>
      <trkpt lat="40.1533" lon="15.54091">
        <ele>575.08</ele>
      </trkpt>
      <trkpt lat="40.1534" lon="15.54094">
        <ele>576.39</ele>
      </trkpt>
      <trkpt lat="40.15348" lon="15.54089">
        <ele>575.4</ele>
      </trkpt>
      <trkpt lat="40.15361" lon="15.54089">
        <ele>575.02</ele>
      </trkpt>
      <trkpt lat="40.15365" lon="15.54095">
        <ele>576.18</ele>
      </trkpt>
      <trkpt lat="40.15363" lon="15.54104">
        <ele>577.74</ele>
      </trkpt>
      <trkpt lat="40.15356" lon="15.54104">
        <ele>577.77</ele>
      </trkpt>
      <trkpt lat="40.1535" lon="15.54109">
        <ele>578.65</ele>
      </trkpt>
      <trkpt lat="40.1534" lon="15.54125">
        <ele>581.74</ele>
      </trkpt>
      <trkpt lat="40.15339" lon="15.5413">
        <ele>582.68</ele>
      </trkpt>
      <trkpt lat="40.15346" lon="15.54138">
        <ele>584.72</ele>
      </trkpt>
      <trkpt lat="40.15357" lon="15.54163">
        <ele>591.78</ele>
      </trkpt>
      <trkpt lat="40.15366" lon="15.54169">
        <ele>594.73</ele>
      </trkpt>
      <trkpt lat="40.15366" lon="15.54169">
        <ele>594.73</ele>
      </trkpt>
      <trkpt lat="40.15366" lon="15.54169">
        <ele>594.73</ele>
      </trkpt>
      <trkpt lat="40.15338" lon="15.54183">
        <ele>595.06</ele>
      </trkpt>
      <trkpt lat="40.15322" lon="15.54209">
        <ele>593.77</ele>
      </trkpt>
      <trkpt lat="40.1532" lon="15.54228">
        <ele>594.5</ele>
      </trkpt>
      <trkpt lat="40.15319" lon="15.54244">
        <ele>594.51</ele>
      </trkpt>
      <trkpt lat="40.15331" lon="15.54304">
        <ele>600.95</ele>
      </trkpt>
      <trkpt lat="40.1534" lon="15.54331">
        <ele>603.18</ele>
      </trkpt>
      <trkpt lat="40.15353" lon="15.54397">
        <ele>597.57</ele>
      </trkpt>
      <trkpt lat="40.15362" lon="15.54409">
        <ele>600.78</ele>
      </trkpt>
      <trkpt lat="40.15379" lon="15.54487">
        <ele>594.33</ele>
      </trkpt>
      <trkpt lat="40.15387" lon="15.54521">
        <ele>593.54</ele>
      </trkpt>
      <trkpt lat="40.15402" lon="15.54551">
        <ele>594.46</ele>
      </trkpt>
      <trkpt lat="40.15402" lon="15.54551">
        <ele>594.46</ele>
      </trkpt>
      <trkpt lat="40.15402" lon="15.54551">
        <ele>594.46</ele>
      </trkpt>
      <trkpt lat="40.15387" lon="15.54521">
        <ele>593.54</ele>
      </trkpt>
      <trkpt lat="40.15379" lon="15.54487">
        <ele>594.33</ele>
      </trkpt>
      <trkpt lat="40.15362" lon="15.54409">
        <ele>600.78</ele>
      </trkpt>
      <trkpt lat="40.15353" lon="15.54397">
        <ele>597.57</ele>
      </trkpt>
      <trkpt lat="40.1534" lon="15.54331">
        <ele>603.18</ele>
      </trkpt>
      <trkpt lat="40.15331" lon="15.54304">
        <ele>600.95</ele>
      </trkpt>
      <trkpt lat="40.15319" lon="15.54244">
        <ele>594.51</ele>
      </trkpt>
      <trkpt lat="40.1532" lon="15.54228">
        <ele>594.5</ele>
      </trkpt>
      <trkpt lat="40.15322" lon="15.54209">
        <ele>593.77</ele>
      </trkpt>
      <trkpt lat="40.15338" lon="15.54183">
        <ele>595.06</ele>
      </trkpt>
      <trkpt lat="40.15366" lon="15.54169">
        <ele>594.73</ele>
      </trkpt>
      <trkpt lat="40.15357" lon="15.54163">
        <ele>591.78</ele>
      </trkpt>
      <trkpt lat="40.15346" lon="15.54138">
        <ele>584.72</ele>
      </trkpt>
      <trkpt lat="40.15339" lon="15.5413">
        <ele>582.68</ele>
      </trkpt>
      <trkpt lat="40.1534" lon="15.54125">
        <ele>581.74</ele>
      </trkpt>
      <trkpt lat="40.1535" lon="15.54109">
        <ele>578.65</ele>
      </trkpt>
      <trkpt lat="40.15356" lon="15.54104">
        <ele>577.77</ele>
      </trkpt>
      <trkpt lat="40.15363" lon="15.54104">
        <ele>577.74</ele>
      </trkpt>
      <trkpt lat="40.15365" lon="15.54095">
        <ele>576.18</ele>
      </trkpt>
      <trkpt lat="40.15361" lon="15.54089">
        <ele>575.02</ele>
      </trkpt>
      <trkpt lat="40.15348" lon="15.54089">
        <ele>575.4</ele>
      </trkpt>
      <trkpt lat="40.1534" lon="15.54094">
        <ele>576.39</ele>
      </trkpt>
      <trkpt lat="40.1533" lon="15.54091">
        <ele>575.08</ele>
      </trkpt>
      <trkpt lat="40.15326" lon="15.54087">
        <ele>573.35</ele>
      </trkpt>
      <trkpt lat="40.15324" lon="15.54078">
        <ele>571.87</ele>
      </trkpt>
      <trkpt lat="40.15313" lon="15.54068">
        <ele>568.3</ele>
      </trkpt>
      <trkpt lat="40.15305" lon="15.54056">
        <ele>565.82</ele>
      </trkpt>
      <trkpt lat="40.15304" lon="15.54047">
        <ele>566.02</ele>
      </trkpt>
      <trkpt lat="40.15304" lon="15.54047">
        <ele>566.02</ele>
      </trkpt>
      <trkpt lat="40.15304" lon="15.54047">
        <ele>566.02</ele>
      </trkpt>
      <trkpt lat="40.15303" lon="15.54032">
        <ele>566.62</ele>
      </trkpt>
      <trkpt lat="40.15295" lon="15.53994">
        <ele>566.42</ele>
      </trkpt>
      <trkpt lat="40.15292" lon="15.53982">
        <ele>566.56</ele>
      </trkpt>
      <trkpt lat="40.15282" lon="15.53969">
        <ele>564.81</ele>
      </trkpt>
      <trkpt lat="40.15267" lon="15.53964">
        <ele>560.3</ele>
      </trkpt>
      <trkpt lat="40.15265" lon="15.53951">
        <ele>561.46</ele>
      </trkpt>
      <trkpt lat="40.1526" lon="15.53943">
        <ele>560.84</ele>
      </trkpt>
      <trkpt lat="40.15243" lon="15.5394">
        <ele>555.11</ele>
      </trkpt>
      <trkpt lat="40.15239" lon="15.53935">
        <ele>554.61</ele>
      </trkpt>
      <trkpt lat="40.15236" lon="15.53914">
        <ele>557.99</ele>
      </trkpt>
      <trkpt lat="40.15234" lon="15.53903">
        <ele>559.56</ele>
      </trkpt>
      <trkpt lat="40.15225" lon="15.53894">
        <ele>558.71</ele>
      </trkpt>
      <trkpt lat="40.1521" lon="15.53896">
        <ele>551.62</ele>
      </trkpt>
      <trkpt lat="40.15204" lon="15.53886">
        <ele>552.06</ele>
      </trkpt>
      <trkpt lat="40.15204" lon="15.53886">
        <ele>552.06</ele>
      </trkpt>
      <trkpt lat="40.15204" lon="15.53886">
        <ele>552.06</ele>
      </trkpt>
      <trkpt lat="40.15195" lon="15.53874">
        <ele>552.06</ele>
      </trkpt>
      <trkpt lat="40.1519" lon="15.53854">
        <ele>555.88</ele>
      </trkpt>
      <trkpt lat="40.1518" lon="15.53827">
        <ele>559.39</ele>
      </trkpt>
      <trkpt lat="40.15168" lon="15.53792">
        <ele>563.58</ele>
      </trkpt>
      <trkpt lat="40.15157" lon="15.53774">
        <ele>562.35</ele>
      </trkpt>
      <trkpt lat="40.15133" lon="15.53742">
        <ele>556.67</ele>
      </trkpt>
      <trkpt lat="40.15121" lon="15.53716">
        <ele>558.3</ele>
      </trkpt>
      <trkpt lat="40.15121" lon="15.53716">
        <ele>558.3</ele>
      </trkpt>
      <trkpt lat="40.15121" lon="15.53716">
        <ele>558.3</ele>
      </trkpt>
      <trkpt lat="40.15118" lon="15.53709">
        <ele>558.48</ele>
      </trkpt>
      <trkpt lat="40.15106" lon="15.5367">
        <ele>564.21</ele>
      </trkpt>
      <trkpt lat="40.15087" lon="15.53632">
        <ele>562.25</ele>
      </trkpt>
      <trkpt lat="40.15068" lon="15.53607">
        <ele>557.98</ele>
      </trkpt>
      <trkpt lat="40.15056" lon="15.53594">
        <ele>553.87</ele>
      </trkpt>
      <trkpt lat="40.15048" lon="15.53575">
        <ele>555.95</ele>
      </trkpt>
      <trkpt lat="40.15039" lon="15.53548">
        <ele>561.46</ele>
      </trkpt>
      <trkpt lat="40.15025" lon="15.53518">
        <ele>565.84</ele>
      </trkpt>
      <trkpt lat="40.15018" lon="15.53512">
        <ele>564.34</ele>
      </trkpt>
      <trkpt lat="40.15001" lon="15.53511">
        <ele>554.99</ele>
      </trkpt>
      <trkpt lat="40.14995" lon="15.53506">
        <ele>551.86</ele>
      </trkpt>
      <trkpt lat="40.14995" lon="15.53506">
        <ele>551.86</ele>
      </trkpt>
      <trkpt lat="40.14995" lon="15.53506">
        <ele>551.86</ele>
      </trkpt>
      <trkpt lat="40.14979" lon="15.53493">
        <ele>543.4</ele>
      </trkpt>
      <trkpt lat="40.14974" lon="15.53479">
        <ele>542.18</ele>
      </trkpt>
      <trkpt lat="40.14976" lon="15.53447">
        <ele>550.68</ele>
      </trkpt>
      <trkpt lat="40.14972" lon="15.53436">
        <ele>549.76</ele>
      </trkpt>
      <trkpt lat="40.14956" lon="15.53411">
        <ele>542.35</ele>
      </trkpt>
      <trkpt lat="40.14948" lon="15.53391">
        <ele>539.43</ele>
      </trkpt>
      <trkpt lat="40.14937" lon="15.53289">
        <ele>543.24</ele>
      </trkpt>
      <trkpt lat="40.14925" lon="15.53262">
        <ele>536.27</ele>
      </trkpt>
      <trkpt lat="40.14921" lon="15.53205">
        <ele>537.56</ele>
      </trkpt>
      <trkpt lat="40.14914" lon="15.5318">
        <ele>539.67</ele>
      </trkpt>
      <trkpt lat="40.1491" lon="15.53164">
        <ele>543.07</ele>
      </trkpt>
      <trkpt lat="40.14902" lon="15.53148">
        <ele>542.78</ele>
      </trkpt>
      <trkpt lat="40.149" lon="15.53123">
        <ele>544.8</ele>
      </trkpt>
      <trkpt lat="40.14898" lon="15.53103">
        <ele>544.22</ele>
      </trkpt>
      <trkpt lat="40.14906" lon="15.53088">
        <ele>545.73</ele>
      </trkpt>
      <trkpt lat="40.14905" lon="15.53072">
        <ele>544.52</ele>
      </trkpt>
      <trkpt lat="40.14906" lon="15.53059">
        <ele>544.03</ele>
      </trkpt>
      <trkpt lat="40.14902" lon="15.53038">
        <ele>543.12</ele>
      </trkpt>
      <trkpt lat="40.14898" lon="15.53014">
        <ele>542.83</ele>
      </trkpt>
      <trkpt lat="40.14905" lon="15.52998">
        <ele>542.8</ele>
      </trkpt>
      <trkpt lat="40.14905" lon="15.52994">
        <ele>542.41</ele>
      </trkpt>
      <trkpt lat="40.14892" lon="15.52988">
        <ele>542.42</ele>
      </trkpt>
      <trkpt lat="40.14891" lon="15.52977">
        <ele>541.98</ele>
      </trkpt>
      <trkpt lat="40.1488" lon="15.52942">
        <ele>537.09</ele>
      </trkpt>
      <trkpt lat="40.14869" lon="15.5292">
        <ele>534.94</ele>
      </trkpt>
      <trkpt lat="40.14857" lon="15.529">
        <ele>530.76</ele>
      </trkpt>
      <trkpt lat="40.14854" lon="15.52895">
        <ele>528.75</ele>
      </trkpt>
      <trkpt lat="40.1486" lon="15.52862">
        <ele>525.91</ele>
      </trkpt>
      <trkpt lat="40.14854" lon="15.5286">
        <ele>524.33</ele>
      </trkpt>
      <trkpt lat="40.14854" lon="15.52854">
        <ele>523.64</ele>
      </trkpt>
      <trkpt lat="40.14854" lon="15.52854">
        <ele>523.64</ele>
      </trkpt>
      <trkpt lat="40.14854" lon="15.52854">
        <ele>523.64</ele>
      </trkpt>
      <trkpt lat="40.14854" lon="15.52847">
        <ele>522.82</ele>
      </trkpt>
      <trkpt lat="40.14864" lon="15.52833">
        <ele>521.75</ele>
      </trkpt>
      <trkpt lat="40.14856" lon="15.52829">
        <ele>520.85</ele>
      </trkpt>
      <trkpt lat="40.14855" lon="15.52826">
        <ele>520.34</ele>
      </trkpt>
      <trkpt lat="40.14862" lon="15.52809">
        <ele>518.46</ele>
      </trkpt>
      <trkpt lat="40.14863" lon="15.5279">
        <ele>516.25</ele>
      </trkpt>
      <trkpt lat="40.14861" lon="15.52759">
        <ele>512.27</ele>
      </trkpt>
      <trkpt lat="40.14862" lon="15.52756">
        <ele>511.86</ele>
      </trkpt>
      <trkpt lat="40.1487" lon="15.52762">
        <ele>512.59</ele>
      </trkpt>
      <trkpt lat="40.14881" lon="15.52764">
        <ele>512.66</ele>
      </trkpt>
      <trkpt lat="40.14898" lon="15.52761">
        <ele>510.75</ele>
      </trkpt>
      <trkpt lat="40.14915" lon="15.5276">
        <ele>507.98</ele>
      </trkpt>
      <trkpt lat="40.14927" lon="15.52762">
        <ele>507.28</ele>
      </trkpt>
      <trkpt lat="40.14939" lon="15.52778">
        <ele>508.24</ele>
      </trkpt>
      <trkpt lat="40.14941" lon="15.52777">
        <ele>508.04</ele>
      </trkpt>
      <trkpt lat="40.1496" lon="15.52754">
        <ele>506.07</ele>
      </trkpt>
      <trkpt lat="40.14968" lon="15.5275">
        <ele>505.85</ele>
      </trkpt>
      <trkpt lat="40.14974" lon="15.52739">
        <ele>504.66</ele>
      </trkpt>
      <trkpt lat="40.14984" lon="15.52729">
        <ele>502.56</ele>
      </trkpt>
      <trkpt lat="40.14986" lon="15.52723">
        <ele>501.61</ele>
      </trkpt>
      <trkpt lat="40.14989" lon="15.5272">
        <ele>500.92</ele>
      </trkpt>
      <trkpt lat="40.14998" lon="15.52723">
        <ele>500.33</ele>
      </trkpt>
      <trkpt lat="40.15" lon="15.5272">
        <ele>499.76</ele>
      </trkpt>
      <trkpt lat="40.15" lon="15.52715">
        <ele>499.22</ele>
      </trkpt>
      <trkpt lat="40.15005" lon="15.52701">
        <ele>497.66</ele>
      </trkpt>
      <trkpt lat="40.15019" lon="15.52679">
        <ele>493.36</ele>
      </trkpt>
      <trkpt lat="40.15025" lon="15.52665">
        <ele>490.77</ele>
      </trkpt>
      <trkpt lat="40.15023" lon="15.52663">
        <ele>490.52</ele>
      </trkpt>
      <trkpt lat="40.15016" lon="15.52664">
        <ele>490.7</ele>
      </trkpt>
      <trkpt lat="40.15012" lon="15.52663">
        <ele>490.62</ele>
      </trkpt>
      <trkpt lat="40.15013" lon="15.52659">
        <ele>490.19</ele>
      </trkpt>
      <trkpt lat="40.15021" lon="15.52651">
        <ele>489.02</ele>
      </trkpt>
      <trkpt lat="40.15023" lon="15.52634">
        <ele>487.2</ele>
      </trkpt>
      <trkpt lat="40.15013" lon="15.52615">
        <ele>487.66</ele>
      </trkpt>
      <trkpt lat="40.15009" lon="15.52609">
        <ele>487.98</ele>
      </trkpt>
      <trkpt lat="40.14998" lon="15.5261">
        <ele>488.74</ele>
      </trkpt>
      <trkpt lat="40.1499" lon="15.52615">
        <ele>488.07</ele>
      </trkpt>
      <trkpt lat="40.14986" lon="15.52615">
        <ele>487.7</ele>
      </trkpt>
      <trkpt lat="40.14981" lon="15.52602">
        <ele>486.17</ele>
      </trkpt>
      <trkpt lat="40.14971" lon="15.52591">
        <ele>483.44</ele>
      </trkpt>
      <trkpt lat="40.14961" lon="15.52582">
        <ele>478.69</ele>
      </trkpt>
      <trkpt lat="40.14952" lon="15.52579">
        <ele>474.64</ele>
      </trkpt>
      <trkpt lat="40.14945" lon="15.52581">
        <ele>472.53</ele>
      </trkpt>
      <trkpt lat="40.14939" lon="15.52578">
        <ele>470.25</ele>
      </trkpt>
      <trkpt lat="40.14936" lon="15.52575">
        <ele>468.68</ele>
      </trkpt>
      <trkpt lat="40.14936" lon="15.5257">
        <ele>467.19</ele>
      </trkpt>
      <trkpt lat="40.14935" lon="15.52567">
        <ele>466.06</ele>
      </trkpt>
      <trkpt lat="40.14932" lon="15.52563">
        <ele>464.13</ele>
      </trkpt>
      <trkpt lat="40.1492" lon="15.52562">
        <ele>460.9</ele>
      </trkpt>
      <trkpt lat="40.14913" lon="15.52566">
        <ele>460.26</ele>
      </trkpt>
      <trkpt lat="40.14905" lon="15.52575">
        <ele>461.28</ele>
      </trkpt>
      <trkpt lat="40.14895" lon="15.5258">
        <ele>460.87</ele>
      </trkpt>
      <trkpt lat="40.1487" lon="15.52584">
        <ele>456.51</ele>
      </trkpt>
      <trkpt lat="40.14865" lon="15.52583">
        <ele>454.81</ele>
      </trkpt>
      <trkpt lat="40.14854" lon="15.5258">
        <ele>451.39</ele>
      </trkpt>
      <trkpt lat="40.1484" lon="15.52576">
        <ele>447.87</ele>
      </trkpt>
      <trkpt lat="40.14824" lon="15.52565">
        <ele>442.28</ele>
      </trkpt>
      <trkpt lat="40.1481" lon="15.52551">
        <ele>438.83</ele>
      </trkpt>
      <trkpt lat="40.1481" lon="15.52551">
        <ele>438.83</ele>
      </trkpt>
      <trkpt lat="40.1481" lon="15.52551">
        <ele>438.83</ele>
      </trkpt>
      <trkpt lat="40.148" lon="15.52541">
        <ele>436.37</ele>
      </trkpt>
      <trkpt lat="40.14793" lon="15.52539">
        <ele>435.42</ele>
      </trkpt>
      <trkpt lat="40.14788" lon="15.5254">
        <ele>435.17</ele>
      </trkpt>
      <trkpt lat="40.14763" lon="15.52559">
        <ele>431.8</ele>
      </trkpt>
      <trkpt lat="40.14743" lon="15.52565">
        <ele>424.98</ele>
      </trkpt>
      <trkpt lat="40.14737" lon="15.52575">
        <ele>422.9</ele>
      </trkpt>
      <trkpt lat="40.14729" lon="15.52612">
        <ele>418.44</ele>
      </trkpt>
      <trkpt lat="40.14721" lon="15.52635">
        <ele>415.62</ele>
      </trkpt>
      <trkpt lat="40.14715" lon="15.52647">
        <ele>412.19</ele>
      </trkpt>
      <trkpt lat="40.14714" lon="15.52651">
        <ele>411.08</ele>
      </trkpt>
      <trkpt lat="40.14717" lon="15.52664">
        <ele>410.01</ele>
      </trkpt>
      <trkpt lat="40.14716" lon="15.52671">
        <ele>408.62</ele>
      </trkpt>
      <trkpt lat="40.14715" lon="15.52677">
        <ele>407.5</ele>
      </trkpt>
      <trkpt lat="40.14714" lon="15.52706">
        <ele>404.61</ele>
      </trkpt>
      <trkpt lat="40.14712" lon="15.52711">
        <ele>403.4</ele>
      </trkpt>
      <trkpt lat="40.14706" lon="15.5272">
        <ele>399.95</ele>
      </trkpt>
      <trkpt lat="40.14702" lon="15.52718">
        <ele>398.07</ele>
      </trkpt>
      <trkpt lat="40.14699" lon="15.52708">
        <ele>397.24</ele>
      </trkpt>
      <trkpt lat="40.14693" lon="15.52704">
        <ele>394.79</ele>
      </trkpt>
      <trkpt lat="40.14685" lon="15.52695">
        <ele>392.56</ele>
      </trkpt>
      <trkpt lat="40.14685" lon="15.52695">
        <ele>392.56</ele>
      </trkpt>
      <trkpt lat="40.14685" lon="15.52695">
        <ele>392.56</ele>
      </trkpt>
      <trkpt lat="40.14681" lon="15.52695">
        <ele>391.12</ele>
      </trkpt>
      <trkpt lat="40.14679" lon="15.52689">
        <ele>390.81</ele>
      </trkpt>
      <trkpt lat="40.14671" lon="15.52675">
        <ele>388.48</ele>
      </trkpt>
      <trkpt lat="40.14664" lon="15.52669">
        <ele>385.84</ele>
      </trkpt>
      <trkpt lat="40.14645" lon="15.52662">
        <ele>378.53</ele>
      </trkpt>
      <trkpt lat="40.14623" lon="15.52665">
        <ele>370.89</ele>
      </trkpt>
      <trkpt lat="40.14603" lon="15.5267">
        <ele>366.05</ele>
      </trkpt>
      <trkpt lat="40.1457" lon="15.52679">
        <ele>360.39</ele>
      </trkpt>
      <trkpt lat="40.1454" lon="15.52684">
        <ele>355.25</ele>
      </trkpt>
      <trkpt lat="40.14535" lon="15.52684">
        <ele>354.48</ele>
      </trkpt>
      <trkpt lat="40.14527" lon="15.5268">
        <ele>353.39</ele>
      </trkpt>
      <trkpt lat="40.14518" lon="15.52678">
        <ele>351.98</ele>
      </trkpt>
      <trkpt lat="40.14495" lon="15.52679">
        <ele>348.0</ele>
      </trkpt>
      <trkpt lat="40.14487" lon="15.52679">
        <ele>346.4</ele>
      </trkpt>
      <trkpt lat="40.14462" lon="15.52669">
        <ele>343.48</ele>
      </trkpt>
      <trkpt lat="40.14455" lon="15.5267">
        <ele>343.81</ele>
      </trkpt>
      <trkpt lat="40.14449" lon="15.52673">
        <ele>344.25</ele>
      </trkpt>
      <trkpt lat="40.14417" lon="15.52693">
        <ele>345.01</ele>
      </trkpt>
      <trkpt lat="40.14406" lon="15.52698">
        <ele>343.77</ele>
      </trkpt>
      <trkpt lat="40.14386" lon="15.52705">
        <ele>341.51</ele>
      </trkpt>
      <trkpt lat="40.14377" lon="15.52703">
        <ele>340.66</ele>
      </trkpt>
      <trkpt lat="40.14353" lon="15.52679">
        <ele>339.36</ele>
      </trkpt>
      <trkpt lat="40.14347" lon="15.52676">
        <ele>338.28</ele>
      </trkpt>
      <trkpt lat="40.1434" lon="15.52676">
        <ele>336.77</ele>
      </trkpt>
      <trkpt lat="40.1434" lon="15.52676">
        <ele>336.77</ele>
      </trkpt>
      <trkpt lat="40.1434" lon="15.52676">
        <ele>336.77</ele>
      </trkpt>
      <trkpt lat="40.14315" lon="15.52646">
        <ele>332.04</ele>
      </trkpt>
      <trkpt lat="40.1428" lon="15.52593">
        <ele>320.97</ele>
      </trkpt>
      <trkpt lat="40.14235" lon="15.52545">
        <ele>314.32</ele>
      </trkpt>
      <trkpt lat="40.14217" lon="15.5253">
        <ele>313.16</ele>
      </trkpt>
      <trkpt lat="40.14175" lon="15.52512">
        <ele>312.96</ele>
      </trkpt>
      <trkpt lat="40.14133" lon="15.52501">
        <ele>305.66</ele>
      </trkpt>
      <trkpt lat="40.14073" lon="15.52491">
        <ele>307.25</ele>
      </trkpt>
      <trkpt lat="40.14073" lon="15.52491">
        <ele>307.25</ele>
      </trkpt>
      <trkpt lat="40.14073" lon="15.52491">
        <ele>307.25</ele>
      </trkpt>
      <trkpt lat="40.14073" lon="15.52495">
        <ele>307.31</ele>
      </trkpt>
      <trkpt lat="40.14071" lon="15.52498">
        <ele>307.41</ele>
      </trkpt>
      <trkpt lat="40.14067" lon="15.525">
        <ele>307.59</ele>
      </trkpt>
      <trkpt lat="40.14061" lon="15.52503">
        <ele>307.48</ele>
      </trkpt>
      <trkpt lat="40.14052" lon="15.52504">
        <ele>307.46</ele>
      </trkpt>
      <trkpt lat="40.14048" lon="15.52506">
        <ele>307.14</ele>
      </trkpt>
      <trkpt lat="40.14037" lon="15.52513">
        <ele>306.24</ele>
      </trkpt>
      <trkpt lat="40.14034" lon="15.52517">
        <ele>305.86</ele>
      </trkpt>
      <trkpt lat="40.14006" lon="15.52596">
        <ele>291.93</ele>
      </trkpt>
      <trkpt lat="40.14006" lon="15.52602">
        <ele>290.68</ele>
      </trkpt>
      <trkpt lat="40.1401" lon="15.5263">
        <ele>286.41</ele>
      </trkpt>
      <trkpt lat="40.14013" lon="15.52641">
        <ele>285.24</ele>
      </trkpt>
      <trkpt lat="40.14017" lon="15.52646">
        <ele>284.79</ele>
      </trkpt>
      <trkpt lat="40.14017" lon="15.52646">
        <ele>284.79</ele>
      </trkpt>
      <trkpt lat="40.14017" lon="15.52646">
        <ele>284.79</ele>
      </trkpt>
      <trkpt lat="40.14021" lon="15.52651">
        <ele>284.22</ele>
      </trkpt>
      <trkpt lat="40.14021" lon="15.52654">
        <ele>283.85</ele>
      </trkpt>
      <trkpt lat="40.14011" lon="15.52688">
        <ele>278.91</ele>
      </trkpt>
      <trkpt lat="40.14007" lon="15.52693">
        <ele>277.78</ele>
      </trkpt>
      <trkpt lat="40.13994" lon="15.52706">
        <ele>275.14</ele>
      </trkpt>
      <trkpt lat="40.13983" lon="15.52731">
        <ele>271.47</ele>
      </trkpt>
      <trkpt lat="40.1398" lon="15.52743">
        <ele>269.94</ele>
      </trkpt>
      <trkpt lat="40.13976" lon="15.52776">
        <ele>265.13</ele>
      </trkpt>
      <trkpt lat="40.13976" lon="15.52803">
        <ele>259.42</ele>
      </trkpt>
      <trkpt lat="40.13972" lon="15.52816">
        <ele>256.79</ele>
      </trkpt>
      <trkpt lat="40.13966" lon="15.52827">
        <ele>255.78</ele>
      </trkpt>
      <trkpt lat="40.13955" lon="15.52839">
        <ele>256.57</ele>
      </trkpt>
      <trkpt lat="40.13952" lon="15.52844">
        <ele>256.74</ele>
      </trkpt>
      <trkpt lat="40.13943" lon="15.52866">
        <ele>256.71</ele>
      </trkpt>
      <trkpt lat="40.13938" lon="15.52874">
        <ele>256.55</ele>
      </trkpt>
      <trkpt lat="40.13932" lon="15.52878">
        <ele>256.87</ele>
      </trkpt>
      <trkpt lat="40.13923" lon="15.52884">
        <ele>257.12</ele>
      </trkpt>
      <trkpt lat="40.13919" lon="15.52892">
        <ele>256.27</ele>
      </trkpt>
      <trkpt lat="40.13917" lon="15.52899">
        <ele>255.49</ele>
      </trkpt>
      <trkpt lat="40.13914" lon="15.52915">
        <ele>252.98</ele>
      </trkpt>
      <trkpt lat="40.1391" lon="15.52923">
        <ele>250.34</ele>
      </trkpt>
      <trkpt lat="40.13904" lon="15.52928">
        <ele>248.33</ele>
      </trkpt>
      <trkpt lat="40.13863" lon="15.52945">
        <ele>244.74</ele>
      </trkpt>
      <trkpt lat="40.13844" lon="15.52956">
        <ele>242.3</ele>
      </trkpt>
      <trkpt lat="40.1382" lon="15.52971">
        <ele>235.18</ele>
      </trkpt>
      <trkpt lat="40.13818" lon="15.52975">
        <ele>233.51</ele>
      </trkpt>
      <trkpt lat="40.13819" lon="15.52981">
        <ele>231.2</ele>
      </trkpt>
      <trkpt lat="40.13819" lon="15.52981">
        <ele>231.2</ele>
      </trkpt>
      <trkpt lat="40.13819" lon="15.52981">
        <ele>231.2</ele>
      </trkpt>
      <trkpt lat="40.13839" lon="15.52979">
        <ele>232.14</ele>
      </trkpt>
      <trkpt lat="40.13857" lon="15.52981">
        <ele>233.71</ele>
      </trkpt>
      <trkpt lat="40.13867" lon="15.52986">
        <ele>231.45</ele>
      </trkpt>
      <trkpt lat="40.13871" lon="15.52993">
        <ele>227.87</ele>
      </trkpt>
      <trkpt lat="40.1388" lon="15.52988">
        <ele>230.28</ele>
      </trkpt>
      <trkpt lat="40.13896" lon="15.52972">
        <ele>236.54</ele>
      </trkpt>
      <trkpt lat="40.13928" lon="15.52948">
        <ele>238.0</ele>
      </trkpt>
      <trkpt lat="40.13933" lon="15.52947">
        <ele>236.17</ele>
      </trkpt>
      <trkpt lat="40.13954" lon="15.52952">
        <ele>227.7</ele>
      </trkpt>
      <trkpt lat="40.13959" lon="15.52951">
        <ele>226.81</ele>
      </trkpt>
      <trkpt lat="40.13977" lon="15.52934">
        <ele>228.19</ele>
      </trkpt>
      <trkpt lat="40.13988" lon="15.5293">
        <ele>230.32</ele>
      </trkpt>
      <trkpt lat="40.14008" lon="15.52932">
        <ele>232.16</ele>
      </trkpt>
      <trkpt lat="40.14026" lon="15.52946">
        <ele>233.46</ele>
      </trkpt>
      <trkpt lat="40.14036" lon="15.52958">
        <ele>233.68</ele>
      </trkpt>
      <trkpt lat="40.1404" lon="15.52968">
        <ele>232.87</ele>
      </trkpt>
      <trkpt lat="40.14039" lon="15.52976">
        <ele>231.64</ele>
      </trkpt>
      <trkpt lat="40.14037" lon="15.53021">
        <ele>225.88</ele>
      </trkpt>
      <trkpt lat="40.14033" lon="15.5306">
        <ele>219.73</ele>
      </trkpt>
      <trkpt lat="40.14037" lon="15.53077">
        <ele>218.05</ele>
      </trkpt>
      <trkpt lat="40.14057" lon="15.53124">
        <ele>219.38</ele>
      </trkpt>
      <trkpt lat="40.14084" lon="15.53176">
        <ele>218.75</ele>
      </trkpt>
      <trkpt lat="40.14109" lon="15.53238">
        <ele>211.9</ele>
      </trkpt>
      <trkpt lat="40.14113" lon="15.53249">
        <ele>210.31</ele>
      </trkpt>
      <trkpt lat="40.14124" lon="15.53285">
        <ele>208.25</ele>
      </trkpt>
      <trkpt lat="40.14129" lon="15.53292">
        <ele>208.75</ele>
      </trkpt>
      <trkpt lat="40.14136" lon="15.53297">
        <ele>209.62</ele>
      </trkpt>
      <trkpt lat="40.14152" lon="15.53309">
        <ele>212.43</ele>
      </trkpt>
      <trkpt lat="40.14158" lon="15.53316">
        <ele>213.56</ele>
      </trkpt>
      <trkpt lat="40.14161" lon="15.53321">
        <ele>214.09</ele>
      </trkpt>
      <trkpt lat="40.14214" lon="15.53405">
        <ele>217.99</ele>
      </trkpt>
      <trkpt lat="40.14217" lon="15.53421">
        <ele>218.38</ele>
      </trkpt>
      <trkpt lat="40.14209" lon="15.53453">
        <ele>217.09</ele>
      </trkpt>
      <trkpt lat="40.14209" lon="15.53482">
        <ele>219.37</ele>
      </trkpt>
      <trkpt lat="40.14207" lon="15.53494">
        <ele>220.49</ele>
      </trkpt>
      <trkpt lat="40.14186" lon="15.53551">
        <ele>225.33</ele>
      </trkpt>
      <trkpt lat="40.14155" lon="15.53601">
        <ele>229.87</ele>
      </trkpt>
      <trkpt lat="40.14141" lon="15.53639">
        <ele>233.32</ele>
      </trkpt>
      <trkpt lat="40.14128" lon="15.53665">
        <ele>233.1</ele>
      </trkpt>
      <trkpt lat="40.14126" lon="15.5368">
        <ele>233.71</ele>
      </trkpt>
      <trkpt lat="40.14126" lon="15.537">
        <ele>234.75</ele>
      </trkpt>
      <trkpt lat="40.14139" lon="15.53749">
        <ele>238.02</ele>
      </trkpt>
      <trkpt lat="40.14159" lon="15.53787">
        <ele>237.3</ele>
      </trkpt>
      <trkpt lat="40.14159" lon="15.53787">
        <ele>237.3</ele>
      </trkpt>
      <trkpt lat="40.14159" lon="15.53787">
        <ele>237.3</ele>
      </trkpt>
      <trkpt lat="40.14163" lon="15.53796">
        <ele>236.29</ele>
      </trkpt>
      <trkpt lat="40.14173" lon="15.53828">
        <ele>235.44</ele>
      </trkpt>
      <trkpt lat="40.14181" lon="15.53854">
        <ele>235.39</ele>
      </trkpt>
      <trkpt lat="40.14187" lon="15.53876">
        <ele>235.48</ele>
      </trkpt>
      <trkpt lat="40.14193" lon="15.53886">
        <ele>235.98</ele>
      </trkpt>
      <trkpt lat="40.14207" lon="15.53906">
        <ele>240.08</ele>
      </trkpt>
      <trkpt lat="40.1421" lon="15.53928">
        <ele>239.96</ele>
      </trkpt>
      <trkpt lat="40.14205" lon="15.53968">
        <ele>237.62</ele>
      </trkpt>
      <trkpt lat="40.14196" lon="15.54002">
        <ele>236.6</ele>
      </trkpt>
      <trkpt lat="40.14189" lon="15.54028">
        <ele>237.63</ele>
      </trkpt>
      <trkpt lat="40.14188" lon="15.54042">
        <ele>237.77</ele>
      </trkpt>
      <trkpt lat="40.14192" lon="15.54098">
        <ele>241.35</ele>
      </trkpt>
      <trkpt lat="40.1419" lon="15.54134">
        <ele>243.37</ele>
      </trkpt>
      <trkpt lat="40.14167" lon="15.54224">
        <ele>240.15</ele>
      </trkpt>
      <trkpt lat="40.14163" lon="15.54248">
        <ele>240.65</ele>
      </trkpt>
      <trkpt lat="40.14162" lon="15.54269">
        <ele>239.87</ele>
      </trkpt>
      <trkpt lat="40.14168" lon="15.54289">
        <ele>237.29</ele>
      </trkpt>
      <trkpt lat="40.14183" lon="15.54313">
        <ele>233.16</ele>
      </trkpt>
      <trkpt lat="40.14202" lon="15.54349">
        <ele>228.93</ele>
      </trkpt>
      <trkpt lat="40.14211" lon="15.54358">
        <ele>229.2</ele>
      </trkpt>
      <trkpt lat="40.14279" lon="15.54389">
        <ele>233.03</ele>
      </trkpt>
      <trkpt lat="40.14288" lon="15.544">
        <ele>231.47</ele>
      </trkpt>
      <trkpt lat="40.14292" lon="15.54413">
        <ele>229.15</ele>
      </trkpt>
      <trkpt lat="40.14294" lon="15.54428">
        <ele>226.85</ele>
      </trkpt>
      <trkpt lat="40.14304" lon="15.54444">
        <ele>224.99</ele>
      </trkpt>
      <trkpt lat="40.14318" lon="15.54454">
        <ele>223.57</ele>
      </trkpt>
      <trkpt lat="40.14328" lon="15.54456">
        <ele>223.39</ele>
      </trkpt>
      <trkpt lat="40.14354" lon="15.5446">
        <ele>224.87</ele>
      </trkpt>
      <trkpt lat="40.14367" lon="15.54466">
        <ele>225.95</ele>
      </trkpt>
      <trkpt lat="40.14374" lon="15.54477">
        <ele>226.28</ele>
      </trkpt>
      <trkpt lat="40.14376" lon="15.54493">
        <ele>225.44</ele>
      </trkpt>
      <trkpt lat="40.14367" lon="15.54564">
        <ele>223.81</ele>
      </trkpt>
      <trkpt lat="40.14358" lon="15.54587">
        <ele>222.04</ele>
      </trkpt>
      <trkpt lat="40.14354" lon="15.54598">
        <ele>221.24</ele>
      </trkpt>
      <trkpt lat="40.14353" lon="15.54611">
        <ele>221.66</ele>
      </trkpt>
      <trkpt lat="40.14353" lon="15.54611">
        <ele>221.66</ele>
      </trkpt>
      <trkpt lat="40.14353" lon="15.54611">
        <ele>221.66</ele>
      </trkpt>
      <trkpt lat="40.14352" lon="15.54638">
        <ele>222.01</ele>
      </trkpt>
      <trkpt lat="40.14346" lon="15.54671">
        <ele>223.05</ele>
      </trkpt>
      <trkpt lat="40.14338" lon="15.54696">
        <ele>222.96</ele>
      </trkpt>
      <trkpt lat="40.14327" lon="15.54713">
        <ele>221.44</ele>
      </trkpt>
      <trkpt lat="40.14315" lon="15.5473">
        <ele>218.61</ele>
      </trkpt>
      <trkpt lat="40.14305" lon="15.54739">
        <ele>216.59</ele>
      </trkpt>
      <trkpt lat="40.14293" lon="15.54743">
        <ele>212.05</ele>
      </trkpt>
      <trkpt lat="40.14284" lon="15.54747">
        <ele>208.53</ele>
      </trkpt>
      <trkpt lat="40.14271" lon="15.54757">
        <ele>203.06</ele>
      </trkpt>
      <trkpt lat="40.14265" lon="15.54773">
        <ele>200.11</ele>
      </trkpt>
      <trkpt lat="40.14259" lon="15.54791">
        <ele>196.78</ele>
      </trkpt>
      <trkpt lat="40.14257" lon="15.54801">
        <ele>195.51</ele>
      </trkpt>
      <trkpt lat="40.14262" lon="15.54818">
        <ele>194.77</ele>
      </trkpt>
      <trkpt lat="40.14271" lon="15.54826">
        <ele>195.37</ele>
      </trkpt>
      <trkpt lat="40.14275" lon="15.54838">
        <ele>193.44</ele>
      </trkpt>
      <trkpt lat="40.14279" lon="15.54861">
        <ele>188.42</ele>
      </trkpt>
      <trkpt lat="40.14303" lon="15.54921">
        <ele>183.81</ele>
      </trkpt>
      <trkpt lat="40.14313" lon="15.54935">
        <ele>183.58</ele>
      </trkpt>
      <trkpt lat="40.14317" lon="15.54938">
        <ele>183.92</ele>
      </trkpt>
      <trkpt lat="40.14328" lon="15.54939">
        <ele>186.3</ele>
      </trkpt>
      <trkpt lat="40.14393" lon="15.54943">
        <ele>189.46</ele>
      </trkpt>
      <trkpt lat="40.14418" lon="15.54939">
        <ele>188.62</ele>
      </trkpt>
      <trkpt lat="40.14425" lon="15.5494">
        <ele>187.5</ele>
      </trkpt>
      <trkpt lat="40.14443" lon="15.54952">
        <ele>180.74</ele>
      </trkpt>
      <trkpt lat="40.1445" lon="15.54958">
        <ele>178.64</ele>
      </trkpt>
      <trkpt lat="40.14451" lon="15.54965">
        <ele>175.77</ele>
      </trkpt>
      <trkpt lat="40.14448" lon="15.54967">
        <ele>174.62</ele>
      </trkpt>
      <trkpt lat="40.14448" lon="15.54977">
        <ele>169.87</ele>
      </trkpt>
      <trkpt lat="40.14431" lon="15.54971">
        <ele>170.26</ele>
      </trkpt>
      <trkpt lat="40.14424" lon="15.54972">
        <ele>168.46</ele>
      </trkpt>
      <trkpt lat="40.14425" lon="15.54985">
        <ele>162.57</ele>
      </trkpt>
      <trkpt lat="40.14416" lon="15.54985">
        <ele>161.49</ele>
      </trkpt>
      <trkpt lat="40.14422" lon="15.54992">
        <ele>159.01</ele>
      </trkpt>
      <trkpt lat="40.1442" lon="15.55008">
        <ele>154.34</ele>
      </trkpt>
      <trkpt lat="40.14413" lon="15.55015">
        <ele>153.03</ele>
      </trkpt>
      <trkpt lat="40.14411" lon="15.55025">
        <ele>151.55</ele>
      </trkpt>
      <trkpt lat="40.14394" lon="15.55038">
        <ele>149.94</ele>
      </trkpt>
      <trkpt lat="40.14379" lon="15.55053">
        <ele>151.31</ele>
      </trkpt>
      <trkpt lat="40.14379" lon="15.55053">
        <ele>151.31</ele>
      </trkpt>
      <trkpt lat="40.14379" lon="15.55053">
        <ele>151.31</ele>
      </trkpt>
      <trkpt lat="40.14376" lon="15.55057">
        <ele>152.08</ele>
      </trkpt>
      <trkpt lat="40.14375" lon="15.55062">
        <ele>153.94</ele>
      </trkpt>
      <trkpt lat="40.14375" lon="15.55066">
        <ele>155.45</ele>
      </trkpt>
      <trkpt lat="40.1439" lon="15.55061">
        <ele>154.0</ele>
      </trkpt>
      <trkpt lat="40.14402" lon="15.55062">
        <ele>154.87</ele>
      </trkpt>
      <trkpt lat="40.14408" lon="15.55067">
        <ele>157.54</ele>
      </trkpt>
      <trkpt lat="40.14411" lon="15.55067">
        <ele>157.76</ele>
      </trkpt>
      <trkpt lat="40.1442" lon="15.5506">
        <ele>154.78</ele>
      </trkpt>
      <trkpt lat="40.14425" lon="15.55059">
        <ele>154.8</ele>
      </trkpt>
      <trkpt lat="40.14426" lon="15.5506">
        <ele>155.46</ele>
      </trkpt>
      <trkpt lat="40.14426" lon="15.55062">
        <ele>156.57</ele>
      </trkpt>
      <trkpt lat="40.14426" lon="15.5507">
        <ele>160.98</ele>
      </trkpt>
      <trkpt lat="40.14421" lon="15.55079">
        <ele>165.26</ele>
      </trkpt>
      <trkpt lat="40.14419" lon="15.55094">
        <ele>175.15</ele>
      </trkpt>
      <trkpt lat="40.14417" lon="15.55097">
        <ele>176.91</ele>
      </trkpt>
      <trkpt lat="40.144" lon="15.55102">
        <ele>177.84</ele>
      </trkpt>
      <trkpt lat="40.14372" lon="15.55098">
        <ele>171.8</ele>
      </trkpt>
      <trkpt lat="40.14365" lon="15.55101">
        <ele>173.17</ele>
      </trkpt>
      <trkpt lat="40.14362" lon="15.55105">
        <ele>175.36</ele>
      </trkpt>
      <trkpt lat="40.14358" lon="15.55122">
        <ele>187.96</ele>
      </trkpt>
      <trkpt lat="40.14356" lon="15.55127">
        <ele>191.83</ele>
      </trkpt>
      <trkpt lat="40.14352" lon="15.55132">
        <ele>195.16</ele>
      </trkpt>
      <trkpt lat="40.14339" lon="15.55141">
        <ele>199.28</ele>
      </trkpt>
      <trkpt lat="40.14326" lon="15.55148">
        <ele>204.65</ele>
      </trkpt>
      <trkpt lat="40.14311" lon="15.55151">
        <ele>207.66</ele>
      </trkpt>
      <trkpt lat="40.14299" lon="15.55149">
        <ele>205.41</ele>
      </trkpt>
      <trkpt lat="40.14296" lon="15.55147">
        <ele>203.72</ele>
      </trkpt>
      <trkpt lat="40.14288" lon="15.55147">
        <ele>202.44</ele>
      </trkpt>
      <trkpt lat="40.14286" lon="15.55148">
        <ele>202.64</ele>
      </trkpt>
      <trkpt lat="40.14285" lon="15.5515">
        <ele>203.5</ele>
      </trkpt>
      <trkpt lat="40.14285" lon="15.55153">
        <ele>205.04</ele>
      </trkpt>
      <trkpt lat="40.14292" lon="15.55159">
        <ele>209.8</ele>
      </trkpt>
      <trkpt lat="40.14292" lon="15.55161">
        <ele>210.92</ele>
      </trkpt>
      <trkpt lat="40.1429" lon="15.55163">
        <ele>211.51</ele>
      </trkpt>
      <trkpt lat="40.14287" lon="15.55163">
        <ele>210.72</ele>
      </trkpt>
      <trkpt lat="40.14285" lon="15.55164">
        <ele>210.71</ele>
      </trkpt>
      <trkpt lat="40.14278" lon="15.55175">
        <ele>213.66</ele>
      </trkpt>
      <trkpt lat="40.14262" lon="15.55188">
        <ele>217.25</ele>
      </trkpt>
      <trkpt lat="40.14256" lon="15.55191">
        <ele>217.97</ele>
      </trkpt>
      <trkpt lat="40.14252" lon="15.55191">
        <ele>217.5</ele>
      </trkpt>
      <trkpt lat="40.14247" lon="15.55188">
        <ele>215.99</ele>
      </trkpt>
      <trkpt lat="40.14245" lon="15.55188">
        <ele>216.15</ele>
      </trkpt>
      <trkpt lat="40.14237" lon="15.55194">
        <ele>219.72</ele>
      </trkpt>
      <trkpt lat="40.14229" lon="15.55206">
        <ele>226.64</ele>
      </trkpt>
      <trkpt lat="40.14221" lon="15.55211">
        <ele>229.4</ele>
      </trkpt>
      <trkpt lat="40.14198" lon="15.55204">
        <ele>227.53</ele>
      </trkpt>
      <trkpt lat="40.14176" lon="15.55203">
        <ele>229.43</ele>
      </trkpt>
      <trkpt lat="40.14159" lon="15.55211">
        <ele>233.16</ele>
      </trkpt>
      <trkpt lat="40.1415" lon="15.55215">
        <ele>234.68</ele>
      </trkpt>
      <trkpt lat="40.14147" lon="15.55219">
        <ele>235.86</ele>
      </trkpt>
      <trkpt lat="40.14147" lon="15.55226">
        <ele>237.74</ele>
      </trkpt>
      <trkpt lat="40.14141" lon="15.55232">
        <ele>239.44</ele>
      </trkpt>
      <trkpt lat="40.14119" lon="15.55258">
        <ele>244.01</ele>
      </trkpt>
      <trkpt lat="40.14105" lon="15.55274">
        <ele>245.66</ele>
      </trkpt>
      <trkpt lat="40.14099" lon="15.55281">
        <ele>245.97</ele>
      </trkpt>
      <trkpt lat="40.14091" lon="15.55285">
        <ele>245.54</ele>
      </trkpt>
      <trkpt lat="40.14083" lon="15.55288">
        <ele>245.08</ele>
      </trkpt>
      <trkpt lat="40.14079" lon="15.55292">
        <ele>245.31</ele>
      </trkpt>
      <trkpt lat="40.14075" lon="15.55297">
        <ele>245.8</ele>
      </trkpt>
      <trkpt lat="40.14048" lon="15.55319">
        <ele>246.49</ele>
      </trkpt>
      <trkpt lat="40.14015" lon="15.55343">
        <ele>243.33</ele>
      </trkpt>
      <trkpt lat="40.13995" lon="15.55373">
        <ele>249.6</ele>
      </trkpt>
      <trkpt lat="40.13987" lon="15.55384">
        <ele>252.14</ele>
      </trkpt>
      <trkpt lat="40.13958" lon="15.55406">
        <ele>258.85</ele>
      </trkpt>
      <trkpt lat="40.13947" lon="15.55414">
        <ele>262.71</ele>
      </trkpt>
      <trkpt lat="40.13934" lon="15.55417">
        <ele>263.34</ele>
      </trkpt>
      <trkpt lat="40.13924" lon="15.55422">
        <ele>264.01</ele>
      </trkpt>
      <trkpt lat="40.13958" lon="15.55417">
        <ele>261.66</ele>
      </trkpt>
      <trkpt lat="40.13984" lon="15.55421">
        <ele>258.67</ele>
      </trkpt>
      <trkpt lat="40.13999" lon="15.5543">
        <ele>258.56</ele>
      </trkpt>
      <trkpt lat="40.14004" lon="15.55427">
        <ele>258.02</ele>
      </trkpt>
      <trkpt lat="40.14007" lon="15.55427">
        <ele>258.33</ele>
      </trkpt>
      <trkpt lat="40.14013" lon="15.55431">
        <ele>259.76</ele>
      </trkpt>
      <trkpt lat="40.14022" lon="15.55438">
        <ele>261.72</ele>
      </trkpt>
      <trkpt lat="40.14029" lon="15.55441">
        <ele>262.67</ele>
      </trkpt>
      <trkpt lat="40.14038" lon="15.55441">
        <ele>263.93</ele>
      </trkpt>
      <trkpt lat="40.14043" lon="15.55443">
        <ele>264.96</ele>
      </trkpt>
      <trkpt lat="40.14046" lon="15.55444">
        <ele>265.55</ele>
      </trkpt>
      <trkpt lat="40.14049" lon="15.55447">
        <ele>266.7</ele>
      </trkpt>
      <trkpt lat="40.14051" lon="15.55449">
        <ele>267.49</ele>
      </trkpt>
      <trkpt lat="40.14043" lon="15.55466">
        <ele>270.62</ele>
      </trkpt>
      <trkpt lat="40.14037" lon="15.55473">
        <ele>271.51</ele>
      </trkpt>
      <trkpt lat="40.14032" lon="15.5548">
        <ele>272.48</ele>
      </trkpt>
      <trkpt lat="40.14021" lon="15.55491">
        <ele>275.56</ele>
      </trkpt>
      <trkpt lat="40.14005" lon="15.55505">
        <ele>281.52</ele>
      </trkpt>
      <trkpt lat="40.14005" lon="15.55505">
        <ele>281.52</ele>
      </trkpt>
      <trkpt lat="40.14007" lon="15.55509">
        <ele>281.55</ele>
      </trkpt>
      <trkpt lat="40.14007" lon="15.55509">
        <ele>281.55</ele>
      </trkpt>
      <trkpt lat="40.14007" lon="15.55509">
        <ele>281.55</ele>
      </trkpt>
      <trkpt lat="40.14004" lon="15.55513">
        <ele>282.35</ele>
      </trkpt>
      <trkpt lat="40.14003" lon="15.55518">
        <ele>282.9</ele>
      </trkpt>
      <trkpt lat="40.14007" lon="15.55521">
        <ele>282.63</ele>
      </trkpt>
      <trkpt lat="40.14011" lon="15.55521">
        <ele>282.13</ele>
      </trkpt>
      <trkpt lat="40.14011" lon="15.55521">
        <ele>282.13</ele>
      </trkpt>
      <trkpt lat="40.14011" lon="15.55521">
        <ele>282.13</ele>
      </trkpt>
      <trkpt lat="40.14011" lon="15.55521">
        <ele>282.13</ele>
      </trkpt>
    </trkseg>
  </trk>
</gpx>
