<?xml version="1.0"?>
<gpx xmlns="http://www.topografix.com/GPX/1/1" xmlns:xsi="http://www.w3.org/2001/XMLSchema-instance" version="1.1" creator="AllTrails.com" xsi:schemaLocation="http://www.topografix.com/GPX/1/1 http://www.topografix.com/GPX/1/1/gpx.xsd">
  <metadata>
    <name><![CDATA[Morigerati - Caselle via sentiero storico]]></name>
    <desc><![CDATA[]]></desc>
    <link href="http://www.alltrails.com">
      <text>AllTrails, LLC</text>
    </link>
    <bounds minlat="40.14003" minlon="15.53786" maxlat="40.17255" maxlon="15.5552201"/>
  </metadata>
  <trk>
    <name><![CDATA[Morigerati - Caselle via sentiero storico]]></name>
    <src>AllTrails</src>
    <trkseg>
      <trkpt lat="40.14011" lon="15.55522">
        <ele>282.23</ele>
      </trkpt>
      <trkpt lat="40.14011" lon="15.55521">
        <ele>282.13</ele>
      </trkpt>
      <trkpt lat="40.14007" lon="15.55521">
        <ele>282.63</ele>
      </trkpt>
      <trkpt lat="40.14003" lon="15.55518">
        <ele>282.9</ele>
      </trkpt>
      <trkpt lat="40.14004" lon="15.55513">
        <ele>282.35</ele>
      </trkpt>
      <trkpt lat="40.14007" lon="15.55509">
        <ele>281.55</ele>
      </trkpt>
      <trkpt lat="40.14005" lon="15.55505">
        <ele>281.52</ele>
      </trkpt>
      <trkpt lat="40.14005" lon="15.55505">
        <ele>281.52</ele>
      </trkpt>
      <trkpt lat="40.14021" lon="15.55491">
        <ele>275.56</ele>
      </trkpt>
      <trkpt lat="40.14032" lon="15.5548">
        <ele>272.48</ele>
      </trkpt>
      <trkpt lat="40.14037" lon="15.55473">
        <ele>271.51</ele>
      </trkpt>
      <trkpt lat="40.14043" lon="15.55466">
        <ele>270.62</ele>
      </trkpt>
      <trkpt lat="40.14051" lon="15.55449">
        <ele>267.49</ele>
      </trkpt>
      <trkpt lat="40.14051" lon="15.55449">
        <ele>267.49</ele>
      </trkpt>
      <trkpt lat="40.14055" lon="15.55442">
        <ele>266.48</ele>
      </trkpt>
      <trkpt lat="40.14057" lon="15.55436">
        <ele>265.58</ele>
      </trkpt>
      <trkpt lat="40.14059" lon="15.55425">
        <ele>263.75</ele>
      </trkpt>
      <trkpt lat="40.14062" lon="15.55417">
        <ele>262.52</ele>
      </trkpt>
      <trkpt lat="40.14079" lon="15.5539">
        <ele>259.85</ele>
      </trkpt>
      <trkpt lat="40.14082" lon="15.5538">
        <ele>258.61</ele>
      </trkpt>
      <trkpt lat="40.14084" lon="15.5537">
        <ele>257.34</ele>
      </trkpt>
      <trkpt lat="40.14085" lon="15.55356">
        <ele>255.37</ele>
      </trkpt>
      <trkpt lat="40.14084" lon="15.55344">
        <ele>253.57</ele>
      </trkpt>
      <trkpt lat="40.14081" lon="15.5533">
        <ele>251.33</ele>
      </trkpt>
      <trkpt lat="40.14075" lon="15.55305">
        <ele>246.92</ele>
      </trkpt>
      <trkpt lat="40.14074" lon="15.55302">
        <ele>246.49</ele>
      </trkpt>
      <trkpt lat="40.14075" lon="15.55297">
        <ele>245.8</ele>
      </trkpt>
      <trkpt lat="40.14079" lon="15.55292">
        <ele>245.31</ele>
      </trkpt>
      <trkpt lat="40.14083" lon="15.55288">
        <ele>245.08</ele>
      </trkpt>
      <trkpt lat="40.14091" lon="15.55285">
        <ele>245.54</ele>
      </trkpt>
      <trkpt lat="40.14099" lon="15.55281">
        <ele>245.97</ele>
      </trkpt>
      <trkpt lat="40.14105" lon="15.55274">
        <ele>245.66</ele>
      </trkpt>
      <trkpt lat="40.14119" lon="15.55258">
        <ele>244.01</ele>
      </trkpt>
      <trkpt lat="40.14141" lon="15.55232">
        <ele>239.44</ele>
      </trkpt>
      <trkpt lat="40.14147" lon="15.55226">
        <ele>237.74</ele>
      </trkpt>
      <trkpt lat="40.14147" lon="15.55219">
        <ele>235.86</ele>
      </trkpt>
      <trkpt lat="40.1415" lon="15.55215">
        <ele>234.68</ele>
      </trkpt>
      <trkpt lat="40.14159" lon="15.55211">
        <ele>233.16</ele>
      </trkpt>
      <trkpt lat="40.14176" lon="15.55203">
        <ele>229.43</ele>
      </trkpt>
      <trkpt lat="40.14187" lon="15.55203">
        <ele>228.21</ele>
      </trkpt>
      <trkpt lat="40.14187" lon="15.55203">
        <ele>228.21</ele>
      </trkpt>
      <trkpt lat="40.14198" lon="15.55204">
        <ele>227.53</ele>
      </trkpt>
      <trkpt lat="40.14221" lon="15.55211">
        <ele>229.4</ele>
      </trkpt>
      <trkpt lat="40.14229" lon="15.55206">
        <ele>226.64</ele>
      </trkpt>
      <trkpt lat="40.14237" lon="15.55194">
        <ele>219.72</ele>
      </trkpt>
      <trkpt lat="40.14245" lon="15.55188">
        <ele>216.15</ele>
      </trkpt>
      <trkpt lat="40.14247" lon="15.55188">
        <ele>215.99</ele>
      </trkpt>
      <trkpt lat="40.14252" lon="15.55191">
        <ele>217.5</ele>
      </trkpt>
      <trkpt lat="40.14256" lon="15.55191">
        <ele>217.97</ele>
      </trkpt>
      <trkpt lat="40.14262" lon="15.55188">
        <ele>217.25</ele>
      </trkpt>
      <trkpt lat="40.14278" lon="15.55175">
        <ele>213.66</ele>
      </trkpt>
      <trkpt lat="40.14285" lon="15.55164">
        <ele>210.71</ele>
      </trkpt>
      <trkpt lat="40.14287" lon="15.55163">
        <ele>210.72</ele>
      </trkpt>
      <trkpt lat="40.1429" lon="15.55163">
        <ele>211.51</ele>
      </trkpt>
      <trkpt lat="40.14292" lon="15.55161">
        <ele>210.92</ele>
      </trkpt>
      <trkpt lat="40.14292" lon="15.55159">
        <ele>209.8</ele>
      </trkpt>
      <trkpt lat="40.14285" lon="15.55153">
        <ele>205.04</ele>
      </trkpt>
      <trkpt lat="40.14285" lon="15.5515">
        <ele>203.5</ele>
      </trkpt>
      <trkpt lat="40.14286" lon="15.55148">
        <ele>202.64</ele>
      </trkpt>
      <trkpt lat="40.14288" lon="15.55147">
        <ele>202.44</ele>
      </trkpt>
      <trkpt lat="40.14296" lon="15.55147">
        <ele>203.72</ele>
      </trkpt>
      <trkpt lat="40.14299" lon="15.55149">
        <ele>205.41</ele>
      </trkpt>
      <trkpt lat="40.14311" lon="15.55151">
        <ele>207.66</ele>
      </trkpt>
      <trkpt lat="40.14326" lon="15.55148">
        <ele>204.65</ele>
      </trkpt>
      <trkpt lat="40.14339" lon="15.55141">
        <ele>199.28</ele>
      </trkpt>
      <trkpt lat="40.14352" lon="15.55132">
        <ele>195.16</ele>
      </trkpt>
      <trkpt lat="40.14356" lon="15.55127">
        <ele>191.83</ele>
      </trkpt>
      <trkpt lat="40.14358" lon="15.55122">
        <ele>187.96</ele>
      </trkpt>
      <trkpt lat="40.14362" lon="15.55105">
        <ele>175.36</ele>
      </trkpt>
      <trkpt lat="40.14365" lon="15.55101">
        <ele>173.17</ele>
      </trkpt>
      <trkpt lat="40.14372" lon="15.55098">
        <ele>171.8</ele>
      </trkpt>
      <trkpt lat="40.144" lon="15.55102">
        <ele>177.84</ele>
      </trkpt>
      <trkpt lat="40.14417" lon="15.55097">
        <ele>176.91</ele>
      </trkpt>
      <trkpt lat="40.14419" lon="15.55094">
        <ele>175.15</ele>
      </trkpt>
      <trkpt lat="40.14421" lon="15.55079">
        <ele>165.26</ele>
      </trkpt>
      <trkpt lat="40.14426" lon="15.5507">
        <ele>160.98</ele>
      </trkpt>
      <trkpt lat="40.14426" lon="15.55062">
        <ele>156.57</ele>
      </trkpt>
      <trkpt lat="40.14426" lon="15.5506">
        <ele>155.46</ele>
      </trkpt>
      <trkpt lat="40.14425" lon="15.55059">
        <ele>154.8</ele>
      </trkpt>
      <trkpt lat="40.1442" lon="15.5506">
        <ele>154.78</ele>
      </trkpt>
      <trkpt lat="40.14411" lon="15.55067">
        <ele>157.76</ele>
      </trkpt>
      <trkpt lat="40.14408" lon="15.55067">
        <ele>157.54</ele>
      </trkpt>
      <trkpt lat="40.14402" lon="15.55062">
        <ele>154.87</ele>
      </trkpt>
      <trkpt lat="40.1439" lon="15.55061">
        <ele>154.0</ele>
      </trkpt>
      <trkpt lat="40.14375" lon="15.55066">
        <ele>155.45</ele>
      </trkpt>
      <trkpt lat="40.14356" lon="15.55077">
        <ele>159.29</ele>
      </trkpt>
      <trkpt lat="40.14337" lon="15.55083">
        <ele>160.17</ele>
      </trkpt>
      <trkpt lat="40.14323" lon="15.55086">
        <ele>161.1</ele>
      </trkpt>
      <trkpt lat="40.14317" lon="15.55082">
        <ele>158.43</ele>
      </trkpt>
      <trkpt lat="40.14307" lon="15.55065">
        <ele>152.23</ele>
      </trkpt>
      <trkpt lat="40.14257" lon="15.5504">
        <ele>142.66</ele>
      </trkpt>
      <trkpt lat="40.14252" lon="15.5504">
        <ele>141.56</ele>
      </trkpt>
      <trkpt lat="40.14252" lon="15.5504">
        <ele>141.56</ele>
      </trkpt>
      <trkpt lat="40.14257" lon="15.5504">
        <ele>142.66</ele>
      </trkpt>
      <trkpt lat="40.14265" lon="15.55037">
        <ele>144.76</ele>
      </trkpt>
      <trkpt lat="40.14265" lon="15.5503">
        <ele>145.53</ele>
      </trkpt>
      <trkpt lat="40.14272" lon="15.55025">
        <ele>148.29</ele>
      </trkpt>
      <trkpt lat="40.1434" lon="15.55014">
        <ele>155.03</ele>
      </trkpt>
      <trkpt lat="40.1434" lon="15.55014">
        <ele>155.03</ele>
      </trkpt>
      <trkpt lat="40.14341" lon="15.55025">
        <ele>151.69</ele>
      </trkpt>
      <trkpt lat="40.14354" lon="15.55028">
        <ele>149.04</ele>
      </trkpt>
      <trkpt lat="40.14371" lon="15.55035">
        <ele>148.87</ele>
      </trkpt>
      <trkpt lat="40.14371" lon="15.55035">
        <ele>148.87</ele>
      </trkpt>
      <trkpt lat="40.14394" lon="15.55038">
        <ele>149.94</ele>
      </trkpt>
      <trkpt lat="40.14411" lon="15.55025">
        <ele>151.55</ele>
      </trkpt>
      <trkpt lat="40.14411" lon="15.55025">
        <ele>151.55</ele>
      </trkpt>
      <trkpt lat="40.14413" lon="15.55015">
        <ele>153.03</ele>
      </trkpt>
      <trkpt lat="40.1442" lon="15.55008">
        <ele>154.34</ele>
      </trkpt>
      <trkpt lat="40.1442" lon="15.55008">
        <ele>154.34</ele>
      </trkpt>
      <trkpt lat="40.14422" lon="15.54992">
        <ele>159.01</ele>
      </trkpt>
      <trkpt lat="40.14416" lon="15.54985">
        <ele>161.49</ele>
      </trkpt>
      <trkpt lat="40.14425" lon="15.54985">
        <ele>162.57</ele>
      </trkpt>
      <trkpt lat="40.14424" lon="15.54972">
        <ele>168.46</ele>
      </trkpt>
      <trkpt lat="40.14431" lon="15.54971">
        <ele>170.26</ele>
      </trkpt>
      <trkpt lat="40.14448" lon="15.54977">
        <ele>169.87</ele>
      </trkpt>
      <trkpt lat="40.14448" lon="15.54967">
        <ele>174.62</ele>
      </trkpt>
      <trkpt lat="40.14451" lon="15.54965">
        <ele>175.77</ele>
      </trkpt>
      <trkpt lat="40.1445" lon="15.54958">
        <ele>178.64</ele>
      </trkpt>
      <trkpt lat="40.14443" lon="15.54952">
        <ele>180.74</ele>
      </trkpt>
      <trkpt lat="40.14425" lon="15.5494">
        <ele>187.5</ele>
      </trkpt>
      <trkpt lat="40.14418" lon="15.54939">
        <ele>188.62</ele>
      </trkpt>
      <trkpt lat="40.14393" lon="15.54943">
        <ele>189.46</ele>
      </trkpt>
      <trkpt lat="40.14328" lon="15.54939">
        <ele>186.3</ele>
      </trkpt>
      <trkpt lat="40.14317" lon="15.54938">
        <ele>183.92</ele>
      </trkpt>
      <trkpt lat="40.14313" lon="15.54935">
        <ele>183.58</ele>
      </trkpt>
      <trkpt lat="40.14303" lon="15.54921">
        <ele>183.81</ele>
      </trkpt>
      <trkpt lat="40.14279" lon="15.54861">
        <ele>188.42</ele>
      </trkpt>
      <trkpt lat="40.14275" lon="15.54838">
        <ele>193.44</ele>
      </trkpt>
      <trkpt lat="40.14271" lon="15.54826">
        <ele>195.37</ele>
      </trkpt>
      <trkpt lat="40.14262" lon="15.54818">
        <ele>194.77</ele>
      </trkpt>
      <trkpt lat="40.14257" lon="15.54801">
        <ele>195.51</ele>
      </trkpt>
      <trkpt lat="40.14257" lon="15.54801">
        <ele>195.51</ele>
      </trkpt>
      <trkpt lat="40.14259" lon="15.54791">
        <ele>196.78</ele>
      </trkpt>
      <trkpt lat="40.14265" lon="15.54773">
        <ele>200.11</ele>
      </trkpt>
      <trkpt lat="40.14271" lon="15.54757">
        <ele>203.06</ele>
      </trkpt>
      <trkpt lat="40.14284" lon="15.54747">
        <ele>208.53</ele>
      </trkpt>
      <trkpt lat="40.14293" lon="15.54743">
        <ele>212.05</ele>
      </trkpt>
      <trkpt lat="40.14305" lon="15.54739">
        <ele>216.59</ele>
      </trkpt>
      <trkpt lat="40.14315" lon="15.5473">
        <ele>218.61</ele>
      </trkpt>
      <trkpt lat="40.14327" lon="15.54713">
        <ele>221.44</ele>
      </trkpt>
      <trkpt lat="40.14338" lon="15.54696">
        <ele>222.96</ele>
      </trkpt>
      <trkpt lat="40.14346" lon="15.54671">
        <ele>223.05</ele>
      </trkpt>
      <trkpt lat="40.14346" lon="15.54671">
        <ele>223.05</ele>
      </trkpt>
      <trkpt lat="40.14349" lon="15.54672">
        <ele>223.56</ele>
      </trkpt>
      <trkpt lat="40.14353" lon="15.54668">
        <ele>223.91</ele>
      </trkpt>
      <trkpt lat="40.14372" lon="15.54638">
        <ele>225.99</ele>
      </trkpt>
      <trkpt lat="40.14376" lon="15.54627">
        <ele>227.14</ele>
      </trkpt>
      <trkpt lat="40.14378" lon="15.54612">
        <ele>228.22</ele>
      </trkpt>
      <trkpt lat="40.14395" lon="15.54567">
        <ele>234.02</ele>
      </trkpt>
      <trkpt lat="40.14401" lon="15.54559">
        <ele>236.25</ele>
      </trkpt>
      <trkpt lat="40.14422" lon="15.54552">
        <ele>242.47</ele>
      </trkpt>
      <trkpt lat="40.1444" lon="15.54523">
        <ele>244.45</ele>
      </trkpt>
      <trkpt lat="40.14469" lon="15.54487">
        <ele>253.54</ele>
      </trkpt>
      <trkpt lat="40.14484" lon="15.54457">
        <ele>259.72</ele>
      </trkpt>
      <trkpt lat="40.14496" lon="15.54443">
        <ele>264.8</ele>
      </trkpt>
      <trkpt lat="40.14496" lon="15.54443">
        <ele>264.8</ele>
      </trkpt>
      <trkpt lat="40.14532" lon="15.54401">
        <ele>278.6</ele>
      </trkpt>
      <trkpt lat="40.14539" lon="15.54389">
        <ele>282.22</ele>
      </trkpt>
      <trkpt lat="40.14543" lon="15.54379">
        <ele>285.36</ele>
      </trkpt>
      <trkpt lat="40.14548" lon="15.54371">
        <ele>288.51</ele>
      </trkpt>
      <trkpt lat="40.14562" lon="15.54365">
        <ele>294.08</ele>
      </trkpt>
      <trkpt lat="40.14566" lon="15.5437">
        <ele>294.33</ele>
      </trkpt>
      <trkpt lat="40.1457" lon="15.54373">
        <ele>295.04</ele>
      </trkpt>
      <trkpt lat="40.14577" lon="15.5437">
        <ele>297.75</ele>
      </trkpt>
      <trkpt lat="40.14585" lon="15.54361">
        <ele>301.32</ele>
      </trkpt>
      <trkpt lat="40.14606" lon="15.54316">
        <ele>313.21</ele>
      </trkpt>
      <trkpt lat="40.14632" lon="15.54289">
        <ele>324.86</ele>
      </trkpt>
      <trkpt lat="40.14638" lon="15.54275">
        <ele>326.97</ele>
      </trkpt>
      <trkpt lat="40.14639" lon="15.54264">
        <ele>328.03</ele>
      </trkpt>
      <trkpt lat="40.14638" lon="15.5425">
        <ele>328.74</ele>
      </trkpt>
      <trkpt lat="40.14647" lon="15.5422">
        <ele>330.74</ele>
      </trkpt>
      <trkpt lat="40.14658" lon="15.54201">
        <ele>334.67</ele>
      </trkpt>
      <trkpt lat="40.14671" lon="15.54192">
        <ele>338.58</ele>
      </trkpt>
      <trkpt lat="40.14679" lon="15.54193">
        <ele>341.1</ele>
      </trkpt>
      <trkpt lat="40.14689" lon="15.54194">
        <ele>344.27</ele>
      </trkpt>
      <trkpt lat="40.14712" lon="15.54184">
        <ele>349.76</ele>
      </trkpt>
      <trkpt lat="40.14721" lon="15.54192">
        <ele>350.17</ele>
      </trkpt>
      <trkpt lat="40.14732" lon="15.54197">
        <ele>350.02</ele>
      </trkpt>
      <trkpt lat="40.14735" lon="15.54204">
        <ele>349.24</ele>
      </trkpt>
      <trkpt lat="40.14739" lon="15.54207">
        <ele>349.07</ele>
      </trkpt>
      <trkpt lat="40.14744" lon="15.54209">
        <ele>349.1</ele>
      </trkpt>
      <trkpt lat="40.14753" lon="15.54208">
        <ele>349.16</ele>
      </trkpt>
      <trkpt lat="40.14784" lon="15.54194">
        <ele>347.24</ele>
      </trkpt>
      <trkpt lat="40.14791" lon="15.54192">
        <ele>346.93</ele>
      </trkpt>
      <trkpt lat="40.14802" lon="15.5419">
        <ele>346.21</ele>
      </trkpt>
      <trkpt lat="40.1481" lon="15.54189">
        <ele>344.81</ele>
      </trkpt>
      <trkpt lat="40.14815" lon="15.54187">
        <ele>344.05</ele>
      </trkpt>
      <trkpt lat="40.14815" lon="15.54187">
        <ele>344.05</ele>
      </trkpt>
      <trkpt lat="40.14831" lon="15.54181">
        <ele>341.11</ele>
      </trkpt>
      <trkpt lat="40.14846" lon="15.5417">
        <ele>342.48</ele>
      </trkpt>
      <trkpt lat="40.14857" lon="15.5416">
        <ele>343.89</ele>
      </trkpt>
      <trkpt lat="40.14865" lon="15.54156">
        <ele>345.13</ele>
      </trkpt>
      <trkpt lat="40.14873" lon="15.54156">
        <ele>346.53</ele>
      </trkpt>
      <trkpt lat="40.14879" lon="15.54162">
        <ele>346.05</ele>
      </trkpt>
      <trkpt lat="40.14896" lon="15.54187">
        <ele>344.18</ele>
      </trkpt>
      <trkpt lat="40.14908" lon="15.54199">
        <ele>343.24</ele>
      </trkpt>
      <trkpt lat="40.14924" lon="15.54204">
        <ele>344.86</ele>
      </trkpt>
      <trkpt lat="40.14955" lon="15.54201">
        <ele>353.71</ele>
      </trkpt>
      <trkpt lat="40.1497" lon="15.542">
        <ele>359.38</ele>
      </trkpt>
      <trkpt lat="40.1497" lon="15.542">
        <ele>359.38</ele>
      </trkpt>
      <trkpt lat="40.14962" lon="15.5416">
        <ele>361.34</ele>
      </trkpt>
      <trkpt lat="40.14967" lon="15.54138">
        <ele>364.87</ele>
      </trkpt>
      <trkpt lat="40.14963" lon="15.54124">
        <ele>366.71</ele>
      </trkpt>
      <trkpt lat="40.14984" lon="15.5411">
        <ele>379.49</ele>
      </trkpt>
      <trkpt lat="40.14996" lon="15.54111">
        <ele>386.58</ele>
      </trkpt>
      <trkpt lat="40.15001" lon="15.54096">
        <ele>392.82</ele>
      </trkpt>
      <trkpt lat="40.15003" lon="15.54078">
        <ele>397.2</ele>
      </trkpt>
      <trkpt lat="40.15014" lon="15.5406">
        <ele>405.08</ele>
      </trkpt>
      <trkpt lat="40.15027" lon="15.54049">
        <ele>413.29</ele>
      </trkpt>
      <trkpt lat="40.15032" lon="15.54053">
        <ele>415.69</ele>
      </trkpt>
      <trkpt lat="40.1504" lon="15.54074">
        <ele>417.46</ele>
      </trkpt>
      <trkpt lat="40.15051" lon="15.54081">
        <ele>422.1</ele>
      </trkpt>
      <trkpt lat="40.15065" lon="15.54089">
        <ele>428.29</ele>
      </trkpt>
      <trkpt lat="40.15094" lon="15.54138">
        <ele>439.22</ele>
      </trkpt>
      <trkpt lat="40.15096" lon="15.54148">
        <ele>439.62</ele>
      </trkpt>
      <trkpt lat="40.151" lon="15.54158">
        <ele>441.4</ele>
      </trkpt>
      <trkpt lat="40.15114" lon="15.54167">
        <ele>450.03</ele>
      </trkpt>
      <trkpt lat="40.15114" lon="15.54154">
        <ele>451.9</ele>
      </trkpt>
      <trkpt lat="40.15122" lon="15.54142">
        <ele>459.39</ele>
      </trkpt>
      <trkpt lat="40.15122" lon="15.54129">
        <ele>461.56</ele>
      </trkpt>
      <trkpt lat="40.1513" lon="15.54124">
        <ele>467.72</ele>
      </trkpt>
      <trkpt lat="40.15133" lon="15.54113">
        <ele>471.15</ele>
      </trkpt>
      <trkpt lat="40.15138" lon="15.541">
        <ele>474.49</ele>
      </trkpt>
      <trkpt lat="40.15147" lon="15.541">
        <ele>478.21</ele>
      </trkpt>
      <trkpt lat="40.15161" lon="15.54115">
        <ele>483.67</ele>
      </trkpt>
      <trkpt lat="40.15173" lon="15.54114">
        <ele>490.18</ele>
      </trkpt>
      <trkpt lat="40.15184" lon="15.54109">
        <ele>497.23</ele>
      </trkpt>
      <trkpt lat="40.15197" lon="15.54092">
        <ele>505.9</ele>
      </trkpt>
      <trkpt lat="40.15206" lon="15.54094">
        <ele>512.64</ele>
      </trkpt>
      <trkpt lat="40.15205" lon="15.54106">
        <ele>512.22</ele>
      </trkpt>
      <trkpt lat="40.15211" lon="15.54105">
        <ele>516.85</ele>
      </trkpt>
      <trkpt lat="40.15265" lon="15.54062">
        <ele>548.73</ele>
      </trkpt>
      <trkpt lat="40.15279" lon="15.54053">
        <ele>556.45</ele>
      </trkpt>
      <trkpt lat="40.15296" lon="15.54053">
        <ele>562.68</ele>
      </trkpt>
      <trkpt lat="40.15305" lon="15.54056">
        <ele>565.82</ele>
      </trkpt>
      <trkpt lat="40.15313" lon="15.54068">
        <ele>568.3</ele>
      </trkpt>
      <trkpt lat="40.15324" lon="15.54078">
        <ele>571.87</ele>
      </trkpt>
      <trkpt lat="40.15326" lon="15.54087">
        <ele>573.35</ele>
      </trkpt>
      <trkpt lat="40.1533" lon="15.54091">
        <ele>575.08</ele>
      </trkpt>
      <trkpt lat="40.1534" lon="15.54094">
        <ele>576.39</ele>
      </trkpt>
      <trkpt lat="40.15348" lon="15.54089">
        <ele>575.4</ele>
      </trkpt>
      <trkpt lat="40.15361" lon="15.54089">
        <ele>575.02</ele>
      </trkpt>
      <trkpt lat="40.15365" lon="15.54095">
        <ele>576.18</ele>
      </trkpt>
      <trkpt lat="40.15363" lon="15.54104">
        <ele>577.74</ele>
      </trkpt>
      <trkpt lat="40.15356" lon="15.54104">
        <ele>577.77</ele>
      </trkpt>
      <trkpt lat="40.1535" lon="15.54109">
        <ele>578.65</ele>
      </trkpt>
      <trkpt lat="40.1534" lon="15.54125">
        <ele>581.74</ele>
      </trkpt>
      <trkpt lat="40.15339" lon="15.5413">
        <ele>582.68</ele>
      </trkpt>
      <trkpt lat="40.15346" lon="15.54138">
        <ele>584.72</ele>
      </trkpt>
      <trkpt lat="40.15357" lon="15.54163">
        <ele>591.78</ele>
      </trkpt>
      <trkpt lat="40.15366" lon="15.54169">
        <ele>594.73</ele>
      </trkpt>
      <trkpt lat="40.15366" lon="15.54169">
        <ele>594.73</ele>
      </trkpt>
      <trkpt lat="40.15338" lon="15.54183">
        <ele>595.06</ele>
      </trkpt>
      <trkpt lat="40.15322" lon="15.54209">
        <ele>593.77</ele>
      </trkpt>
      <trkpt lat="40.1532" lon="15.54228">
        <ele>594.5</ele>
      </trkpt>
      <trkpt lat="40.15319" lon="15.54244">
        <ele>594.51</ele>
      </trkpt>
      <trkpt lat="40.15331" lon="15.54304">
        <ele>600.95</ele>
      </trkpt>
      <trkpt lat="40.1534" lon="15.54331">
        <ele>603.18</ele>
      </trkpt>
      <trkpt lat="40.15353" lon="15.54397">
        <ele>597.57</ele>
      </trkpt>
      <trkpt lat="40.15362" lon="15.54409">
        <ele>600.78</ele>
      </trkpt>
      <trkpt lat="40.15379" lon="15.54487">
        <ele>594.33</ele>
      </trkpt>
      <trkpt lat="40.15387" lon="15.54521">
        <ele>593.54</ele>
      </trkpt>
      <trkpt lat="40.15402" lon="15.54551">
        <ele>594.46</ele>
      </trkpt>
      <trkpt lat="40.15402" lon="15.54551">
        <ele>594.46</ele>
      </trkpt>
      <trkpt lat="40.15402" lon="15.54551">
        <ele>594.46</ele>
      </trkpt>
      <trkpt lat="40.15387" lon="15.54521">
        <ele>593.54</ele>
      </trkpt>
      <trkpt lat="40.15379" lon="15.54487">
        <ele>594.33</ele>
      </trkpt>
      <trkpt lat="40.15362" lon="15.54409">
        <ele>600.78</ele>
      </trkpt>
      <trkpt lat="40.15353" lon="15.54397">
        <ele>597.57</ele>
      </trkpt>
      <trkpt lat="40.1534" lon="15.54331">
        <ele>603.18</ele>
      </trkpt>
      <trkpt lat="40.15331" lon="15.54304">
        <ele>600.95</ele>
      </trkpt>
      <trkpt lat="40.15319" lon="15.54244">
        <ele>594.51</ele>
      </trkpt>
      <trkpt lat="40.1532" lon="15.54228">
        <ele>594.5</ele>
      </trkpt>
      <trkpt lat="40.15322" lon="15.54209">
        <ele>593.77</ele>
      </trkpt>
      <trkpt lat="40.15338" lon="15.54183">
        <ele>595.06</ele>
      </trkpt>
      <trkpt lat="40.15366" lon="15.54169">
        <ele>594.73</ele>
      </trkpt>
      <trkpt lat="40.15391" lon="15.54159">
        <ele>596.2</ele>
      </trkpt>
      <trkpt lat="40.15409" lon="15.54147">
        <ele>595.06</ele>
      </trkpt>
      <trkpt lat="40.1544" lon="15.54096">
        <ele>589.22</ele>
      </trkpt>
      <trkpt lat="40.15465" lon="15.54063">
        <ele>590.02</ele>
      </trkpt>
      <trkpt lat="40.15517" lon="15.54023">
        <ele>586.21</ele>
      </trkpt>
      <trkpt lat="40.15557" lon="15.54014">
        <ele>586.72</ele>
      </trkpt>
      <trkpt lat="40.15623" lon="15.54008">
        <ele>592.97</ele>
      </trkpt>
      <trkpt lat="40.15659" lon="15.53995">
        <ele>592.86</ele>
      </trkpt>
      <trkpt lat="40.15702" lon="15.53979">
        <ele>595.87</ele>
      </trkpt>
      <trkpt lat="40.15744" lon="15.5397">
        <ele>593.4</ele>
      </trkpt>
      <trkpt lat="40.15789" lon="15.5396">
        <ele>594.33</ele>
      </trkpt>
      <trkpt lat="40.15815" lon="15.53943">
        <ele>594.74</ele>
      </trkpt>
      <trkpt lat="40.15836" lon="15.53915">
        <ele>589.36</ele>
      </trkpt>
      <trkpt lat="40.15885" lon="15.53861">
        <ele>586.53</ele>
      </trkpt>
      <trkpt lat="40.15921" lon="15.53829">
        <ele>578.6</ele>
      </trkpt>
      <trkpt lat="40.15963" lon="15.5379">
        <ele>563.91</ele>
      </trkpt>
      <trkpt lat="40.15975" lon="15.53786">
        <ele>564.12</ele>
      </trkpt>
      <trkpt lat="40.16014" lon="15.53795">
        <ele>572.2</ele>
      </trkpt>
      <trkpt lat="40.16034" lon="15.53792">
        <ele>568.49</ele>
      </trkpt>
      <trkpt lat="40.16053" lon="15.53786">
        <ele>559.48</ele>
      </trkpt>
      <trkpt lat="40.16063" lon="15.53798">
        <ele>561.59</ele>
      </trkpt>
      <trkpt lat="40.16063" lon="15.53817">
        <ele>569.61</ele>
      </trkpt>
      <trkpt lat="40.16076" lon="15.53821">
        <ele>568.05</ele>
      </trkpt>
      <trkpt lat="40.16167" lon="15.539">
        <ele>570.1</ele>
      </trkpt>
      <trkpt lat="40.16181" lon="15.53913">
        <ele>572.09</ele>
      </trkpt>
      <trkpt lat="40.16245" lon="15.53952">
        <ele>563.47</ele>
      </trkpt>
      <trkpt lat="40.16263" lon="15.53969">
        <ele>562.58</ele>
      </trkpt>
      <trkpt lat="40.16281" lon="15.5399">
        <ele>561.69</ele>
      </trkpt>
      <trkpt lat="40.16302" lon="15.54012">
        <ele>557.61</ele>
      </trkpt>
      <trkpt lat="40.16323" lon="15.54049">
        <ele>557.31</ele>
      </trkpt>
      <trkpt lat="40.16335" lon="15.54069">
        <ele>556.51</ele>
      </trkpt>
      <trkpt lat="40.16374" lon="15.54109">
        <ele>553.17</ele>
      </trkpt>
      <trkpt lat="40.16394" lon="15.54126">
        <ele>548.49</ele>
      </trkpt>
      <trkpt lat="40.16432" lon="15.54151">
        <ele>535.81</ele>
      </trkpt>
      <trkpt lat="40.16448" lon="15.5416">
        <ele>530.76</ele>
      </trkpt>
      <trkpt lat="40.16462" lon="15.54172">
        <ele>526.69</ele>
      </trkpt>
      <trkpt lat="40.16477" lon="15.54193">
        <ele>530.96</ele>
      </trkpt>
      <trkpt lat="40.165" lon="15.54212">
        <ele>526.69</ele>
      </trkpt>
      <trkpt lat="40.16513" lon="15.54222">
        <ele>525.73</ele>
      </trkpt>
      <trkpt lat="40.16545" lon="15.54245">
        <ele>523.81</ele>
      </trkpt>
      <trkpt lat="40.16583" lon="15.54274">
        <ele>512.94</ele>
      </trkpt>
      <trkpt lat="40.16614" lon="15.54287">
        <ele>506.24</ele>
      </trkpt>
      <trkpt lat="40.16651" lon="15.54325">
        <ele>496.17</ele>
      </trkpt>
      <trkpt lat="40.1666" lon="15.54335">
        <ele>493.29</ele>
      </trkpt>
      <trkpt lat="40.16673" lon="15.54368">
        <ele>489.24</ele>
      </trkpt>
      <trkpt lat="40.16675" lon="15.54383">
        <ele>489.6</ele>
      </trkpt>
      <trkpt lat="40.16689" lon="15.54417">
        <ele>484.75</ele>
      </trkpt>
      <trkpt lat="40.16704" lon="15.54447">
        <ele>477.85</ele>
      </trkpt>
      <trkpt lat="40.16709" lon="15.54472">
        <ele>472.84</ele>
      </trkpt>
      <trkpt lat="40.16704" lon="15.5449">
        <ele>471.89</ele>
      </trkpt>
      <trkpt lat="40.16703" lon="15.54498">
        <ele>471.18</ele>
      </trkpt>
      <trkpt lat="40.16705" lon="15.54501">
        <ele>470.05</ele>
      </trkpt>
      <trkpt lat="40.16708" lon="15.54499">
        <ele>469.26</ele>
      </trkpt>
      <trkpt lat="40.1672" lon="15.54494">
        <ele>465.85</ele>
      </trkpt>
      <trkpt lat="40.16727" lon="15.54481">
        <ele>466.45</ele>
      </trkpt>
      <trkpt lat="40.1673" lon="15.54476">
        <ele>466.84</ele>
      </trkpt>
      <trkpt lat="40.16736" lon="15.54462">
        <ele>467.07</ele>
      </trkpt>
      <trkpt lat="40.16741" lon="15.54458">
        <ele>466.3</ele>
      </trkpt>
      <trkpt lat="40.16743" lon="15.54456">
        <ele>465.99</ele>
      </trkpt>
      <trkpt lat="40.16747" lon="15.54453">
        <ele>465.31</ele>
      </trkpt>
      <trkpt lat="40.16759" lon="15.54445">
        <ele>463.68</ele>
      </trkpt>
      <trkpt lat="40.16767" lon="15.5444">
        <ele>462.13</ele>
      </trkpt>
      <trkpt lat="40.16777" lon="15.54436">
        <ele>460.21</ele>
      </trkpt>
      <trkpt lat="40.16798" lon="15.54426">
        <ele>452.69</ele>
      </trkpt>
      <trkpt lat="40.16829" lon="15.54402">
        <ele>445.91</ele>
      </trkpt>
      <trkpt lat="40.16911" lon="15.54355">
        <ele>439.16</ele>
      </trkpt>
      <trkpt lat="40.1692" lon="15.54349">
        <ele>437.83</ele>
      </trkpt>
      <trkpt lat="40.16926" lon="15.54345">
        <ele>436.53</ele>
      </trkpt>
      <trkpt lat="40.16968" lon="15.54307">
        <ele>428.46</ele>
      </trkpt>
      <trkpt lat="40.16989" lon="15.54287">
        <ele>429.01</ele>
      </trkpt>
      <trkpt lat="40.16994" lon="15.54286">
        <ele>429.42</ele>
      </trkpt>
      <trkpt lat="40.17003" lon="15.54294">
        <ele>428.9</ele>
      </trkpt>
      <trkpt lat="40.17008" lon="15.54292">
        <ele>429.53</ele>
      </trkpt>
      <trkpt lat="40.17015" lon="15.54289">
        <ele>430.36</ele>
      </trkpt>
      <trkpt lat="40.17025" lon="15.5429">
        <ele>430.93</ele>
      </trkpt>
      <trkpt lat="40.17025" lon="15.5429">
        <ele>430.93</ele>
      </trkpt>
      <trkpt lat="40.17025" lon="15.5429">
        <ele>430.93</ele>
      </trkpt>
      <trkpt lat="40.17031" lon="15.54288">
        <ele>431.57</ele>
      </trkpt>
      <trkpt lat="40.17038" lon="15.54278">
        <ele>433.09</ele>
      </trkpt>
      <trkpt lat="40.17047" lon="15.54291">
        <ele>432.79</ele>
      </trkpt>
      <trkpt lat="40.17068" lon="15.54324">
        <ele>430.69</ele>
      </trkpt>
      <trkpt lat="40.17077" lon="15.54335">
        <ele>430.01</ele>
      </trkpt>
      <trkpt lat="40.17103" lon="15.54353">
        <ele>427.17</ele>
      </trkpt>
      <trkpt lat="40.17109" lon="15.54355">
        <ele>426.73</ele>
      </trkpt>
      <trkpt lat="40.17118" lon="15.54353">
        <ele>426.7</ele>
      </trkpt>
      <trkpt lat="40.17125" lon="15.5435">
        <ele>426.8</ele>
      </trkpt>
      <trkpt lat="40.17135" lon="15.54338">
        <ele>428.5</ele>
      </trkpt>
      <trkpt lat="40.17153" lon="15.54312">
        <ele>431.93</ele>
      </trkpt>
      <trkpt lat="40.17173" lon="15.54291">
        <ele>431.02</ele>
      </trkpt>
      <trkpt lat="40.17183" lon="15.54285">
        <ele>431.56</ele>
      </trkpt>
      <trkpt lat="40.17194" lon="15.54283">
        <ele>432.23</ele>
      </trkpt>
      <trkpt lat="40.17207" lon="15.54287">
        <ele>429.26</ele>
      </trkpt>
      <trkpt lat="40.1722" lon="15.54298">
        <ele>425.91</ele>
      </trkpt>
      <trkpt lat="40.1724" lon="15.5432">
        <ele>423.84</ele>
      </trkpt>
      <trkpt lat="40.17245" lon="15.54323">
        <ele>423.55</ele>
      </trkpt>
      <trkpt lat="40.17255" lon="15.54324">
        <ele>423.52</ele>
      </trkpt>
      <trkpt lat="40.17255" lon="15.54352">
        <ele>424.71</ele>
      </trkpt>
      <trkpt lat="40.17255" lon="15.54379">
        <ele>423.88</ele>
      </trkpt>
    </trkseg>
  </trk>
</gpx>
