<?xml version="1.0"?>
<gpx xmlns="http://www.topografix.com/GPX/1/1" xmlns:xsi="http://www.w3.org/2001/XMLSchema-instance" version="1.1" creator="AllTrails.com" xsi:schemaLocation="http://www.topografix.com/GPX/1/1 http://www.topografix.com/GPX/1/1/gpx.xsd">
  <metadata>
    <name><![CDATA[anello valle della lontra completo]]></name>
    <desc><![CDATA[]]></desc>
    <link href="http://www.alltrails.com">
      <text>AllTrails, LLC</text>
    </link>
    <bounds minlat="40.13467" minlon="15.55224" maxlat="40.1561934" maxlon="15.62815"/>
  </metadata>
  <trk>
    <name><![CDATA[anello valle della lontra completo]]></name>
    <src>AllTrails</src>
    <trkseg>
      <trkpt lat="40.15619" lon="15.62673">
        <ele>372.98</ele>
      </trkpt>
      <trkpt lat="40.15619" lon="15.62673">
        <ele>372.98</ele>
      </trkpt>
      <trkpt lat="40.15612" lon="15.62684">
        <ele>373.96</ele>
      </trkpt>
      <trkpt lat="40.15607" lon="15.62693">
        <ele>375.57</ele>
      </trkpt>
      <trkpt lat="40.15599" lon="15.62698">
        <ele>376.41</ele>
      </trkpt>
      <trkpt lat="40.15594" lon="15.62703">
        <ele>376.87</ele>
      </trkpt>
      <trkpt lat="40.15593" lon="15.62707">
        <ele>377.37</ele>
      </trkpt>
      <trkpt lat="40.15584" lon="15.62715">
        <ele>375.94</ele>
      </trkpt>
      <trkpt lat="40.15582" lon="15.62725">
        <ele>375.52</ele>
      </trkpt>
      <trkpt lat="40.15574" lon="15.62738">
        <ele>372.45</ele>
      </trkpt>
      <trkpt lat="40.15559" lon="15.62763">
        <ele>367.3</ele>
      </trkpt>
      <trkpt lat="40.15554" lon="15.62769">
        <ele>366.14</ele>
      </trkpt>
      <trkpt lat="40.15554" lon="15.62775">
        <ele>366.54</ele>
      </trkpt>
      <trkpt lat="40.15551" lon="15.62782">
        <ele>366.46</ele>
      </trkpt>
      <trkpt lat="40.15549" lon="15.62784">
        <ele>366.22</ele>
      </trkpt>
      <trkpt lat="40.15534" lon="15.62787">
        <ele>363.53</ele>
      </trkpt>
      <trkpt lat="40.15527" lon="15.62788">
        <ele>362.34</ele>
      </trkpt>
      <trkpt lat="40.15509" lon="15.6279">
        <ele>361.76</ele>
      </trkpt>
      <trkpt lat="40.15499" lon="15.62789">
        <ele>361.44</ele>
      </trkpt>
      <trkpt lat="40.15489" lon="15.62793">
        <ele>361.94</ele>
      </trkpt>
      <trkpt lat="40.15474" lon="15.62815">
        <ele>364.3</ele>
      </trkpt>
      <trkpt lat="40.15464" lon="15.62807">
        <ele>365.23</ele>
      </trkpt>
      <trkpt lat="40.15462" lon="15.62795">
        <ele>365.06</ele>
      </trkpt>
      <trkpt lat="40.15457" lon="15.62789">
        <ele>365.91</ele>
      </trkpt>
      <trkpt lat="40.15446" lon="15.62781">
        <ele>367.89</ele>
      </trkpt>
      <trkpt lat="40.15442" lon="15.62771">
        <ele>367.65</ele>
      </trkpt>
      <trkpt lat="40.15438" lon="15.62744">
        <ele>365.5</ele>
      </trkpt>
      <trkpt lat="40.15426" lon="15.62729">
        <ele>365.24</ele>
      </trkpt>
      <trkpt lat="40.15398" lon="15.62723">
        <ele>363.98</ele>
      </trkpt>
      <trkpt lat="40.1535" lon="15.62721">
        <ele>356.08</ele>
      </trkpt>
      <trkpt lat="40.15314" lon="15.62725">
        <ele>353.57</ele>
      </trkpt>
      <trkpt lat="40.15294" lon="15.62737">
        <ele>358.91</ele>
      </trkpt>
      <trkpt lat="40.15287" lon="15.62738">
        <ele>360.8</ele>
      </trkpt>
      <trkpt lat="40.15284" lon="15.62737">
        <ele>361.26</ele>
      </trkpt>
      <trkpt lat="40.15284" lon="15.62737">
        <ele>361.26</ele>
      </trkpt>
      <trkpt lat="40.15284" lon="15.62737">
        <ele>361.26</ele>
      </trkpt>
      <trkpt lat="40.15264" lon="15.62701">
        <ele>357.78</ele>
      </trkpt>
      <trkpt lat="40.15262" lon="15.62691">
        <ele>356.77</ele>
      </trkpt>
      <trkpt lat="40.15263" lon="15.62677">
        <ele>356.33</ele>
      </trkpt>
      <trkpt lat="40.15252" lon="15.62648">
        <ele>359.87</ele>
      </trkpt>
      <trkpt lat="40.15248" lon="15.62643">
        <ele>360.64</ele>
      </trkpt>
      <trkpt lat="40.15229" lon="15.62626">
        <ele>364.08</ele>
      </trkpt>
      <trkpt lat="40.1521" lon="15.62624">
        <ele>363.77</ele>
      </trkpt>
      <trkpt lat="40.15169" lon="15.62601">
        <ele>359.23</ele>
      </trkpt>
      <trkpt lat="40.15153" lon="15.62597">
        <ele>357.03</ele>
      </trkpt>
      <trkpt lat="40.15132" lon="15.62584">
        <ele>353.32</ele>
      </trkpt>
      <trkpt lat="40.15105" lon="15.62575">
        <ele>350.62</ele>
      </trkpt>
      <trkpt lat="40.15096" lon="15.62578">
        <ele>351.16</ele>
      </trkpt>
      <trkpt lat="40.15058" lon="15.62547">
        <ele>354.0</ele>
      </trkpt>
      <trkpt lat="40.15052" lon="15.62538">
        <ele>354.49</ele>
      </trkpt>
      <trkpt lat="40.15045" lon="15.62538">
        <ele>355.98</ele>
      </trkpt>
      <trkpt lat="40.15035" lon="15.6255">
        <ele>358.0</ele>
      </trkpt>
      <trkpt lat="40.15031" lon="15.6255">
        <ele>358.67</ele>
      </trkpt>
      <trkpt lat="40.15023" lon="15.62528">
        <ele>361.2</ele>
      </trkpt>
      <trkpt lat="40.15018" lon="15.62526">
        <ele>362.51</ele>
      </trkpt>
      <trkpt lat="40.15018" lon="15.62519">
        <ele>362.69</ele>
      </trkpt>
      <trkpt lat="40.15008" lon="15.62501">
        <ele>366.36</ele>
      </trkpt>
      <trkpt lat="40.15004" lon="15.62491">
        <ele>368.26</ele>
      </trkpt>
      <trkpt lat="40.14997" lon="15.62413">
        <ele>369.5</ele>
      </trkpt>
      <trkpt lat="40.14987" lon="15.62387">
        <ele>362.14</ele>
      </trkpt>
      <trkpt lat="40.14962" lon="15.62355">
        <ele>360.8</ele>
      </trkpt>
      <trkpt lat="40.14936" lon="15.62332">
        <ele>357.26</ele>
      </trkpt>
      <trkpt lat="40.14923" lon="15.62325">
        <ele>356.21</ele>
      </trkpt>
      <trkpt lat="40.14911" lon="15.62306">
        <ele>351.34</ele>
      </trkpt>
      <trkpt lat="40.14905" lon="15.62298">
        <ele>349.88</ele>
      </trkpt>
      <trkpt lat="40.14887" lon="15.623">
        <ele>350.98</ele>
      </trkpt>
      <trkpt lat="40.14863" lon="15.62293">
        <ele>355.93</ele>
      </trkpt>
      <trkpt lat="40.14836" lon="15.62278">
        <ele>358.32</ele>
      </trkpt>
      <trkpt lat="40.14836" lon="15.62231">
        <ele>343.58</ele>
      </trkpt>
      <trkpt lat="40.14831" lon="15.62206">
        <ele>340.82</ele>
      </trkpt>
      <trkpt lat="40.14805" lon="15.62134">
        <ele>340.13</ele>
      </trkpt>
      <trkpt lat="40.14801" lon="15.62127">
        <ele>340.03</ele>
      </trkpt>
      <trkpt lat="40.14779" lon="15.62066">
        <ele>342.6</ele>
      </trkpt>
      <trkpt lat="40.14755" lon="15.61977">
        <ele>336.3</ele>
      </trkpt>
      <trkpt lat="40.14749" lon="15.61937">
        <ele>330.67</ele>
      </trkpt>
      <trkpt lat="40.1475" lon="15.61912">
        <ele>329.0</ele>
      </trkpt>
      <trkpt lat="40.14753" lon="15.619">
        <ele>329.39</ele>
      </trkpt>
      <trkpt lat="40.1476" lon="15.61889">
        <ele>330.44</ele>
      </trkpt>
      <trkpt lat="40.14776" lon="15.61867">
        <ele>333.63</ele>
      </trkpt>
      <trkpt lat="40.14781" lon="15.61865">
        <ele>334.34</ele>
      </trkpt>
      <trkpt lat="40.14785" lon="15.61866">
        <ele>334.91</ele>
      </trkpt>
      <trkpt lat="40.14788" lon="15.61869">
        <ele>335.29</ele>
      </trkpt>
      <trkpt lat="40.14788" lon="15.61869">
        <ele>335.29</ele>
      </trkpt>
      <trkpt lat="40.14788" lon="15.61869">
        <ele>335.29</ele>
      </trkpt>
      <trkpt lat="40.1479" lon="15.61862">
        <ele>335.74</ele>
      </trkpt>
      <trkpt lat="40.14791" lon="15.61849">
        <ele>337.44</ele>
      </trkpt>
      <trkpt lat="40.14782" lon="15.61821">
        <ele>341.23</ele>
      </trkpt>
      <trkpt lat="40.14762" lon="15.61789">
        <ele>352.8</ele>
      </trkpt>
      <trkpt lat="40.14768" lon="15.61775">
        <ele>358.37</ele>
      </trkpt>
      <trkpt lat="40.14756" lon="15.61766">
        <ele>365.58</ele>
      </trkpt>
      <trkpt lat="40.14731" lon="15.61759">
        <ele>373.21</ele>
      </trkpt>
      <trkpt lat="40.14687" lon="15.61735">
        <ele>386.76</ele>
      </trkpt>
      <trkpt lat="40.14702" lon="15.61721">
        <ele>391.8</ele>
      </trkpt>
      <trkpt lat="40.1472" lon="15.61711">
        <ele>394.1</ele>
      </trkpt>
      <trkpt lat="40.14732" lon="15.61696">
        <ele>398.05</ele>
      </trkpt>
      <trkpt lat="40.14692" lon="15.61682">
        <ele>408.92</ele>
      </trkpt>
      <trkpt lat="40.14666" lon="15.61669">
        <ele>417.36</ele>
      </trkpt>
      <trkpt lat="40.14654" lon="15.61655">
        <ele>419.52</ele>
      </trkpt>
      <trkpt lat="40.14646" lon="15.61655">
        <ele>416.92</ele>
      </trkpt>
      <trkpt lat="40.14633" lon="15.61646">
        <ele>417.18</ele>
      </trkpt>
      <trkpt lat="40.14605" lon="15.61601">
        <ele>428.85</ele>
      </trkpt>
      <trkpt lat="40.14583" lon="15.61581">
        <ele>435.68</ele>
      </trkpt>
      <trkpt lat="40.1458" lon="15.61569">
        <ele>439.0</ele>
      </trkpt>
      <trkpt lat="40.1459" lon="15.61561">
        <ele>440.37</ele>
      </trkpt>
      <trkpt lat="40.14588" lon="15.61556">
        <ele>442.04</ele>
      </trkpt>
      <trkpt lat="40.14568" lon="15.61537">
        <ele>447.93</ele>
      </trkpt>
      <trkpt lat="40.14566" lon="15.61526">
        <ele>451.9</ele>
      </trkpt>
      <trkpt lat="40.14574" lon="15.61518">
        <ele>452.69</ele>
      </trkpt>
      <trkpt lat="40.14579" lon="15.61511">
        <ele>453.76</ele>
      </trkpt>
      <trkpt lat="40.14575" lon="15.61493">
        <ele>457.81</ele>
      </trkpt>
      <trkpt lat="40.14552" lon="15.61456">
        <ele>465.97</ele>
      </trkpt>
      <trkpt lat="40.14544" lon="15.61431">
        <ele>466.35</ele>
      </trkpt>
      <trkpt lat="40.14545" lon="15.61417">
        <ele>464.32</ele>
      </trkpt>
      <trkpt lat="40.1455" lon="15.61409">
        <ele>462.43</ele>
      </trkpt>
      <trkpt lat="40.14542" lon="15.61398">
        <ele>463.24</ele>
      </trkpt>
      <trkpt lat="40.14536" lon="15.61396">
        <ele>464.52</ele>
      </trkpt>
      <trkpt lat="40.14527" lon="15.61398">
        <ele>466.8</ele>
      </trkpt>
      <trkpt lat="40.14524" lon="15.61386">
        <ele>466.13</ele>
      </trkpt>
      <trkpt lat="40.1452" lon="15.6138">
        <ele>465.62</ele>
      </trkpt>
      <trkpt lat="40.14512" lon="15.61375">
        <ele>465.77</ele>
      </trkpt>
      <trkpt lat="40.14501" lon="15.61375">
        <ele>467.36</ele>
      </trkpt>
      <trkpt lat="40.14477" lon="15.61382">
        <ele>470.3</ele>
      </trkpt>
      <trkpt lat="40.14462" lon="15.61383">
        <ele>472.86</ele>
      </trkpt>
      <trkpt lat="40.14415" lon="15.61377">
        <ele>480.27</ele>
      </trkpt>
      <trkpt lat="40.14403" lon="15.61372">
        <ele>482.27</ele>
      </trkpt>
      <trkpt lat="40.14399" lon="15.61365">
        <ele>483.09</ele>
      </trkpt>
      <trkpt lat="40.14397" lon="15.61352">
        <ele>483.12</ele>
      </trkpt>
      <trkpt lat="40.14399" lon="15.61339">
        <ele>482.09</ele>
      </trkpt>
      <trkpt lat="40.14406" lon="15.61302">
        <ele>479.15</ele>
      </trkpt>
      <trkpt lat="40.14412" lon="15.6127">
        <ele>474.34</ele>
      </trkpt>
      <trkpt lat="40.14412" lon="15.6127">
        <ele>474.34</ele>
      </trkpt>
      <trkpt lat="40.14412" lon="15.6127">
        <ele>474.34</ele>
      </trkpt>
      <trkpt lat="40.14416" lon="15.61268">
        <ele>472.72</ele>
      </trkpt>
      <trkpt lat="40.14424" lon="15.61254">
        <ele>464.07</ele>
      </trkpt>
      <trkpt lat="40.14425" lon="15.6125">
        <ele>462.3</ele>
      </trkpt>
      <trkpt lat="40.14425" lon="15.61245">
        <ele>458.88</ele>
      </trkpt>
      <trkpt lat="40.14422" lon="15.6124">
        <ele>457.12</ele>
      </trkpt>
      <trkpt lat="40.14414" lon="15.61234">
        <ele>456.44</ele>
      </trkpt>
      <trkpt lat="40.1441" lon="15.61228">
        <ele>453.78</ele>
      </trkpt>
      <trkpt lat="40.14404" lon="15.61216">
        <ele>450.76</ele>
      </trkpt>
      <trkpt lat="40.14399" lon="15.6121">
        <ele>451.06</ele>
      </trkpt>
      <trkpt lat="40.14376" lon="15.61204">
        <ele>456.07</ele>
      </trkpt>
      <trkpt lat="40.14335" lon="15.61199">
        <ele>459.97</ele>
      </trkpt>
      <trkpt lat="40.14311" lon="15.61183">
        <ele>459.18</ele>
      </trkpt>
      <trkpt lat="40.14273" lon="15.61187">
        <ele>461.17</ele>
      </trkpt>
      <trkpt lat="40.14256" lon="15.61184">
        <ele>462.89</ele>
      </trkpt>
      <trkpt lat="40.14251" lon="15.6118">
        <ele>462.24</ele>
      </trkpt>
      <trkpt lat="40.1423" lon="15.61176">
        <ele>465.82</ele>
      </trkpt>
      <trkpt lat="40.14211" lon="15.61171">
        <ele>467.61</ele>
      </trkpt>
      <trkpt lat="40.14193" lon="15.61162">
        <ele>468.22</ele>
      </trkpt>
      <trkpt lat="40.14179" lon="15.61152">
        <ele>465.78</ele>
      </trkpt>
      <trkpt lat="40.14175" lon="15.61142">
        <ele>464.05</ele>
      </trkpt>
      <trkpt lat="40.14175" lon="15.61137">
        <ele>463.87</ele>
      </trkpt>
      <trkpt lat="40.14176" lon="15.61134">
        <ele>464.31</ele>
      </trkpt>
      <trkpt lat="40.14187" lon="15.61125">
        <ele>464.9</ele>
      </trkpt>
      <trkpt lat="40.14187" lon="15.61119">
        <ele>465.09</ele>
      </trkpt>
      <trkpt lat="40.14181" lon="15.61112">
        <ele>466.34</ele>
      </trkpt>
      <trkpt lat="40.14173" lon="15.61099">
        <ele>470.04</ele>
      </trkpt>
      <trkpt lat="40.14162" lon="15.61077">
        <ele>475.65</ele>
      </trkpt>
      <trkpt lat="40.14155" lon="15.61059">
        <ele>478.78</ele>
      </trkpt>
      <trkpt lat="40.14152" lon="15.61038">
        <ele>482.13</ele>
      </trkpt>
      <trkpt lat="40.14152" lon="15.61015">
        <ele>486.94</ele>
      </trkpt>
      <trkpt lat="40.1415" lon="15.60983">
        <ele>495.25</ele>
      </trkpt>
      <trkpt lat="40.14147" lon="15.60965">
        <ele>499.31</ele>
      </trkpt>
      <trkpt lat="40.14142" lon="15.60945">
        <ele>502.98</ele>
      </trkpt>
      <trkpt lat="40.1414" lon="15.60931">
        <ele>505.36</ele>
      </trkpt>
      <trkpt lat="40.14135" lon="15.60914">
        <ele>507.98</ele>
      </trkpt>
      <trkpt lat="40.14128" lon="15.60897">
        <ele>508.7</ele>
      </trkpt>
      <trkpt lat="40.1412" lon="15.60879">
        <ele>508.05</ele>
      </trkpt>
      <trkpt lat="40.14111" lon="15.60861">
        <ele>506.01</ele>
      </trkpt>
      <trkpt lat="40.14115" lon="15.60849">
        <ele>511.19</ele>
      </trkpt>
      <trkpt lat="40.1412" lon="15.60843">
        <ele>514.96</ele>
      </trkpt>
      <trkpt lat="40.14126" lon="15.60841">
        <ele>517.98</ele>
      </trkpt>
      <trkpt lat="40.14127" lon="15.6083">
        <ele>520.82</ele>
      </trkpt>
      <trkpt lat="40.14127" lon="15.6083">
        <ele>520.82</ele>
      </trkpt>
      <trkpt lat="40.14127" lon="15.6083">
        <ele>520.82</ele>
      </trkpt>
      <trkpt lat="40.14129" lon="15.60813">
        <ele>524.64</ele>
      </trkpt>
      <trkpt lat="40.1413" lon="15.60801">
        <ele>527.77</ele>
      </trkpt>
      <trkpt lat="40.14124" lon="15.60779">
        <ele>529.51</ele>
      </trkpt>
      <trkpt lat="40.14126" lon="15.60767">
        <ele>533.33</ele>
      </trkpt>
      <trkpt lat="40.14114" lon="15.60744">
        <ele>528.77</ele>
      </trkpt>
      <trkpt lat="40.14094" lon="15.60726">
        <ele>517.39</ele>
      </trkpt>
      <trkpt lat="40.14081" lon="15.6071">
        <ele>508.6</ele>
      </trkpt>
      <trkpt lat="40.14076" lon="15.60695">
        <ele>505.86</ele>
      </trkpt>
      <trkpt lat="40.14074" lon="15.6069">
        <ele>504.59</ele>
      </trkpt>
      <trkpt lat="40.1406" lon="15.60679">
        <ele>497.34</ele>
      </trkpt>
      <trkpt lat="40.14024" lon="15.60654">
        <ele>479.2</ele>
      </trkpt>
      <trkpt lat="40.14021" lon="15.60644">
        <ele>477.86</ele>
      </trkpt>
      <trkpt lat="40.14018" lon="15.60633">
        <ele>476.39</ele>
      </trkpt>
      <trkpt lat="40.14021" lon="15.60594">
        <ele>474.53</ele>
      </trkpt>
      <trkpt lat="40.1402" lon="15.60583">
        <ele>473.76</ele>
      </trkpt>
      <trkpt lat="40.14007" lon="15.60554">
        <ele>469.34</ele>
      </trkpt>
      <trkpt lat="40.13995" lon="15.6054">
        <ele>466.0</ele>
      </trkpt>
      <trkpt lat="40.13986" lon="15.60526">
        <ele>462.86</ele>
      </trkpt>
      <trkpt lat="40.13963" lon="15.60443">
        <ele>449.85</ele>
      </trkpt>
      <trkpt lat="40.13963" lon="15.60443">
        <ele>449.85</ele>
      </trkpt>
      <trkpt lat="40.13963" lon="15.60443">
        <ele>449.85</ele>
      </trkpt>
      <trkpt lat="40.13961" lon="15.60435">
        <ele>450.05</ele>
      </trkpt>
      <trkpt lat="40.13958" lon="15.60412">
        <ele>451.53</ele>
      </trkpt>
      <trkpt lat="40.13949" lon="15.60392">
        <ele>450.52</ele>
      </trkpt>
      <trkpt lat="40.1393" lon="15.60366">
        <ele>446.76</ele>
      </trkpt>
      <trkpt lat="40.13909" lon="15.60351">
        <ele>440.62</ele>
      </trkpt>
      <trkpt lat="40.13856" lon="15.60298">
        <ele>434.43</ele>
      </trkpt>
      <trkpt lat="40.13836" lon="15.60266">
        <ele>430.82</ele>
      </trkpt>
      <trkpt lat="40.1383" lon="15.60248">
        <ele>428.65</ele>
      </trkpt>
      <trkpt lat="40.1383" lon="15.60228">
        <ele>425.94</ele>
      </trkpt>
      <trkpt lat="40.13828" lon="15.60221">
        <ele>424.42</ele>
      </trkpt>
      <trkpt lat="40.13816" lon="15.60202">
        <ele>418.63</ele>
      </trkpt>
      <trkpt lat="40.13804" lon="15.60202">
        <ele>416.43</ele>
      </trkpt>
      <trkpt lat="40.13801" lon="15.60197">
        <ele>415.25</ele>
      </trkpt>
      <trkpt lat="40.13802" lon="15.60192">
        <ele>415.08</ele>
      </trkpt>
      <trkpt lat="40.13799" lon="15.60188">
        <ele>414.23</ele>
      </trkpt>
      <trkpt lat="40.13789" lon="15.60183">
        <ele>412.09</ele>
      </trkpt>
      <trkpt lat="40.13767" lon="15.60179">
        <ele>407.33</ele>
      </trkpt>
      <trkpt lat="40.13753" lon="15.60181">
        <ele>403.73</ele>
      </trkpt>
      <trkpt lat="40.13751" lon="15.60179">
        <ele>403.36</ele>
      </trkpt>
      <trkpt lat="40.13753" lon="15.60174">
        <ele>404.18</ele>
      </trkpt>
      <trkpt lat="40.13771" lon="15.60151">
        <ele>404.44</ele>
      </trkpt>
      <trkpt lat="40.1377" lon="15.60149">
        <ele>403.77</ele>
      </trkpt>
      <trkpt lat="40.13761" lon="15.60149">
        <ele>402.44</ele>
      </trkpt>
      <trkpt lat="40.13758" lon="15.60147">
        <ele>401.58</ele>
      </trkpt>
      <trkpt lat="40.13756" lon="15.60142">
        <ele>400.28</ele>
      </trkpt>
      <trkpt lat="40.13759" lon="15.60124">
        <ele>394.58</ele>
      </trkpt>
      <trkpt lat="40.13767" lon="15.60113">
        <ele>393.07</ele>
      </trkpt>
      <trkpt lat="40.13768" lon="15.6011">
        <ele>392.49</ele>
      </trkpt>
      <trkpt lat="40.1377" lon="15.60107">
        <ele>392.19</ele>
      </trkpt>
      <trkpt lat="40.13776" lon="15.60107">
        <ele>394.1</ele>
      </trkpt>
      <trkpt lat="40.13778" lon="15.60104">
        <ele>393.74</ele>
      </trkpt>
      <trkpt lat="40.13778" lon="15.601">
        <ele>392.44</ele>
      </trkpt>
      <trkpt lat="40.13775" lon="15.60095">
        <ele>389.94</ele>
      </trkpt>
      <trkpt lat="40.13777" lon="15.6009">
        <ele>388.93</ele>
      </trkpt>
      <trkpt lat="40.13784" lon="15.60088">
        <ele>389.67</ele>
      </trkpt>
      <trkpt lat="40.13789" lon="15.60089">
        <ele>390.94</ele>
      </trkpt>
      <trkpt lat="40.13795" lon="15.60084">
        <ele>390.33</ele>
      </trkpt>
      <trkpt lat="40.13784" lon="15.60072">
        <ele>385.13</ele>
      </trkpt>
      <trkpt lat="40.13772" lon="15.60049">
        <ele>375.65</ele>
      </trkpt>
      <trkpt lat="40.13764" lon="15.60019">
        <ele>365.6</ele>
      </trkpt>
      <trkpt lat="40.13765" lon="15.60014">
        <ele>364.95</ele>
      </trkpt>
      <trkpt lat="40.13771" lon="15.60006">
        <ele>364.7</ele>
      </trkpt>
      <trkpt lat="40.13772" lon="15.59999">
        <ele>363.82</ele>
      </trkpt>
      <trkpt lat="40.13767" lon="15.59983">
        <ele>360.27</ele>
      </trkpt>
      <trkpt lat="40.13759" lon="15.59969">
        <ele>354.63</ele>
      </trkpt>
      <trkpt lat="40.1375" lon="15.59964">
        <ele>349.15</ele>
      </trkpt>
      <trkpt lat="40.13744" lon="15.59962">
        <ele>344.82</ele>
      </trkpt>
      <trkpt lat="40.13735" lon="15.59963">
        <ele>340.23</ele>
      </trkpt>
      <trkpt lat="40.13738" lon="15.59953">
        <ele>336.93</ele>
      </trkpt>
      <trkpt lat="40.13733" lon="15.59953">
        <ele>333.98</ele>
      </trkpt>
      <trkpt lat="40.13728" lon="15.59949">
        <ele>328.93</ele>
      </trkpt>
      <trkpt lat="40.1373" lon="15.5994">
        <ele>327.79</ele>
      </trkpt>
      <trkpt lat="40.13741" lon="15.59937">
        <ele>334.22</ele>
      </trkpt>
      <trkpt lat="40.13741" lon="15.59933">
        <ele>334.07</ele>
      </trkpt>
      <trkpt lat="40.13719" lon="15.59917">
        <ele>322.84</ele>
      </trkpt>
      <trkpt lat="40.13713" lon="15.59916">
        <ele>320.57</ele>
      </trkpt>
      <trkpt lat="40.1371" lon="15.59897">
        <ele>316.14</ele>
      </trkpt>
      <trkpt lat="40.13713" lon="15.59895">
        <ele>317.04</ele>
      </trkpt>
      <trkpt lat="40.13724" lon="15.59892">
        <ele>321.4</ele>
      </trkpt>
      <trkpt lat="40.13717" lon="15.59888">
        <ele>317.43</ele>
      </trkpt>
      <trkpt lat="40.13717" lon="15.59885">
        <ele>316.39</ele>
      </trkpt>
      <trkpt lat="40.1372" lon="15.5988">
        <ele>315.7</ele>
      </trkpt>
      <trkpt lat="40.13715" lon="15.59877">
        <ele>312.95</ele>
      </trkpt>
      <trkpt lat="40.13712" lon="15.59871">
        <ele>310.16</ele>
      </trkpt>
      <trkpt lat="40.13699" lon="15.59868">
        <ele>306.1</ele>
      </trkpt>
      <trkpt lat="40.13694" lon="15.59872">
        <ele>305.57</ele>
      </trkpt>
      <trkpt lat="40.13691" lon="15.59871">
        <ele>305.42</ele>
      </trkpt>
      <trkpt lat="40.13688" lon="15.59866">
        <ele>304.81</ele>
      </trkpt>
      <trkpt lat="40.13691" lon="15.59855">
        <ele>303.16</ele>
      </trkpt>
      <trkpt lat="40.13688" lon="15.59843">
        <ele>301.17</ele>
      </trkpt>
      <trkpt lat="40.13694" lon="15.59843">
        <ele>301.38</ele>
      </trkpt>
      <trkpt lat="40.1369" lon="15.5981">
        <ele>301.8</ele>
      </trkpt>
      <trkpt lat="40.13686" lon="15.59799">
        <ele>300.82</ele>
      </trkpt>
      <trkpt lat="40.13686" lon="15.59794">
        <ele>300.32</ele>
      </trkpt>
      <trkpt lat="40.13684" lon="15.5979">
        <ele>299.72</ele>
      </trkpt>
      <trkpt lat="40.13679" lon="15.59787">
        <ele>299.03</ele>
      </trkpt>
      <trkpt lat="40.13678" lon="15.59763">
        <ele>298.84</ele>
      </trkpt>
      <trkpt lat="40.13655" lon="15.59757">
        <ele>300.21</ele>
      </trkpt>
      <trkpt lat="40.13611" lon="15.59722">
        <ele>302.03</ele>
      </trkpt>
      <trkpt lat="40.13607" lon="15.59714">
        <ele>303.12</ele>
      </trkpt>
      <trkpt lat="40.13608" lon="15.59709">
        <ele>303.65</ele>
      </trkpt>
      <trkpt lat="40.1361" lon="15.59704">
        <ele>304.06</ele>
      </trkpt>
      <trkpt lat="40.13624" lon="15.59693">
        <ele>307.63</ele>
      </trkpt>
      <trkpt lat="40.13624" lon="15.59693">
        <ele>307.63</ele>
      </trkpt>
      <trkpt lat="40.13624" lon="15.59693">
        <ele>307.63</ele>
      </trkpt>
      <trkpt lat="40.13628" lon="15.5969">
        <ele>309.9</ele>
      </trkpt>
      <trkpt lat="40.13631" lon="15.59685">
        <ele>313.26</ele>
      </trkpt>
      <trkpt lat="40.1363" lon="15.59681">
        <ele>315.33</ele>
      </trkpt>
      <trkpt lat="40.13625" lon="15.59676">
        <ele>316.96</ele>
      </trkpt>
      <trkpt lat="40.13608" lon="15.59671">
        <ele>315.65</ele>
      </trkpt>
      <trkpt lat="40.13592" lon="15.59656">
        <ele>317.02</ele>
      </trkpt>
      <trkpt lat="40.13585" lon="15.59639">
        <ele>318.34</ele>
      </trkpt>
      <trkpt lat="40.13579" lon="15.59617">
        <ele>323.44</ele>
      </trkpt>
      <trkpt lat="40.13558" lon="15.59601">
        <ele>320.77</ele>
      </trkpt>
      <trkpt lat="40.13535" lon="15.59574">
        <ele>323.92</ele>
      </trkpt>
      <trkpt lat="40.13522" lon="15.59566">
        <ele>325.78</ele>
      </trkpt>
      <trkpt lat="40.13509" lon="15.59538">
        <ele>332.09</ele>
      </trkpt>
      <trkpt lat="40.13499" lon="15.59491">
        <ele>344.2</ele>
      </trkpt>
      <trkpt lat="40.13474" lon="15.59438">
        <ele>354.89</ele>
      </trkpt>
      <trkpt lat="40.13467" lon="15.5939">
        <ele>358.24</ele>
      </trkpt>
      <trkpt lat="40.1349" lon="15.59371">
        <ele>358.81</ele>
      </trkpt>
      <trkpt lat="40.13488" lon="15.59354">
        <ele>361.12</ele>
      </trkpt>
      <trkpt lat="40.1348" lon="15.59326">
        <ele>363.35</ele>
      </trkpt>
      <trkpt lat="40.1348" lon="15.59319">
        <ele>364.11</ele>
      </trkpt>
      <trkpt lat="40.13481" lon="15.59315">
        <ele>364.61</ele>
      </trkpt>
      <trkpt lat="40.13484" lon="15.59309">
        <ele>365.48</ele>
      </trkpt>
      <trkpt lat="40.13485" lon="15.59304">
        <ele>366.17</ele>
      </trkpt>
      <trkpt lat="40.13485" lon="15.59285">
        <ele>369.28</ele>
      </trkpt>
      <trkpt lat="40.13489" lon="15.59258">
        <ele>376.31</ele>
      </trkpt>
      <trkpt lat="40.1349" lon="15.59253">
        <ele>377.95</ele>
      </trkpt>
      <trkpt lat="40.13495" lon="15.59235">
        <ele>384.59</ele>
      </trkpt>
      <trkpt lat="40.1351" lon="15.59183">
        <ele>408.17</ele>
      </trkpt>
      <trkpt lat="40.13553" lon="15.59118">
        <ele>426.27</ele>
      </trkpt>
      <trkpt lat="40.1361" lon="15.5908">
        <ele>451.98</ele>
      </trkpt>
      <trkpt lat="40.13626" lon="15.59075">
        <ele>457.65</ele>
      </trkpt>
      <trkpt lat="40.13636" lon="15.59073">
        <ele>460.99</ele>
      </trkpt>
      <trkpt lat="40.13663" lon="15.59073">
        <ele>462.08</ele>
      </trkpt>
      <trkpt lat="40.13682" lon="15.59064">
        <ele>464.62</ele>
      </trkpt>
      <trkpt lat="40.13701" lon="15.59048">
        <ele>467.41</ele>
      </trkpt>
      <trkpt lat="40.13728" lon="15.59024">
        <ele>462.76</ele>
      </trkpt>
      <trkpt lat="40.13735" lon="15.59">
        <ele>462.08</ele>
      </trkpt>
      <trkpt lat="40.13741" lon="15.58941">
        <ele>457.04</ele>
      </trkpt>
      <trkpt lat="40.1375" lon="15.58907">
        <ele>448.96</ele>
      </trkpt>
      <trkpt lat="40.1375" lon="15.58901">
        <ele>448.31</ele>
      </trkpt>
      <trkpt lat="40.13763" lon="15.58898">
        <ele>447.82</ele>
      </trkpt>
      <trkpt lat="40.1381" lon="15.58834">
        <ele>445.34</ele>
      </trkpt>
      <trkpt lat="40.13824" lon="15.58809">
        <ele>448.8</ele>
      </trkpt>
      <trkpt lat="40.13826" lon="15.58796">
        <ele>447.56</ele>
      </trkpt>
      <trkpt lat="40.13823" lon="15.58732">
        <ele>438.9</ele>
      </trkpt>
      <trkpt lat="40.13825" lon="15.58723">
        <ele>438.19</ele>
      </trkpt>
      <trkpt lat="40.1383" lon="15.58721">
        <ele>438.54</ele>
      </trkpt>
      <trkpt lat="40.13843" lon="15.58726">
        <ele>439.8</ele>
      </trkpt>
      <trkpt lat="40.13864" lon="15.5875">
        <ele>441.17</ele>
      </trkpt>
      <trkpt lat="40.13873" lon="15.5875">
        <ele>438.58</ele>
      </trkpt>
      <trkpt lat="40.13881" lon="15.58741">
        <ele>435.62</ele>
      </trkpt>
      <trkpt lat="40.13885" lon="15.5871">
        <ele>432.24</ele>
      </trkpt>
      <trkpt lat="40.13885" lon="15.58691">
        <ele>430.75</ele>
      </trkpt>
      <trkpt lat="40.13888" lon="15.58683">
        <ele>429.02</ele>
      </trkpt>
      <trkpt lat="40.139" lon="15.58665">
        <ele>425.97</ele>
      </trkpt>
      <trkpt lat="40.1391" lon="15.58642">
        <ele>421.47</ele>
      </trkpt>
      <trkpt lat="40.13914" lon="15.58631">
        <ele>418.29</ele>
      </trkpt>
      <trkpt lat="40.13917" lon="15.5861">
        <ele>412.77</ele>
      </trkpt>
      <trkpt lat="40.13915" lon="15.58595">
        <ele>409.45</ele>
      </trkpt>
      <trkpt lat="40.13908" lon="15.58584">
        <ele>406.53</ele>
      </trkpt>
      <trkpt lat="40.13885" lon="15.58565">
        <ele>402.12</ele>
      </trkpt>
      <trkpt lat="40.13857" lon="15.58569">
        <ele>406.4</ele>
      </trkpt>
      <trkpt lat="40.13804" lon="15.58584">
        <ele>408.76</ele>
      </trkpt>
      <trkpt lat="40.13803" lon="15.58583">
        <ele>408.39</ele>
      </trkpt>
      <trkpt lat="40.13802" lon="15.58581">
        <ele>407.88</ele>
      </trkpt>
      <trkpt lat="40.13803" lon="15.58578">
        <ele>407.59</ele>
      </trkpt>
      <trkpt lat="40.13809" lon="15.58575">
        <ele>407.87</ele>
      </trkpt>
      <trkpt lat="40.13811" lon="15.58571">
        <ele>407.37</ele>
      </trkpt>
      <trkpt lat="40.13811" lon="15.58564">
        <ele>406.11</ele>
      </trkpt>
      <trkpt lat="40.13809" lon="15.5856">
        <ele>405.17</ele>
      </trkpt>
      <trkpt lat="40.13797" lon="15.58561">
        <ele>404.62</ele>
      </trkpt>
      <trkpt lat="40.13795" lon="15.58559">
        <ele>404.34</ele>
      </trkpt>
      <trkpt lat="40.13795" lon="15.58556">
        <ele>404.04</ele>
      </trkpt>
      <trkpt lat="40.13806" lon="15.58549">
        <ele>403.79</ele>
      </trkpt>
      <trkpt lat="40.13806" lon="15.58546">
        <ele>403.67</ele>
      </trkpt>
      <trkpt lat="40.13796" lon="15.58529">
        <ele>402.72</ele>
      </trkpt>
      <trkpt lat="40.13781" lon="15.5849">
        <ele>409.32</ele>
      </trkpt>
      <trkpt lat="40.13782" lon="15.58488">
        <ele>409.16</ele>
      </trkpt>
      <trkpt lat="40.13784" lon="15.58488">
        <ele>408.21</ele>
      </trkpt>
      <trkpt lat="40.13785" lon="15.58486">
        <ele>408.0</ele>
      </trkpt>
      <trkpt lat="40.13785" lon="15.58483">
        <ele>408.4</ele>
      </trkpt>
      <trkpt lat="40.13783" lon="15.58474">
        <ele>410.73</ele>
      </trkpt>
      <trkpt lat="40.13793" lon="15.5843">
        <ele>412.52</ele>
      </trkpt>
      <trkpt lat="40.13805" lon="15.58389">
        <ele>414.17</ele>
      </trkpt>
      <trkpt lat="40.13812" lon="15.5838">
        <ele>411.22</ele>
      </trkpt>
      <trkpt lat="40.13824" lon="15.58375">
        <ele>405.87</ele>
      </trkpt>
      <trkpt lat="40.13824" lon="15.58375">
        <ele>405.87</ele>
      </trkpt>
      <trkpt lat="40.13824" lon="15.58375">
        <ele>405.87</ele>
      </trkpt>
      <trkpt lat="40.13836" lon="15.5837">
        <ele>401.5</ele>
      </trkpt>
      <trkpt lat="40.13843" lon="15.58365">
        <ele>400.74</ele>
      </trkpt>
      <trkpt lat="40.13848" lon="15.58351">
        <ele>400.34</ele>
      </trkpt>
      <trkpt lat="40.1385" lon="15.58347">
        <ele>399.9</ele>
      </trkpt>
      <trkpt lat="40.13855" lon="15.58346">
        <ele>398.8</ele>
      </trkpt>
      <trkpt lat="40.13858" lon="15.58343">
        <ele>398.05</ele>
      </trkpt>
      <trkpt lat="40.1386" lon="15.58337">
        <ele>397.4</ele>
      </trkpt>
      <trkpt lat="40.13866" lon="15.58326">
        <ele>395.68</ele>
      </trkpt>
      <trkpt lat="40.13888" lon="15.58305">
        <ele>391.04</ele>
      </trkpt>
      <trkpt lat="40.13892" lon="15.58299">
        <ele>390.29</ele>
      </trkpt>
      <trkpt lat="40.13893" lon="15.58286">
        <ele>388.89</ele>
      </trkpt>
      <trkpt lat="40.13907" lon="15.58269">
        <ele>387.15</ele>
      </trkpt>
      <trkpt lat="40.13921" lon="15.58246">
        <ele>384.97</ele>
      </trkpt>
      <trkpt lat="40.13924" lon="15.58236">
        <ele>382.95</ele>
      </trkpt>
      <trkpt lat="40.13924" lon="15.58221">
        <ele>380.2</ele>
      </trkpt>
      <trkpt lat="40.13918" lon="15.58169">
        <ele>366.7</ele>
      </trkpt>
      <trkpt lat="40.13905" lon="15.58134">
        <ele>361.08</ele>
      </trkpt>
      <trkpt lat="40.13898" lon="15.58118">
        <ele>359.93</ele>
      </trkpt>
      <trkpt lat="40.13893" lon="15.58116">
        <ele>360.23</ele>
      </trkpt>
      <trkpt lat="40.13889" lon="15.58112">
        <ele>360.12</ele>
      </trkpt>
      <trkpt lat="40.13885" lon="15.581">
        <ele>358.74</ele>
      </trkpt>
      <trkpt lat="40.13886" lon="15.58092">
        <ele>357.86</ele>
      </trkpt>
      <trkpt lat="40.13891" lon="15.58079">
        <ele>356.17</ele>
      </trkpt>
      <trkpt lat="40.13891" lon="15.5806">
        <ele>353.54</ele>
      </trkpt>
      <trkpt lat="40.13889" lon="15.58053">
        <ele>352.9</ele>
      </trkpt>
      <trkpt lat="40.13886" lon="15.58049">
        <ele>352.66</ele>
      </trkpt>
      <trkpt lat="40.13878" lon="15.5805">
        <ele>352.41</ele>
      </trkpt>
      <trkpt lat="40.1386" lon="15.58053">
        <ele>352.08</ele>
      </trkpt>
      <trkpt lat="40.13849" lon="15.58053">
        <ele>353.77</ele>
      </trkpt>
      <trkpt lat="40.13846" lon="15.58051">
        <ele>354.28</ele>
      </trkpt>
      <trkpt lat="40.13843" lon="15.58046">
        <ele>354.94</ele>
      </trkpt>
      <trkpt lat="40.13843" lon="15.57911">
        <ele>355.01</ele>
      </trkpt>
      <trkpt lat="40.1384" lon="15.57899">
        <ele>352.91</ele>
      </trkpt>
      <trkpt lat="40.13833" lon="15.57889">
        <ele>351.08</ele>
      </trkpt>
      <trkpt lat="40.13833" lon="15.57881">
        <ele>349.05</ele>
      </trkpt>
      <trkpt lat="40.13858" lon="15.57864">
        <ele>343.75</ele>
      </trkpt>
      <trkpt lat="40.13858" lon="15.57859">
        <ele>342.73</ele>
      </trkpt>
      <trkpt lat="40.13819" lon="15.57816">
        <ele>338.64</ele>
      </trkpt>
      <trkpt lat="40.13808" lon="15.57816">
        <ele>337.4</ele>
      </trkpt>
      <trkpt lat="40.13806" lon="15.57814">
        <ele>336.97</ele>
      </trkpt>
      <trkpt lat="40.13805" lon="15.57809">
        <ele>336.35</ele>
      </trkpt>
      <trkpt lat="40.13813" lon="15.57794">
        <ele>337.84</ele>
      </trkpt>
      <trkpt lat="40.13821" lon="15.57792">
        <ele>338.94</ele>
      </trkpt>
      <trkpt lat="40.1383" lon="15.57782">
        <ele>339.86</ele>
      </trkpt>
      <trkpt lat="40.13849" lon="15.57754">
        <ele>339.08</ele>
      </trkpt>
      <trkpt lat="40.13854" lon="15.57753">
        <ele>338.58</ele>
      </trkpt>
      <trkpt lat="40.13858" lon="15.57748">
        <ele>338.49</ele>
      </trkpt>
      <trkpt lat="40.13868" lon="15.57729">
        <ele>339.26</ele>
      </trkpt>
      <trkpt lat="40.13894" lon="15.57705">
        <ele>338.36</ele>
      </trkpt>
      <trkpt lat="40.13915" lon="15.57691">
        <ele>332.58</ele>
      </trkpt>
      <trkpt lat="40.13921" lon="15.57673">
        <ele>331.56</ele>
      </trkpt>
      <trkpt lat="40.13925" lon="15.57637">
        <ele>330.99</ele>
      </trkpt>
      <trkpt lat="40.13938" lon="15.57621">
        <ele>328.76</ele>
      </trkpt>
      <trkpt lat="40.13934" lon="15.57603">
        <ele>330.26</ele>
      </trkpt>
      <trkpt lat="40.13944" lon="15.57588">
        <ele>328.1</ele>
      </trkpt>
      <trkpt lat="40.13944" lon="15.5758">
        <ele>327.74</ele>
      </trkpt>
      <trkpt lat="40.13951" lon="15.57562">
        <ele>325.3</ele>
      </trkpt>
      <trkpt lat="40.13958" lon="15.57557">
        <ele>324.59</ele>
      </trkpt>
      <trkpt lat="40.13959" lon="15.5755">
        <ele>324.08</ele>
      </trkpt>
      <trkpt lat="40.13962" lon="15.57534">
        <ele>322.82</ele>
      </trkpt>
      <trkpt lat="40.13978" lon="15.57522">
        <ele>321.79</ele>
      </trkpt>
      <trkpt lat="40.13983" lon="15.57496">
        <ele>320.01</ele>
      </trkpt>
      <trkpt lat="40.13982" lon="15.57484">
        <ele>318.83</ele>
      </trkpt>
      <trkpt lat="40.13969" lon="15.57438">
        <ele>314.3</ele>
      </trkpt>
      <trkpt lat="40.13962" lon="15.57431">
        <ele>313.3</ele>
      </trkpt>
      <trkpt lat="40.13956" lon="15.57419">
        <ele>312.0</ele>
      </trkpt>
      <trkpt lat="40.13945" lon="15.57397">
        <ele>308.24</ele>
      </trkpt>
      <trkpt lat="40.13936" lon="15.5739">
        <ele>304.44</ele>
      </trkpt>
      <trkpt lat="40.1392" lon="15.57392">
        <ele>299.63</ele>
      </trkpt>
      <trkpt lat="40.13919" lon="15.5739">
        <ele>298.95</ele>
      </trkpt>
      <trkpt lat="40.13915" lon="15.57381">
        <ele>296.34</ele>
      </trkpt>
      <trkpt lat="40.13915" lon="15.57372">
        <ele>294.72</ele>
      </trkpt>
      <trkpt lat="40.13911" lon="15.57363">
        <ele>292.52</ele>
      </trkpt>
      <trkpt lat="40.13901" lon="15.5735">
        <ele>288.62</ele>
      </trkpt>
      <trkpt lat="40.13896" lon="15.57337">
        <ele>285.89</ele>
      </trkpt>
      <trkpt lat="40.13887" lon="15.5732">
        <ele>284.45</ele>
      </trkpt>
      <trkpt lat="40.13887" lon="15.57315">
        <ele>284.11</ele>
      </trkpt>
      <trkpt lat="40.13889" lon="15.57301">
        <ele>282.82</ele>
      </trkpt>
      <trkpt lat="40.13899" lon="15.57283">
        <ele>280.21</ele>
      </trkpt>
      <trkpt lat="40.13905" lon="15.57267">
        <ele>276.68</ele>
      </trkpt>
      <trkpt lat="40.13908" lon="15.57264">
        <ele>275.36</ele>
      </trkpt>
      <trkpt lat="40.1391" lon="15.57253">
        <ele>272.73</ele>
      </trkpt>
      <trkpt lat="40.1391" lon="15.57241">
        <ele>270.54</ele>
      </trkpt>
      <trkpt lat="40.13925" lon="15.5722">
        <ele>264.43</ele>
      </trkpt>
      <trkpt lat="40.13925" lon="15.57215">
        <ele>263.82</ele>
      </trkpt>
      <trkpt lat="40.13916" lon="15.57184">
        <ele>258.49</ele>
      </trkpt>
      <trkpt lat="40.13916" lon="15.57174">
        <ele>255.97</ele>
      </trkpt>
      <trkpt lat="40.13915" lon="15.57168">
        <ele>254.64</ele>
      </trkpt>
      <trkpt lat="40.13899" lon="15.57141">
        <ele>251.97</ele>
      </trkpt>
      <trkpt lat="40.13894" lon="15.57137">
        <ele>251.99</ele>
      </trkpt>
      <trkpt lat="40.13883" lon="15.57118">
        <ele>250.36</ele>
      </trkpt>
      <trkpt lat="40.13861" lon="15.57091">
        <ele>244.95</ele>
      </trkpt>
      <trkpt lat="40.13838" lon="15.57083">
        <ele>247.12</ele>
      </trkpt>
      <trkpt lat="40.13801" lon="15.57047">
        <ele>250.74</ele>
      </trkpt>
      <trkpt lat="40.138" lon="15.57032">
        <ele>250.21</ele>
      </trkpt>
      <trkpt lat="40.13794" lon="15.57019">
        <ele>250.24</ele>
      </trkpt>
      <trkpt lat="40.13779" lon="15.57009">
        <ele>250.52</ele>
      </trkpt>
      <trkpt lat="40.1376" lon="15.56994">
        <ele>246.21</ele>
      </trkpt>
      <trkpt lat="40.1375" lon="15.5699">
        <ele>244.48</ele>
      </trkpt>
      <trkpt lat="40.13742" lon="15.56995">
        <ele>244.59</ele>
      </trkpt>
      <trkpt lat="40.13739" lon="15.56993">
        <ele>243.65</ele>
      </trkpt>
      <trkpt lat="40.13738" lon="15.5699">
        <ele>242.75</ele>
      </trkpt>
      <trkpt lat="40.13745" lon="15.56984">
        <ele>242.25</ele>
      </trkpt>
      <trkpt lat="40.13755" lon="15.56964">
        <ele>238.23</ele>
      </trkpt>
      <trkpt lat="40.13738" lon="15.5696">
        <ele>235.38</ele>
      </trkpt>
      <trkpt lat="40.13731" lon="15.56955">
        <ele>233.35</ele>
      </trkpt>
      <trkpt lat="40.13723" lon="15.56953">
        <ele>231.94</ele>
      </trkpt>
      <trkpt lat="40.13713" lon="15.56957">
        <ele>232.38</ele>
      </trkpt>
      <trkpt lat="40.13708" lon="15.56956">
        <ele>231.98</ele>
      </trkpt>
      <trkpt lat="40.137" lon="15.56951">
        <ele>230.62</ele>
      </trkpt>
      <trkpt lat="40.137" lon="15.56943">
        <ele>229.11</ele>
      </trkpt>
      <trkpt lat="40.13704" lon="15.5694">
        <ele>229.08</ele>
      </trkpt>
      <trkpt lat="40.13709" lon="15.56939">
        <ele>229.23</ele>
      </trkpt>
      <trkpt lat="40.13711" lon="15.56939">
        <ele>229.32</ele>
      </trkpt>
      <trkpt lat="40.13733" lon="15.56919">
        <ele>228.83</ele>
      </trkpt>
      <trkpt lat="40.13736" lon="15.56905">
        <ele>227.88</ele>
      </trkpt>
      <trkpt lat="40.13759" lon="15.56879">
        <ele>220.73</ele>
      </trkpt>
      <trkpt lat="40.13773" lon="15.56856">
        <ele>207.45</ele>
      </trkpt>
      <trkpt lat="40.13779" lon="15.56838">
        <ele>197.19</ele>
      </trkpt>
      <trkpt lat="40.13786" lon="15.56823">
        <ele>189.55</ele>
      </trkpt>
      <trkpt lat="40.13789" lon="15.56812">
        <ele>185.95</ele>
      </trkpt>
      <trkpt lat="40.13791" lon="15.5681">
        <ele>184.62</ele>
      </trkpt>
      <trkpt lat="40.13793" lon="15.56813">
        <ele>184.19</ele>
      </trkpt>
      <trkpt lat="40.13792" lon="15.56819">
        <ele>185.75</ele>
      </trkpt>
      <trkpt lat="40.13793" lon="15.56821">
        <ele>185.6</ele>
      </trkpt>
      <trkpt lat="40.13796" lon="15.5682">
        <ele>183.91</ele>
      </trkpt>
      <trkpt lat="40.13796" lon="15.56818">
        <ele>183.57</ele>
      </trkpt>
      <trkpt lat="40.13806" lon="15.568">
        <ele>175.34</ele>
      </trkpt>
      <trkpt lat="40.13804" lon="15.56789">
        <ele>173.72</ele>
      </trkpt>
      <trkpt lat="40.13799" lon="15.56785">
        <ele>175.76</ele>
      </trkpt>
      <trkpt lat="40.138" lon="15.56781">
        <ele>174.3</ele>
      </trkpt>
      <trkpt lat="40.13806" lon="15.56776">
        <ele>169.4</ele>
      </trkpt>
      <trkpt lat="40.1381" lon="15.56767">
        <ele>165.43</ele>
      </trkpt>
      <trkpt lat="40.13805" lon="15.56764">
        <ele>167.92</ele>
      </trkpt>
      <trkpt lat="40.138" lon="15.5676">
        <ele>170.91</ele>
      </trkpt>
      <trkpt lat="40.13796" lon="15.56753">
        <ele>172.96</ele>
      </trkpt>
      <trkpt lat="40.13794" lon="15.5675">
        <ele>174.15</ele>
      </trkpt>
      <trkpt lat="40.13789" lon="15.56741">
        <ele>179.35</ele>
      </trkpt>
      <trkpt lat="40.13796" lon="15.56731">
        <ele>175.52</ele>
      </trkpt>
      <trkpt lat="40.13801" lon="15.56723">
        <ele>173.15</ele>
      </trkpt>
      <trkpt lat="40.13815" lon="15.56715">
        <ele>165.84</ele>
      </trkpt>
      <trkpt lat="40.1383" lon="15.56691">
        <ele>159.07</ele>
      </trkpt>
      <trkpt lat="40.13827" lon="15.56676">
        <ele>161.61</ele>
      </trkpt>
      <trkpt lat="40.1384" lon="15.56627">
        <ele>163.83</ele>
      </trkpt>
      <trkpt lat="40.13835" lon="15.566">
        <ele>172.38</ele>
      </trkpt>
      <trkpt lat="40.13844" lon="15.56575">
        <ele>172.73</ele>
      </trkpt>
      <trkpt lat="40.13859" lon="15.56545">
        <ele>161.47</ele>
      </trkpt>
      <trkpt lat="40.13864" lon="15.56521">
        <ele>158.24</ele>
      </trkpt>
      <trkpt lat="40.13865" lon="15.56501">
        <ele>155.97</ele>
      </trkpt>
      <trkpt lat="40.13863" lon="15.56489">
        <ele>158.6</ele>
      </trkpt>
      <trkpt lat="40.1386" lon="15.56473">
        <ele>163.81</ele>
      </trkpt>
      <trkpt lat="40.1386" lon="15.56465">
        <ele>163.88</ele>
      </trkpt>
      <trkpt lat="40.13863" lon="15.56457">
        <ele>162.66</ele>
      </trkpt>
      <trkpt lat="40.13867" lon="15.56441">
        <ele>160.69</ele>
      </trkpt>
      <trkpt lat="40.13868" lon="15.56431">
        <ele>156.8</ele>
      </trkpt>
      <trkpt lat="40.13868" lon="15.56431">
        <ele>156.8</ele>
      </trkpt>
      <trkpt lat="40.13868" lon="15.56431">
        <ele>156.8</ele>
      </trkpt>
      <trkpt lat="40.13871" lon="15.56408">
        <ele>148.35</ele>
      </trkpt>
      <trkpt lat="40.13879" lon="15.56412">
        <ele>146.34</ele>
      </trkpt>
      <trkpt lat="40.13898" lon="15.5641">
        <ele>142.72</ele>
      </trkpt>
      <trkpt lat="40.13905" lon="15.56408">
        <ele>142.81</ele>
      </trkpt>
      <trkpt lat="40.13911" lon="15.56403">
        <ele>142.43</ele>
      </trkpt>
      <trkpt lat="40.13917" lon="15.56394">
        <ele>141.87</ele>
      </trkpt>
      <trkpt lat="40.13926" lon="15.56367">
        <ele>142.07</ele>
      </trkpt>
      <trkpt lat="40.13926" lon="15.56353">
        <ele>140.78</ele>
      </trkpt>
      <trkpt lat="40.13924" lon="15.56339">
        <ele>138.84</ele>
      </trkpt>
      <trkpt lat="40.13917" lon="15.5629">
        <ele>137.25</ele>
      </trkpt>
      <trkpt lat="40.13915" lon="15.56272">
        <ele>137.87</ele>
      </trkpt>
      <trkpt lat="40.13914" lon="15.56234">
        <ele>139.85</ele>
      </trkpt>
      <trkpt lat="40.13914" lon="15.56234">
        <ele>139.85</ele>
      </trkpt>
      <trkpt lat="40.13914" lon="15.56234">
        <ele>139.85</ele>
      </trkpt>
      <trkpt lat="40.13909" lon="15.56212">
        <ele>140.28</ele>
      </trkpt>
      <trkpt lat="40.13893" lon="15.56165">
        <ele>141.34</ele>
      </trkpt>
      <trkpt lat="40.13894" lon="15.56157">
        <ele>141.72</ele>
      </trkpt>
      <trkpt lat="40.13897" lon="15.56153">
        <ele>142.77</ele>
      </trkpt>
      <trkpt lat="40.139" lon="15.56151">
        <ele>143.83</ele>
      </trkpt>
      <trkpt lat="40.13902" lon="15.5615">
        <ele>144.53</ele>
      </trkpt>
      <trkpt lat="40.13906" lon="15.5615">
        <ele>145.91</ele>
      </trkpt>
      <trkpt lat="40.13908" lon="15.56151">
        <ele>146.58</ele>
      </trkpt>
      <trkpt lat="40.13908" lon="15.56151">
        <ele>146.58</ele>
      </trkpt>
      <trkpt lat="40.13908" lon="15.56151">
        <ele>146.58</ele>
      </trkpt>
      <trkpt lat="40.13911" lon="15.56153">
        <ele>147.56</ele>
      </trkpt>
      <trkpt lat="40.13913" lon="15.56156">
        <ele>148.15</ele>
      </trkpt>
      <trkpt lat="40.13915" lon="15.5616">
        <ele>148.69</ele>
      </trkpt>
      <trkpt lat="40.13922" lon="15.56191">
        <ele>145.99</ele>
      </trkpt>
      <trkpt lat="40.13927" lon="15.56219">
        <ele>145.82</ele>
      </trkpt>
      <trkpt lat="40.1393" lon="15.56241">
        <ele>145.42</ele>
      </trkpt>
      <trkpt lat="40.13934" lon="15.56254">
        <ele>146.25</ele>
      </trkpt>
      <trkpt lat="40.13946" lon="15.56279">
        <ele>149.38</ele>
      </trkpt>
      <trkpt lat="40.13946" lon="15.56279">
        <ele>149.38</ele>
      </trkpt>
      <trkpt lat="40.13946" lon="15.56279">
        <ele>149.38</ele>
      </trkpt>
      <trkpt lat="40.13969" lon="15.56278">
        <ele>156.96</ele>
      </trkpt>
      <trkpt lat="40.13976" lon="15.56281">
        <ele>159.64</ele>
      </trkpt>
      <trkpt lat="40.13993" lon="15.563">
        <ele>168.22</ele>
      </trkpt>
      <trkpt lat="40.14001" lon="15.56312">
        <ele>172.37</ele>
      </trkpt>
      <trkpt lat="40.1402" lon="15.56322">
        <ele>179.63</ele>
      </trkpt>
      <trkpt lat="40.14033" lon="15.56331">
        <ele>184.8</ele>
      </trkpt>
      <trkpt lat="40.14042" lon="15.5633">
        <ele>188.0</ele>
      </trkpt>
      <trkpt lat="40.14059" lon="15.56323">
        <ele>193.5</ele>
      </trkpt>
      <trkpt lat="40.14068" lon="15.56315">
        <ele>195.48</ele>
      </trkpt>
      <trkpt lat="40.14073" lon="15.56303">
        <ele>196.64</ele>
      </trkpt>
      <trkpt lat="40.14073" lon="15.56296">
        <ele>197.3</ele>
      </trkpt>
      <trkpt lat="40.14075" lon="15.56295">
        <ele>197.93</ele>
      </trkpt>
      <trkpt lat="40.14078" lon="15.56296">
        <ele>198.62</ele>
      </trkpt>
      <trkpt lat="40.14078" lon="15.56296">
        <ele>198.62</ele>
      </trkpt>
      <trkpt lat="40.14078" lon="15.56296">
        <ele>198.62</ele>
      </trkpt>
      <trkpt lat="40.14088" lon="15.5629">
        <ele>202.9</ele>
      </trkpt>
      <trkpt lat="40.14104" lon="15.56281">
        <ele>212.47</ele>
      </trkpt>
      <trkpt lat="40.14113" lon="15.56273">
        <ele>219.68</ele>
      </trkpt>
      <trkpt lat="40.14128" lon="15.56285">
        <ele>226.26</ele>
      </trkpt>
      <trkpt lat="40.1413" lon="15.56283">
        <ele>228.22</ele>
      </trkpt>
      <trkpt lat="40.14127" lon="15.56251">
        <ele>236.13</ele>
      </trkpt>
      <trkpt lat="40.14114" lon="15.56206">
        <ele>242.38</ele>
      </trkpt>
      <trkpt lat="40.1412" lon="15.56197">
        <ele>248.41</ele>
      </trkpt>
      <trkpt lat="40.1412" lon="15.56197">
        <ele>248.41</ele>
      </trkpt>
      <trkpt lat="40.1412" lon="15.56197">
        <ele>248.41</ele>
      </trkpt>
      <trkpt lat="40.14094" lon="15.56161">
        <ele>244.43</ele>
      </trkpt>
      <trkpt lat="40.14077" lon="15.56132">
        <ele>244.24</ele>
      </trkpt>
      <trkpt lat="40.14068" lon="15.5612">
        <ele>244.58</ele>
      </trkpt>
      <trkpt lat="40.14054" lon="15.56099">
        <ele>244.08</ele>
      </trkpt>
      <trkpt lat="40.1405" lon="15.56086">
        <ele>245.6</ele>
      </trkpt>
      <trkpt lat="40.14046" lon="15.56071">
        <ele>245.65</ele>
      </trkpt>
      <trkpt lat="40.14041" lon="15.56041">
        <ele>245.61</ele>
      </trkpt>
      <trkpt lat="40.14043" lon="15.56012">
        <ele>247.22</ele>
      </trkpt>
      <trkpt lat="40.14049" lon="15.55966">
        <ele>249.51</ele>
      </trkpt>
      <trkpt lat="40.14042" lon="15.55929">
        <ele>250.83</ele>
      </trkpt>
      <trkpt lat="40.14023" lon="15.55848">
        <ele>255.48</ele>
      </trkpt>
      <trkpt lat="40.1402" lon="15.55819">
        <ele>255.24</ele>
      </trkpt>
      <trkpt lat="40.14021" lon="15.55794">
        <ele>254.11</ele>
      </trkpt>
      <trkpt lat="40.14038" lon="15.55734">
        <ele>257.46</ele>
      </trkpt>
      <trkpt lat="40.14038" lon="15.55728">
        <ele>257.9</ele>
      </trkpt>
      <trkpt lat="40.14037" lon="15.55699">
        <ele>262.73</ele>
      </trkpt>
      <trkpt lat="40.14034" lon="15.55678">
        <ele>266.34</ele>
      </trkpt>
      <trkpt lat="40.14029" lon="15.55667">
        <ele>267.28</ele>
      </trkpt>
      <trkpt lat="40.14014" lon="15.55654">
        <ele>265.27</ele>
      </trkpt>
      <trkpt lat="40.14014" lon="15.55654">
        <ele>265.27</ele>
      </trkpt>
      <trkpt lat="40.14014" lon="15.55654">
        <ele>265.27</ele>
      </trkpt>
      <trkpt lat="40.13994" lon="15.55636">
        <ele>263.78</ele>
      </trkpt>
      <trkpt lat="40.13958" lon="15.55624">
        <ele>258.56</ele>
      </trkpt>
      <trkpt lat="40.1395" lon="15.55619">
        <ele>259.88</ele>
      </trkpt>
      <trkpt lat="40.13929" lon="15.55599">
        <ele>265.57</ele>
      </trkpt>
      <trkpt lat="40.13888" lon="15.55554">
        <ele>271.75</ele>
      </trkpt>
      <trkpt lat="40.13868" lon="15.55526">
        <ele>270.07</ele>
      </trkpt>
      <trkpt lat="40.1386" lon="15.55508">
        <ele>270.11</ele>
      </trkpt>
      <trkpt lat="40.13858" lon="15.55491">
        <ele>270.04</ele>
      </trkpt>
      <trkpt lat="40.13857" lon="15.55443">
        <ele>266.7</ele>
      </trkpt>
      <trkpt lat="40.13858" lon="15.55431">
        <ele>265.44</ele>
      </trkpt>
      <trkpt lat="40.13861" lon="15.55425">
        <ele>264.9</ele>
      </trkpt>
      <trkpt lat="40.13864" lon="15.55421">
        <ele>264.2</ele>
      </trkpt>
      <trkpt lat="40.13866" lon="15.55419">
        <ele>263.77</ele>
      </trkpt>
      <trkpt lat="40.13878" lon="15.55412">
        <ele>261.2</ele>
      </trkpt>
      <trkpt lat="40.13887" lon="15.55412">
        <ele>260.34</ele>
      </trkpt>
      <trkpt lat="40.13896" lon="15.55414">
        <ele>260.68</ele>
      </trkpt>
      <trkpt lat="40.13915" lon="15.55422">
        <ele>263.45</ele>
      </trkpt>
      <trkpt lat="40.13924" lon="15.55422">
        <ele>264.01</ele>
      </trkpt>
      <trkpt lat="40.13934" lon="15.55417">
        <ele>263.34</ele>
      </trkpt>
      <trkpt lat="40.13947" lon="15.55414">
        <ele>262.71</ele>
      </trkpt>
      <trkpt lat="40.13947" lon="15.55414">
        <ele>262.71</ele>
      </trkpt>
      <trkpt lat="40.13947" lon="15.55414">
        <ele>262.71</ele>
      </trkpt>
      <trkpt lat="40.13958" lon="15.55406">
        <ele>258.85</ele>
      </trkpt>
      <trkpt lat="40.13987" lon="15.55384">
        <ele>252.14</ele>
      </trkpt>
      <trkpt lat="40.13995" lon="15.55373">
        <ele>249.6</ele>
      </trkpt>
      <trkpt lat="40.14015" lon="15.55343">
        <ele>243.33</ele>
      </trkpt>
      <trkpt lat="40.14048" lon="15.55319">
        <ele>246.49</ele>
      </trkpt>
      <trkpt lat="40.14075" lon="15.55297">
        <ele>245.8</ele>
      </trkpt>
      <trkpt lat="40.14079" lon="15.55292">
        <ele>245.31</ele>
      </trkpt>
      <trkpt lat="40.14083" lon="15.55288">
        <ele>245.08</ele>
      </trkpt>
      <trkpt lat="40.14091" lon="15.55285">
        <ele>245.54</ele>
      </trkpt>
      <trkpt lat="40.14099" lon="15.55281">
        <ele>245.97</ele>
      </trkpt>
      <trkpt lat="40.14105" lon="15.55274">
        <ele>245.66</ele>
      </trkpt>
      <trkpt lat="40.14119" lon="15.55258">
        <ele>244.01</ele>
      </trkpt>
      <trkpt lat="40.14141" lon="15.55232">
        <ele>239.44</ele>
      </trkpt>
      <trkpt lat="40.14147" lon="15.55226">
        <ele>237.74</ele>
      </trkpt>
      <trkpt lat="40.14154" lon="15.55224">
        <ele>236.97</ele>
      </trkpt>
      <trkpt lat="40.14154" lon="15.55224">
        <ele>236.97</ele>
      </trkpt>
      <trkpt lat="40.14154" lon="15.55224">
        <ele>236.97</ele>
      </trkpt>
      <trkpt lat="40.14147" lon="15.55226">
        <ele>237.74</ele>
      </trkpt>
      <trkpt lat="40.14141" lon="15.55232">
        <ele>239.44</ele>
      </trkpt>
      <trkpt lat="40.14119" lon="15.55258">
        <ele>244.01</ele>
      </trkpt>
      <trkpt lat="40.14105" lon="15.55274">
        <ele>245.66</ele>
      </trkpt>
      <trkpt lat="40.14099" lon="15.55281">
        <ele>245.97</ele>
      </trkpt>
      <trkpt lat="40.14091" lon="15.55285">
        <ele>245.54</ele>
      </trkpt>
      <trkpt lat="40.14083" lon="15.55288">
        <ele>245.08</ele>
      </trkpt>
      <trkpt lat="40.14079" lon="15.55292">
        <ele>245.31</ele>
      </trkpt>
      <trkpt lat="40.14075" lon="15.55297">
        <ele>245.8</ele>
      </trkpt>
      <trkpt lat="40.14048" lon="15.55319">
        <ele>246.49</ele>
      </trkpt>
      <trkpt lat="40.14015" lon="15.55343">
        <ele>243.33</ele>
      </trkpt>
      <trkpt lat="40.13995" lon="15.55373">
        <ele>249.6</ele>
      </trkpt>
      <trkpt lat="40.13987" lon="15.55384">
        <ele>252.14</ele>
      </trkpt>
      <trkpt lat="40.13958" lon="15.55406">
        <ele>258.85</ele>
      </trkpt>
      <trkpt lat="40.13947" lon="15.55414">
        <ele>262.71</ele>
      </trkpt>
      <trkpt lat="40.13934" lon="15.55417">
        <ele>263.34</ele>
      </trkpt>
      <trkpt lat="40.13924" lon="15.55422">
        <ele>264.01</ele>
      </trkpt>
      <trkpt lat="40.13958" lon="15.55417">
        <ele>261.66</ele>
      </trkpt>
      <trkpt lat="40.13984" lon="15.55421">
        <ele>258.67</ele>
      </trkpt>
      <trkpt lat="40.13999" lon="15.5543">
        <ele>258.56</ele>
      </trkpt>
      <trkpt lat="40.14014" lon="15.55441">
        <ele>261.82</ele>
      </trkpt>
      <trkpt lat="40.14024" lon="15.55445">
        <ele>263.01</ele>
      </trkpt>
      <trkpt lat="40.14038" lon="15.55447">
        <ele>265.12</ele>
      </trkpt>
      <trkpt lat="40.14043" lon="15.55448">
        <ele>266.09</ele>
      </trkpt>
      <trkpt lat="40.14046" lon="15.55452">
        <ele>267.53</ele>
      </trkpt>
      <trkpt lat="40.14047" lon="15.55452">
        <ele>267.67</ele>
      </trkpt>
      <trkpt lat="40.1405" lon="15.55456">
        <ele>269.11</ele>
      </trkpt>
      <trkpt lat="40.14053" lon="15.5546">
        <ele>270.55</ele>
      </trkpt>
      <trkpt lat="40.14051" lon="15.5547">
        <ele>272.78</ele>
      </trkpt>
      <trkpt lat="40.14049" lon="15.55474">
        <ele>273.41</ele>
      </trkpt>
      <trkpt lat="40.14045" lon="15.55477">
        <ele>273.47</ele>
      </trkpt>
      <trkpt lat="40.1404" lon="15.55481">
        <ele>273.69</ele>
      </trkpt>
      <trkpt lat="40.14033" lon="15.55486">
        <ele>274.04</ele>
      </trkpt>
      <trkpt lat="40.14007" lon="15.55509">
        <ele>281.55</ele>
      </trkpt>
      <trkpt lat="40.14004" lon="15.55513">
        <ele>282.35</ele>
      </trkpt>
      <trkpt lat="40.14003" lon="15.55518">
        <ele>282.9</ele>
      </trkpt>
      <trkpt lat="40.14007" lon="15.55521">
        <ele>282.63</ele>
      </trkpt>
      <trkpt lat="40.14011" lon="15.55521">
        <ele>282.13</ele>
      </trkpt>
      <trkpt lat="40.14011" lon="15.55529">
        <ele>282.73</ele>
      </trkpt>
      <trkpt lat="40.14011" lon="15.55529">
        <ele>282.73</ele>
      </trkpt>
      <trkpt lat="40.14011" lon="15.55529">
        <ele>282.73</ele>
      </trkpt>
      <trkpt lat="40.14012" lon="15.5554">
        <ele>281.95</ele>
      </trkpt>
      <trkpt lat="40.14024" lon="15.55576">
        <ele>280.06</ele>
      </trkpt>
      <trkpt lat="40.14032" lon="15.55598">
        <ele>278.95</ele>
      </trkpt>
      <trkpt lat="40.14061" lon="15.55639">
        <ele>278.76</ele>
      </trkpt>
      <trkpt lat="40.14066" lon="15.55645">
        <ele>279.94</ele>
      </trkpt>
      <trkpt lat="40.14071" lon="15.55661">
        <ele>280.41</ele>
      </trkpt>
      <trkpt lat="40.14075" lon="15.55679">
        <ele>280.19</ele>
      </trkpt>
      <trkpt lat="40.14081" lon="15.55696">
        <ele>281.65</ele>
      </trkpt>
      <trkpt lat="40.141" lon="15.55739">
        <ele>287.07</ele>
      </trkpt>
      <trkpt lat="40.14104" lon="15.55755">
        <ele>288.51</ele>
      </trkpt>
      <trkpt lat="40.14103" lon="15.55779">
        <ele>287.29</ele>
      </trkpt>
      <trkpt lat="40.14099" lon="15.55825">
        <ele>284.68</ele>
      </trkpt>
      <trkpt lat="40.14098" lon="15.55898">
        <ele>280.33</ele>
      </trkpt>
      <trkpt lat="40.14098" lon="15.55898">
        <ele>280.33</ele>
      </trkpt>
      <trkpt lat="40.14098" lon="15.55898">
        <ele>280.33</ele>
      </trkpt>
      <trkpt lat="40.14097" lon="15.55943">
        <ele>274.08</ele>
      </trkpt>
      <trkpt lat="40.14102" lon="15.56048">
        <ele>266.17</ele>
      </trkpt>
      <trkpt lat="40.14107" lon="15.56072">
        <ele>267.52</ele>
      </trkpt>
      <trkpt lat="40.14133" lon="15.56157">
        <ele>264.21</ele>
      </trkpt>
      <trkpt lat="40.14141" lon="15.56183">
        <ele>263.73</ele>
      </trkpt>
      <trkpt lat="40.14152" lon="15.56195">
        <ele>267.9</ele>
      </trkpt>
      <trkpt lat="40.14163" lon="15.56201">
        <ele>273.51</ele>
      </trkpt>
      <trkpt lat="40.14173" lon="15.56202">
        <ele>278.23</ele>
      </trkpt>
      <trkpt lat="40.14181" lon="15.56208">
        <ele>280.98</ele>
      </trkpt>
      <trkpt lat="40.14191" lon="15.56224">
        <ele>284.92</ele>
      </trkpt>
      <trkpt lat="40.14212" lon="15.56269">
        <ele>291.32</ele>
      </trkpt>
      <trkpt lat="40.1424" lon="15.56317">
        <ele>298.3</ele>
      </trkpt>
      <trkpt lat="40.14245" lon="15.5633">
        <ele>299.04</ele>
      </trkpt>
      <trkpt lat="40.14256" lon="15.56393">
        <ele>294.2</ele>
      </trkpt>
      <trkpt lat="40.14265" lon="15.5642">
        <ele>296.16</ele>
      </trkpt>
      <trkpt lat="40.14275" lon="15.56446">
        <ele>297.83</ele>
      </trkpt>
      <trkpt lat="40.14299" lon="15.56518">
        <ele>296.58</ele>
      </trkpt>
      <trkpt lat="40.1432" lon="15.56572">
        <ele>297.45</ele>
      </trkpt>
      <trkpt lat="40.14323" lon="15.56578">
        <ele>297.36</ele>
      </trkpt>
      <trkpt lat="40.14334" lon="15.56592">
        <ele>298.79</ele>
      </trkpt>
      <trkpt lat="40.14338" lon="15.566">
        <ele>299.42</ele>
      </trkpt>
      <trkpt lat="40.14349" lon="15.56626">
        <ele>299.01</ele>
      </trkpt>
      <trkpt lat="40.14354" lon="15.56635">
        <ele>298.56</ele>
      </trkpt>
      <trkpt lat="40.14391" lon="15.56674">
        <ele>307.8</ele>
      </trkpt>
      <trkpt lat="40.14403" lon="15.5669">
        <ele>311.33</ele>
      </trkpt>
      <trkpt lat="40.14406" lon="15.56697">
        <ele>311.16</ele>
      </trkpt>
      <trkpt lat="40.14408" lon="15.56708">
        <ele>309.26</ele>
      </trkpt>
      <trkpt lat="40.14414" lon="15.56719">
        <ele>309.48</ele>
      </trkpt>
      <trkpt lat="40.14428" lon="15.56743">
        <ele>312.55</ele>
      </trkpt>
      <trkpt lat="40.14435" lon="15.56754">
        <ele>314.45</ele>
      </trkpt>
      <trkpt lat="40.14442" lon="15.56775">
        <ele>314.26</ele>
      </trkpt>
      <trkpt lat="40.14444" lon="15.56783">
        <ele>313.84</ele>
      </trkpt>
      <trkpt lat="40.14449" lon="15.56789">
        <ele>315.44</ele>
      </trkpt>
      <trkpt lat="40.14466" lon="15.56799">
        <ele>321.41</ele>
      </trkpt>
      <trkpt lat="40.14472" lon="15.56804">
        <ele>322.46</ele>
      </trkpt>
      <trkpt lat="40.14499" lon="15.56846">
        <ele>324.43</ele>
      </trkpt>
      <trkpt lat="40.1451" lon="15.56857">
        <ele>328.77</ele>
      </trkpt>
      <trkpt lat="40.14524" lon="15.56868">
        <ele>335.67</ele>
      </trkpt>
      <trkpt lat="40.14539" lon="15.56893">
        <ele>338.07</ele>
      </trkpt>
      <trkpt lat="40.14546" lon="15.56909">
        <ele>335.35</ele>
      </trkpt>
      <trkpt lat="40.14554" lon="15.56948">
        <ele>330.38</ele>
      </trkpt>
      <trkpt lat="40.14554" lon="15.56958">
        <ele>330.04</ele>
      </trkpt>
      <trkpt lat="40.14546" lon="15.56994">
        <ele>329.87</ele>
      </trkpt>
      <trkpt lat="40.14543" lon="15.56998">
        <ele>329.59</ele>
      </trkpt>
      <trkpt lat="40.14496" lon="15.57006">
        <ele>324.24</ele>
      </trkpt>
      <trkpt lat="40.14481" lon="15.57048">
        <ele>333.08</ele>
      </trkpt>
      <trkpt lat="40.14453" lon="15.57083">
        <ele>333.0</ele>
      </trkpt>
      <trkpt lat="40.14435" lon="15.57104">
        <ele>332.34</ele>
      </trkpt>
      <trkpt lat="40.1443" lon="15.57117">
        <ele>334.15</ele>
      </trkpt>
      <trkpt lat="40.1443" lon="15.57117">
        <ele>334.15</ele>
      </trkpt>
      <trkpt lat="40.1443" lon="15.57117">
        <ele>334.15</ele>
      </trkpt>
      <trkpt lat="40.14424" lon="15.57135">
        <ele>336.74</ele>
      </trkpt>
      <trkpt lat="40.14416" lon="15.57149">
        <ele>336.65</ele>
      </trkpt>
      <trkpt lat="40.14413" lon="15.57158">
        <ele>336.89</ele>
      </trkpt>
      <trkpt lat="40.14413" lon="15.57168">
        <ele>337.4</ele>
      </trkpt>
      <trkpt lat="40.14416" lon="15.57178">
        <ele>337.12</ele>
      </trkpt>
      <trkpt lat="40.14431" lon="15.57198">
        <ele>337.87</ele>
      </trkpt>
      <trkpt lat="40.1444" lon="15.57213">
        <ele>336.3</ele>
      </trkpt>
      <trkpt lat="40.14448" lon="15.57225">
        <ele>335.49</ele>
      </trkpt>
      <trkpt lat="40.1448" lon="15.57234">
        <ele>340.44</ele>
      </trkpt>
      <trkpt lat="40.14486" lon="15.57239">
        <ele>341.34</ele>
      </trkpt>
      <trkpt lat="40.14505" lon="15.57255">
        <ele>343.98</ele>
      </trkpt>
      <trkpt lat="40.14523" lon="15.57264">
        <ele>348.01</ele>
      </trkpt>
      <trkpt lat="40.14557" lon="15.57268">
        <ele>358.21</ele>
      </trkpt>
      <trkpt lat="40.14572" lon="15.57273">
        <ele>361.01</ele>
      </trkpt>
      <trkpt lat="40.14622" lon="15.57309">
        <ele>358.35</ele>
      </trkpt>
      <trkpt lat="40.14677" lon="15.57333">
        <ele>362.43</ele>
      </trkpt>
      <trkpt lat="40.14711" lon="15.57345">
        <ele>370.27</ele>
      </trkpt>
      <trkpt lat="40.1475" lon="15.57366">
        <ele>373.94</ele>
      </trkpt>
      <trkpt lat="40.14759" lon="15.57373">
        <ele>374.51</ele>
      </trkpt>
      <trkpt lat="40.14762" lon="15.57383">
        <ele>373.2</ele>
      </trkpt>
      <trkpt lat="40.14761" lon="15.57397">
        <ele>371.01</ele>
      </trkpt>
      <trkpt lat="40.14752" lon="15.57417">
        <ele>366.59</ele>
      </trkpt>
      <trkpt lat="40.14737" lon="15.57463">
        <ele>364.48</ele>
      </trkpt>
      <trkpt lat="40.14732" lon="15.57474">
        <ele>363.8</ele>
      </trkpt>
      <trkpt lat="40.14719" lon="15.57492">
        <ele>361.75</ele>
      </trkpt>
      <trkpt lat="40.14713" lon="15.57504">
        <ele>361.21</ele>
      </trkpt>
      <trkpt lat="40.14706" lon="15.57538">
        <ele>363.28</ele>
      </trkpt>
      <trkpt lat="40.14694" lon="15.57605">
        <ele>368.08</ele>
      </trkpt>
      <trkpt lat="40.14695" lon="15.57622">
        <ele>369.85</ele>
      </trkpt>
      <trkpt lat="40.14698" lon="15.57635">
        <ele>371.01</ele>
      </trkpt>
      <trkpt lat="40.14704" lon="15.57641">
        <ele>371.79</ele>
      </trkpt>
      <trkpt lat="40.14706" lon="15.57649">
        <ele>372.26</ele>
      </trkpt>
      <trkpt lat="40.14704" lon="15.57658">
        <ele>372.59</ele>
      </trkpt>
      <trkpt lat="40.14703" lon="15.57663">
        <ele>372.82</ele>
      </trkpt>
      <trkpt lat="40.14703" lon="15.57665">
        <ele>372.92</ele>
      </trkpt>
      <trkpt lat="40.14704" lon="15.57668">
        <ele>372.72</ele>
      </trkpt>
      <trkpt lat="40.14705" lon="15.57674">
        <ele>371.41</ele>
      </trkpt>
      <trkpt lat="40.14705" lon="15.57684">
        <ele>369.23</ele>
      </trkpt>
      <trkpt lat="40.14704" lon="15.5769">
        <ele>368.17</ele>
      </trkpt>
      <trkpt lat="40.14702" lon="15.57694">
        <ele>367.91</ele>
      </trkpt>
      <trkpt lat="40.14694" lon="15.577">
        <ele>369.23</ele>
      </trkpt>
      <trkpt lat="40.14693" lon="15.57703">
        <ele>368.87</ele>
      </trkpt>
      <trkpt lat="40.14693" lon="15.57706">
        <ele>368.45</ele>
      </trkpt>
      <trkpt lat="40.14694" lon="15.57709">
        <ele>367.95</ele>
      </trkpt>
      <trkpt lat="40.147" lon="15.57712">
        <ele>365.75</ele>
      </trkpt>
      <trkpt lat="40.14703" lon="15.57715">
        <ele>364.35</ele>
      </trkpt>
      <trkpt lat="40.14705" lon="15.5772">
        <ele>362.93</ele>
      </trkpt>
      <trkpt lat="40.14711" lon="15.57728">
        <ele>359.51</ele>
      </trkpt>
      <trkpt lat="40.1473" lon="15.57735">
        <ele>355.08</ele>
      </trkpt>
      <trkpt lat="40.14739" lon="15.57747">
        <ele>352.64</ele>
      </trkpt>
      <trkpt lat="40.14758" lon="15.57764">
        <ele>350.14</ele>
      </trkpt>
      <trkpt lat="40.14766" lon="15.57776">
        <ele>349.56</ele>
      </trkpt>
      <trkpt lat="40.1477" lon="15.57782">
        <ele>349.62</ele>
      </trkpt>
      <trkpt lat="40.14772" lon="15.578">
        <ele>348.73</ele>
      </trkpt>
      <trkpt lat="40.14775" lon="15.5781">
        <ele>348.81</ele>
      </trkpt>
      <trkpt lat="40.14787" lon="15.5784">
        <ele>353.92</ele>
      </trkpt>
      <trkpt lat="40.1479" lon="15.57854">
        <ele>354.08</ele>
      </trkpt>
      <trkpt lat="40.14795" lon="15.57885">
        <ele>350.66</ele>
      </trkpt>
      <trkpt lat="40.14796" lon="15.57887">
        <ele>350.59</ele>
      </trkpt>
      <trkpt lat="40.14802" lon="15.57892">
        <ele>350.45</ele>
      </trkpt>
      <trkpt lat="40.14808" lon="15.579">
        <ele>348.53</ele>
      </trkpt>
      <trkpt lat="40.1481" lon="15.5791">
        <ele>344.52</ele>
      </trkpt>
      <trkpt lat="40.14809" lon="15.57917">
        <ele>340.62</ele>
      </trkpt>
      <trkpt lat="40.14811" lon="15.57923">
        <ele>339.51</ele>
      </trkpt>
      <trkpt lat="40.14814" lon="15.57928">
        <ele>339.09</ele>
      </trkpt>
      <trkpt lat="40.14832" lon="15.57945">
        <ele>339.4</ele>
      </trkpt>
      <trkpt lat="40.1485" lon="15.57969">
        <ele>341.25</ele>
      </trkpt>
      <trkpt lat="40.14872" lon="15.58008">
        <ele>347.29</ele>
      </trkpt>
      <trkpt lat="40.14873" lon="15.58016">
        <ele>348.16</ele>
      </trkpt>
      <trkpt lat="40.14873" lon="15.58016">
        <ele>348.16</ele>
      </trkpt>
      <trkpt lat="40.14873" lon="15.58016">
        <ele>348.16</ele>
      </trkpt>
      <trkpt lat="40.14871" lon="15.58024">
        <ele>347.7</ele>
      </trkpt>
      <trkpt lat="40.14867" lon="15.58029">
        <ele>346.61</ele>
      </trkpt>
      <trkpt lat="40.14832" lon="15.5804">
        <ele>334.26</ele>
      </trkpt>
      <trkpt lat="40.14811" lon="15.5805">
        <ele>327.03</ele>
      </trkpt>
      <trkpt lat="40.14795" lon="15.58063">
        <ele>323.79</ele>
      </trkpt>
      <trkpt lat="40.1478" lon="15.58068">
        <ele>321.27</ele>
      </trkpt>
      <trkpt lat="40.14767" lon="15.58076">
        <ele>321.07</ele>
      </trkpt>
      <trkpt lat="40.14757" lon="15.58091">
        <ele>322.61</ele>
      </trkpt>
      <trkpt lat="40.14754" lon="15.581">
        <ele>323.43</ele>
      </trkpt>
      <trkpt lat="40.14751" lon="15.58129">
        <ele>325.55</ele>
      </trkpt>
      <trkpt lat="40.14746" lon="15.58148">
        <ele>325.62</ele>
      </trkpt>
      <trkpt lat="40.14737" lon="15.58172">
        <ele>325.86</ele>
      </trkpt>
      <trkpt lat="40.14731" lon="15.58183">
        <ele>326.07</ele>
      </trkpt>
      <trkpt lat="40.14722" lon="15.58207">
        <ele>328.45</ele>
      </trkpt>
      <trkpt lat="40.14705" lon="15.58236">
        <ele>324.82</ele>
      </trkpt>
      <trkpt lat="40.14701" lon="15.58252">
        <ele>325.35</ele>
      </trkpt>
      <trkpt lat="40.14698" lon="15.58292">
        <ele>325.32</ele>
      </trkpt>
      <trkpt lat="40.14699" lon="15.58302">
        <ele>326.45</ele>
      </trkpt>
      <trkpt lat="40.14697" lon="15.5833">
        <ele>325.79</ele>
      </trkpt>
      <trkpt lat="40.14693" lon="15.58346">
        <ele>321.39</ele>
      </trkpt>
      <trkpt lat="40.14685" lon="15.58361">
        <ele>314.59</ele>
      </trkpt>
      <trkpt lat="40.14682" lon="15.58367">
        <ele>312.75</ele>
      </trkpt>
      <trkpt lat="40.14683" lon="15.58374">
        <ele>312.72</ele>
      </trkpt>
      <trkpt lat="40.14685" lon="15.58379">
        <ele>313.29</ele>
      </trkpt>
      <trkpt lat="40.14694" lon="15.58384">
        <ele>317.14</ele>
      </trkpt>
      <trkpt lat="40.14712" lon="15.58398">
        <ele>315.03</ele>
      </trkpt>
      <trkpt lat="40.14732" lon="15.58422">
        <ele>312.55</ele>
      </trkpt>
      <trkpt lat="40.14748" lon="15.58435">
        <ele>314.21</ele>
      </trkpt>
      <trkpt lat="40.14761" lon="15.58442">
        <ele>312.42</ele>
      </trkpt>
      <trkpt lat="40.14773" lon="15.58447">
        <ele>309.2</ele>
      </trkpt>
      <trkpt lat="40.14777" lon="15.58445">
        <ele>308.21</ele>
      </trkpt>
      <trkpt lat="40.14781" lon="15.5844">
        <ele>309.43</ele>
      </trkpt>
      <trkpt lat="40.14797" lon="15.58398">
        <ele>319.1</ele>
      </trkpt>
      <trkpt lat="40.14802" lon="15.58388">
        <ele>319.68</ele>
      </trkpt>
      <trkpt lat="40.14817" lon="15.58365">
        <ele>325.37</ele>
      </trkpt>
      <trkpt lat="40.14822" lon="15.58361">
        <ele>327.42</ele>
      </trkpt>
      <trkpt lat="40.14866" lon="15.58354">
        <ele>347.12</ele>
      </trkpt>
      <trkpt lat="40.14879" lon="15.58354">
        <ele>351.2</ele>
      </trkpt>
      <trkpt lat="40.14885" lon="15.58359">
        <ele>351.34</ele>
      </trkpt>
      <trkpt lat="40.14896" lon="15.58371">
        <ele>352.4</ele>
      </trkpt>
      <trkpt lat="40.14898" lon="15.58376">
        <ele>351.97</ele>
      </trkpt>
      <trkpt lat="40.14897" lon="15.58381">
        <ele>349.98</ele>
      </trkpt>
      <trkpt lat="40.14891" lon="15.58391">
        <ele>343.94</ele>
      </trkpt>
      <trkpt lat="40.14887" lon="15.58393">
        <ele>341.7</ele>
      </trkpt>
      <trkpt lat="40.14885" lon="15.58393">
        <ele>340.95</ele>
      </trkpt>
      <trkpt lat="40.14885" lon="15.58393">
        <ele>340.95</ele>
      </trkpt>
      <trkpt lat="40.14885" lon="15.58393">
        <ele>340.95</ele>
      </trkpt>
      <trkpt lat="40.14881" lon="15.58395">
        <ele>339.09</ele>
      </trkpt>
      <trkpt lat="40.14877" lon="15.58398">
        <ele>336.99</ele>
      </trkpt>
      <trkpt lat="40.14872" lon="15.5841">
        <ele>332.49</ele>
      </trkpt>
      <trkpt lat="40.14868" lon="15.58423">
        <ele>328.88</ele>
      </trkpt>
      <trkpt lat="40.14869" lon="15.58431">
        <ele>328.88</ele>
      </trkpt>
      <trkpt lat="40.14879" lon="15.58484">
        <ele>334.01</ele>
      </trkpt>
      <trkpt lat="40.1488" lon="15.58497">
        <ele>334.98</ele>
      </trkpt>
      <trkpt lat="40.14879" lon="15.58507">
        <ele>335.39</ele>
      </trkpt>
      <trkpt lat="40.14869" lon="15.58541">
        <ele>335.64</ele>
      </trkpt>
      <trkpt lat="40.14856" lon="15.58591">
        <ele>334.97</ele>
      </trkpt>
      <trkpt lat="40.14851" lon="15.58605">
        <ele>339.06</ele>
      </trkpt>
      <trkpt lat="40.14848" lon="15.5861">
        <ele>340.26</ele>
      </trkpt>
      <trkpt lat="40.14822" lon="15.58631">
        <ele>337.64</ele>
      </trkpt>
      <trkpt lat="40.14815" lon="15.58635">
        <ele>336.1</ele>
      </trkpt>
      <trkpt lat="40.14803" lon="15.58643">
        <ele>332.23</ele>
      </trkpt>
      <trkpt lat="40.148" lon="15.58649">
        <ele>330.36</ele>
      </trkpt>
      <trkpt lat="40.14785" lon="15.58693">
        <ele>325.33</ele>
      </trkpt>
      <trkpt lat="40.14778" lon="15.58732">
        <ele>326.35</ele>
      </trkpt>
      <trkpt lat="40.14778" lon="15.58739">
        <ele>328.61</ele>
      </trkpt>
      <trkpt lat="40.14779" lon="15.58752">
        <ele>332.99</ele>
      </trkpt>
      <trkpt lat="40.14778" lon="15.58761">
        <ele>332.95</ele>
      </trkpt>
      <trkpt lat="40.14773" lon="15.58794">
        <ele>334.91</ele>
      </trkpt>
      <trkpt lat="40.14768" lon="15.58823">
        <ele>334.71</ele>
      </trkpt>
      <trkpt lat="40.14758" lon="15.58847">
        <ele>329.88</ele>
      </trkpt>
      <trkpt lat="40.14757" lon="15.58856">
        <ele>329.64</ele>
      </trkpt>
      <trkpt lat="40.14757" lon="15.58868">
        <ele>330.46</ele>
      </trkpt>
      <trkpt lat="40.14758" lon="15.5888">
        <ele>332.12</ele>
      </trkpt>
      <trkpt lat="40.14758" lon="15.58884">
        <ele>332.53</ele>
      </trkpt>
      <trkpt lat="40.14756" lon="15.58887">
        <ele>331.84</ele>
      </trkpt>
      <trkpt lat="40.14744" lon="15.58903">
        <ele>329.44</ele>
      </trkpt>
      <trkpt lat="40.14711" lon="15.58901">
        <ele>326.01</ele>
      </trkpt>
      <trkpt lat="40.14708" lon="15.58902">
        <ele>326.38</ele>
      </trkpt>
      <trkpt lat="40.14708" lon="15.58905">
        <ele>326.93</ele>
      </trkpt>
      <trkpt lat="40.14709" lon="15.58907">
        <ele>327.2</ele>
      </trkpt>
      <trkpt lat="40.14741" lon="15.58927">
        <ele>333.21</ele>
      </trkpt>
      <trkpt lat="40.14751" lon="15.5894">
        <ele>337.33</ele>
      </trkpt>
      <trkpt lat="40.14758" lon="15.58946">
        <ele>340.71</ele>
      </trkpt>
      <trkpt lat="40.14758" lon="15.5895">
        <ele>342.48</ele>
      </trkpt>
      <trkpt lat="40.14757" lon="15.58953">
        <ele>343.39</ele>
      </trkpt>
      <trkpt lat="40.14754" lon="15.58953">
        <ele>342.14</ele>
      </trkpt>
      <trkpt lat="40.14746" lon="15.58944">
        <ele>337.89</ele>
      </trkpt>
      <trkpt lat="40.1474" lon="15.58938">
        <ele>336.19</ele>
      </trkpt>
      <trkpt lat="40.14688" lon="15.58924">
        <ele>335.47</ele>
      </trkpt>
      <trkpt lat="40.14673" lon="15.58919">
        <ele>340.74</ele>
      </trkpt>
      <trkpt lat="40.14662" lon="15.58909">
        <ele>343.68</ele>
      </trkpt>
      <trkpt lat="40.14639" lon="15.5889">
        <ele>357.38</ele>
      </trkpt>
      <trkpt lat="40.14612" lon="15.58855">
        <ele>355.2</ele>
      </trkpt>
      <trkpt lat="40.14609" lon="15.58854">
        <ele>355.54</ele>
      </trkpt>
      <trkpt lat="40.14607" lon="15.58859">
        <ele>358.81</ele>
      </trkpt>
      <trkpt lat="40.14609" lon="15.58865">
        <ele>361.61</ele>
      </trkpt>
      <trkpt lat="40.14621" lon="15.58884">
        <ele>365.37</ele>
      </trkpt>
      <trkpt lat="40.14626" lon="15.58893">
        <ele>366.6</ele>
      </trkpt>
      <trkpt lat="40.14635" lon="15.58916">
        <ele>370.96</ele>
      </trkpt>
      <trkpt lat="40.14648" lon="15.58935">
        <ele>372.91</ele>
      </trkpt>
      <trkpt lat="40.1466" lon="15.5895">
        <ele>371.04</ele>
      </trkpt>
      <trkpt lat="40.14684" lon="15.58972">
        <ele>371.3</ele>
      </trkpt>
      <trkpt lat="40.1472" lon="15.5899">
        <ele>366.61</ele>
      </trkpt>
      <trkpt lat="40.14726" lon="15.58995">
        <ele>369.74</ele>
      </trkpt>
      <trkpt lat="40.14738" lon="15.59012">
        <ele>379.31</ele>
      </trkpt>
      <trkpt lat="40.14747" lon="15.59029">
        <ele>385.48</ele>
      </trkpt>
      <trkpt lat="40.14756" lon="15.59052">
        <ele>388.48</ele>
      </trkpt>
      <trkpt lat="40.14768" lon="15.59098">
        <ele>397.01</ele>
      </trkpt>
      <trkpt lat="40.1477" lon="15.59119">
        <ele>400.56</ele>
      </trkpt>
      <trkpt lat="40.1477" lon="15.59149">
        <ele>407.25</ele>
      </trkpt>
      <trkpt lat="40.14768" lon="15.59162">
        <ele>408.74</ele>
      </trkpt>
      <trkpt lat="40.14763" lon="15.59181">
        <ele>411.03</ele>
      </trkpt>
      <trkpt lat="40.14762" lon="15.592">
        <ele>414.23</ele>
      </trkpt>
      <trkpt lat="40.14767" lon="15.59251">
        <ele>424.5</ele>
      </trkpt>
      <trkpt lat="40.14773" lon="15.59286">
        <ele>426.15</ele>
      </trkpt>
      <trkpt lat="40.14774" lon="15.59337">
        <ele>428.1</ele>
      </trkpt>
      <trkpt lat="40.14773" lon="15.59363">
        <ele>426.39</ele>
      </trkpt>
      <trkpt lat="40.14783" lon="15.5946">
        <ele>426.58</ele>
      </trkpt>
      <trkpt lat="40.14795" lon="15.59523">
        <ele>430.49</ele>
      </trkpt>
      <trkpt lat="40.14803" lon="15.59538">
        <ele>432.37</ele>
      </trkpt>
      <trkpt lat="40.1485" lon="15.59574">
        <ele>440.84</ele>
      </trkpt>
      <trkpt lat="40.14865" lon="15.59592">
        <ele>444.59</ele>
      </trkpt>
      <trkpt lat="40.14908" lon="15.59669">
        <ele>447.82</ele>
      </trkpt>
      <trkpt lat="40.14926" lon="15.59713">
        <ele>447.76</ele>
      </trkpt>
      <trkpt lat="40.1493" lon="15.59744">
        <ele>447.87</ele>
      </trkpt>
      <trkpt lat="40.14929" lon="15.59802">
        <ele>456.8</ele>
      </trkpt>
      <trkpt lat="40.14937" lon="15.59859">
        <ele>461.35</ele>
      </trkpt>
      <trkpt lat="40.14937" lon="15.59874">
        <ele>462.34</ele>
      </trkpt>
      <trkpt lat="40.1494" lon="15.59889">
        <ele>463.16</ele>
      </trkpt>
      <trkpt lat="40.14946" lon="15.59898">
        <ele>463.07</ele>
      </trkpt>
      <trkpt lat="40.14956" lon="15.59929">
        <ele>465.74</ele>
      </trkpt>
      <trkpt lat="40.14961" lon="15.59952">
        <ele>468.58</ele>
      </trkpt>
      <trkpt lat="40.14961" lon="15.59959">
        <ele>469.13</ele>
      </trkpt>
      <trkpt lat="40.14961" lon="15.59965">
        <ele>469.6</ele>
      </trkpt>
      <trkpt lat="40.14961" lon="15.59974">
        <ele>470.39</ele>
      </trkpt>
      <trkpt lat="40.14969" lon="15.60005">
        <ele>477.48</ele>
      </trkpt>
      <trkpt lat="40.14972" lon="15.60011">
        <ele>479.87</ele>
      </trkpt>
      <trkpt lat="40.14977" lon="15.60014">
        <ele>481.21</ele>
      </trkpt>
      <trkpt lat="40.14994" lon="15.6001">
        <ele>483.16</ele>
      </trkpt>
      <trkpt lat="40.15001" lon="15.60012">
        <ele>484.45</ele>
      </trkpt>
      <trkpt lat="40.15006" lon="15.60022">
        <ele>486.54</ele>
      </trkpt>
      <trkpt lat="40.1502" lon="15.60087">
        <ele>500.72</ele>
      </trkpt>
      <trkpt lat="40.15028" lon="15.60114">
        <ele>505.34</ele>
      </trkpt>
      <trkpt lat="40.15043" lon="15.60147">
        <ele>510.1</ele>
      </trkpt>
      <trkpt lat="40.15055" lon="15.60165">
        <ele>512.8</ele>
      </trkpt>
      <trkpt lat="40.15057" lon="15.6017">
        <ele>513.29</ele>
      </trkpt>
      <trkpt lat="40.15059" lon="15.60178">
        <ele>513.93</ele>
      </trkpt>
      <trkpt lat="40.15064" lon="15.60184">
        <ele>515.11</ele>
      </trkpt>
      <trkpt lat="40.1507" lon="15.60189">
        <ele>516.62</ele>
      </trkpt>
      <trkpt lat="40.1507" lon="15.60189">
        <ele>516.62</ele>
      </trkpt>
      <trkpt lat="40.1507" lon="15.60189">
        <ele>516.62</ele>
      </trkpt>
      <trkpt lat="40.15077" lon="15.60194">
        <ele>518.58</ele>
      </trkpt>
      <trkpt lat="40.15115" lon="15.60235">
        <ele>527.51</ele>
      </trkpt>
      <trkpt lat="40.15134" lon="15.60265">
        <ele>533.16</ele>
      </trkpt>
      <trkpt lat="40.1514" lon="15.60271">
        <ele>534.76</ele>
      </trkpt>
      <trkpt lat="40.15148" lon="15.60273">
        <ele>535.03</ele>
      </trkpt>
      <trkpt lat="40.15171" lon="15.60279">
        <ele>535.75</ele>
      </trkpt>
      <trkpt lat="40.15175" lon="15.60284">
        <ele>536.22</ele>
      </trkpt>
      <trkpt lat="40.15176" lon="15.60288">
        <ele>536.83</ele>
      </trkpt>
      <trkpt lat="40.15157" lon="15.60286">
        <ele>537.27</ele>
      </trkpt>
      <trkpt lat="40.1514" lon="15.60292">
        <ele>537.58</ele>
      </trkpt>
      <trkpt lat="40.15126" lon="15.60314">
        <ele>536.99</ele>
      </trkpt>
      <trkpt lat="40.15045" lon="15.60488">
        <ele>536.99</ele>
      </trkpt>
      <trkpt lat="40.15034" lon="15.60501">
        <ele>536.52</ele>
      </trkpt>
      <trkpt lat="40.15019" lon="15.60514">
        <ele>536.73</ele>
      </trkpt>
      <trkpt lat="40.14998" lon="15.60525">
        <ele>536.46</ele>
      </trkpt>
      <trkpt lat="40.14991" lon="15.60535">
        <ele>536.88</ele>
      </trkpt>
      <trkpt lat="40.14989" lon="15.60543">
        <ele>537.2</ele>
      </trkpt>
      <trkpt lat="40.14995" lon="15.6059">
        <ele>538.26</ele>
      </trkpt>
      <trkpt lat="40.14996" lon="15.60596">
        <ele>538.08</ele>
      </trkpt>
      <trkpt lat="40.14996" lon="15.60602">
        <ele>537.65</ele>
      </trkpt>
      <trkpt lat="40.14997" lon="15.60609">
        <ele>537.4</ele>
      </trkpt>
      <trkpt lat="40.14996" lon="15.60614">
        <ele>536.89</ele>
      </trkpt>
      <trkpt lat="40.14995" lon="15.60619">
        <ele>536.46</ele>
      </trkpt>
      <trkpt lat="40.14994" lon="15.60624">
        <ele>536.02</ele>
      </trkpt>
      <trkpt lat="40.14992" lon="15.60627">
        <ele>535.41</ele>
      </trkpt>
      <trkpt lat="40.14989" lon="15.6063">
        <ele>534.55</ele>
      </trkpt>
      <trkpt lat="40.14986" lon="15.60631">
        <ele>533.76</ele>
      </trkpt>
      <trkpt lat="40.14984" lon="15.60631">
        <ele>533.25</ele>
      </trkpt>
      <trkpt lat="40.14979" lon="15.60632">
        <ele>531.96</ele>
      </trkpt>
      <trkpt lat="40.14974" lon="15.60632">
        <ele>530.7</ele>
      </trkpt>
      <trkpt lat="40.14968" lon="15.60631">
        <ele>528.59</ele>
      </trkpt>
      <trkpt lat="40.1496" lon="15.60629">
        <ele>525.33</ele>
      </trkpt>
      <trkpt lat="40.14954" lon="15.60628">
        <ele>522.8</ele>
      </trkpt>
      <trkpt lat="40.14947" lon="15.60627">
        <ele>519.79</ele>
      </trkpt>
      <trkpt lat="40.14943" lon="15.60627">
        <ele>517.98</ele>
      </trkpt>
      <trkpt lat="40.14936" lon="15.60631">
        <ele>514.76</ele>
      </trkpt>
      <trkpt lat="40.14931" lon="15.60639">
        <ele>512.77</ele>
      </trkpt>
      <trkpt lat="40.1493" lon="15.60666">
        <ele>520.2</ele>
      </trkpt>
      <trkpt lat="40.14936" lon="15.60697">
        <ele>529.42</ele>
      </trkpt>
      <trkpt lat="40.14946" lon="15.60714">
        <ele>532.5</ele>
      </trkpt>
      <trkpt lat="40.14972" lon="15.60725">
        <ele>533.5</ele>
      </trkpt>
      <trkpt lat="40.14987" lon="15.60736">
        <ele>533.65</ele>
      </trkpt>
      <trkpt lat="40.15005" lon="15.60758">
        <ele>531.87</ele>
      </trkpt>
      <trkpt lat="40.15014" lon="15.60775">
        <ele>531.99</ele>
      </trkpt>
      <trkpt lat="40.15014" lon="15.60792">
        <ele>529.49</ele>
      </trkpt>
      <trkpt lat="40.15005" lon="15.60824">
        <ele>523.15</ele>
      </trkpt>
      <trkpt lat="40.15001" lon="15.6084">
        <ele>521.2</ele>
      </trkpt>
      <trkpt lat="40.15002" lon="15.60859">
        <ele>521.3</ele>
      </trkpt>
      <trkpt lat="40.15008" lon="15.60888">
        <ele>520.91</ele>
      </trkpt>
      <trkpt lat="40.15017" lon="15.60908">
        <ele>519.77</ele>
      </trkpt>
      <trkpt lat="40.15027" lon="15.6092">
        <ele>519.32</ele>
      </trkpt>
      <trkpt lat="40.15048" lon="15.60925">
        <ele>521.12</ele>
      </trkpt>
      <trkpt lat="40.15062" lon="15.60924">
        <ele>522.61</ele>
      </trkpt>
      <trkpt lat="40.15083" lon="15.60917">
        <ele>524.93</ele>
      </trkpt>
      <trkpt lat="40.15131" lon="15.60892">
        <ele>530.01</ele>
      </trkpt>
      <trkpt lat="40.15168" lon="15.60903">
        <ele>513.64</ele>
      </trkpt>
      <trkpt lat="40.15179" lon="15.60903">
        <ele>511.88</ele>
      </trkpt>
      <trkpt lat="40.15204" lon="15.60893">
        <ele>515.36</ele>
      </trkpt>
      <trkpt lat="40.15222" lon="15.60895">
        <ele>517.21</ele>
      </trkpt>
      <trkpt lat="40.15237" lon="15.6091">
        <ele>517.45</ele>
      </trkpt>
      <trkpt lat="40.15243" lon="15.60926">
        <ele>515.89</ele>
      </trkpt>
      <trkpt lat="40.15246" lon="15.60942">
        <ele>513.49</ele>
      </trkpt>
      <trkpt lat="40.15247" lon="15.60979">
        <ele>508.51</ele>
      </trkpt>
      <trkpt lat="40.15249" lon="15.61005">
        <ele>507.27</ele>
      </trkpt>
      <trkpt lat="40.15257" lon="15.61037">
        <ele>507.52</ele>
      </trkpt>
      <trkpt lat="40.15268" lon="15.61064">
        <ele>508.49</ele>
      </trkpt>
      <trkpt lat="40.15271" lon="15.61076">
        <ele>508.2</ele>
      </trkpt>
      <trkpt lat="40.15272" lon="15.61096">
        <ele>508.19</ele>
      </trkpt>
      <trkpt lat="40.15275" lon="15.61242">
        <ele>498.55</ele>
      </trkpt>
      <trkpt lat="40.15274" lon="15.61258">
        <ele>497.39</ele>
      </trkpt>
      <trkpt lat="40.15269" lon="15.61284">
        <ele>495.22</ele>
      </trkpt>
      <trkpt lat="40.15264" lon="15.61288">
        <ele>493.9</ele>
      </trkpt>
      <trkpt lat="40.15259" lon="15.61298">
        <ele>493.16</ele>
      </trkpt>
      <trkpt lat="40.15234" lon="15.61403">
        <ele>482.94</ele>
      </trkpt>
      <trkpt lat="40.15232" lon="15.61418">
        <ele>480.3</ele>
      </trkpt>
      <trkpt lat="40.15245" lon="15.6152">
        <ele>471.45</ele>
      </trkpt>
      <trkpt lat="40.1525" lon="15.61547">
        <ele>470.92</ele>
      </trkpt>
      <trkpt lat="40.15251" lon="15.61561">
        <ele>469.58</ele>
      </trkpt>
      <trkpt lat="40.1525" lon="15.61576">
        <ele>467.06</ele>
      </trkpt>
      <trkpt lat="40.15244" lon="15.61589">
        <ele>463.44</ele>
      </trkpt>
      <trkpt lat="40.15231" lon="15.61594">
        <ele>459.33</ele>
      </trkpt>
      <trkpt lat="40.15221" lon="15.61593">
        <ele>457.2</ele>
      </trkpt>
      <trkpt lat="40.15132" lon="15.6153">
        <ele>449.78</ele>
      </trkpt>
      <trkpt lat="40.15118" lon="15.61526">
        <ele>446.05</ele>
      </trkpt>
      <trkpt lat="40.15106" lon="15.61525">
        <ele>442.47</ele>
      </trkpt>
      <trkpt lat="40.15093" lon="15.61532">
        <ele>438.13</ele>
      </trkpt>
      <trkpt lat="40.15039" lon="15.6158">
        <ele>419.37</ele>
      </trkpt>
      <trkpt lat="40.15028" lon="15.61587">
        <ele>415.35</ele>
      </trkpt>
      <trkpt lat="40.15001" lon="15.61601">
        <ele>407.95</ele>
      </trkpt>
      <trkpt lat="40.14995" lon="15.61608">
        <ele>406.63</ele>
      </trkpt>
      <trkpt lat="40.14989" lon="15.61624">
        <ele>406.35</ele>
      </trkpt>
      <trkpt lat="40.14988" lon="15.61652">
        <ele>407.66</ele>
      </trkpt>
      <trkpt lat="40.14991" lon="15.61672">
        <ele>408.06</ele>
      </trkpt>
      <trkpt lat="40.14995" lon="15.61684">
        <ele>406.86</ele>
      </trkpt>
      <trkpt lat="40.15004" lon="15.61698">
        <ele>406.02</ele>
      </trkpt>
      <trkpt lat="40.15018" lon="15.61708">
        <ele>405.85</ele>
      </trkpt>
      <trkpt lat="40.15028" lon="15.61716">
        <ele>404.84</ele>
      </trkpt>
      <trkpt lat="40.15034" lon="15.61726">
        <ele>404.13</ele>
      </trkpt>
      <trkpt lat="40.15038" lon="15.61742">
        <ele>403.18</ele>
      </trkpt>
      <trkpt lat="40.15038" lon="15.61754">
        <ele>402.16</ele>
      </trkpt>
      <trkpt lat="40.1503" lon="15.61798">
        <ele>400.34</ele>
      </trkpt>
      <trkpt lat="40.15032" lon="15.61824">
        <ele>401.73</ele>
      </trkpt>
      <trkpt lat="40.15034" lon="15.61863">
        <ele>402.93</ele>
      </trkpt>
      <trkpt lat="40.15038" lon="15.61923">
        <ele>400.26</ele>
      </trkpt>
      <trkpt lat="40.1504" lon="15.61957">
        <ele>398.44</ele>
      </trkpt>
      <trkpt lat="40.15042" lon="15.61993">
        <ele>397.68</ele>
      </trkpt>
      <trkpt lat="40.15043" lon="15.62002">
        <ele>397.55</ele>
      </trkpt>
      <trkpt lat="40.15043" lon="15.62011">
        <ele>396.69</ele>
      </trkpt>
      <trkpt lat="40.15043" lon="15.62011">
        <ele>396.69</ele>
      </trkpt>
      <trkpt lat="40.15043" lon="15.62011">
        <ele>396.69</ele>
      </trkpt>
      <trkpt lat="40.15044" lon="15.62015">
        <ele>396.43</ele>
      </trkpt>
      <trkpt lat="40.15046" lon="15.62028">
        <ele>395.29</ele>
      </trkpt>
      <trkpt lat="40.15049" lon="15.62036">
        <ele>394.55</ele>
      </trkpt>
      <trkpt lat="40.15053" lon="15.6204">
        <ele>394.18</ele>
      </trkpt>
      <trkpt lat="40.15084" lon="15.6205">
        <ele>391.6</ele>
      </trkpt>
      <trkpt lat="40.1511" lon="15.62057">
        <ele>390.84</ele>
      </trkpt>
      <trkpt lat="40.15121" lon="15.62063">
        <ele>392.52</ele>
      </trkpt>
      <trkpt lat="40.15164" lon="15.62123">
        <ele>398.66</ele>
      </trkpt>
      <trkpt lat="40.15169" lon="15.62143">
        <ele>397.61</ele>
      </trkpt>
      <trkpt lat="40.15177" lon="15.62244">
        <ele>394.9</ele>
      </trkpt>
      <trkpt lat="40.15183" lon="15.62262">
        <ele>395.51</ele>
      </trkpt>
      <trkpt lat="40.152" lon="15.62295">
        <ele>398.26</ele>
      </trkpt>
      <trkpt lat="40.15207" lon="15.6232">
        <ele>397.74</ele>
      </trkpt>
      <trkpt lat="40.15205" lon="15.62363">
        <ele>392.07</ele>
      </trkpt>
      <trkpt lat="40.15208" lon="15.62376">
        <ele>392.95</ele>
      </trkpt>
      <trkpt lat="40.15237" lon="15.62449">
        <ele>395.11</ele>
      </trkpt>
      <trkpt lat="40.15279" lon="15.62521">
        <ele>396.88</ele>
      </trkpt>
      <trkpt lat="40.15339" lon="15.6258">
        <ele>386.89</ele>
      </trkpt>
      <trkpt lat="40.15378" lon="15.62603">
        <ele>388.2</ele>
      </trkpt>
      <trkpt lat="40.15405" lon="15.62604">
        <ele>390.5</ele>
      </trkpt>
      <trkpt lat="40.15452" lon="15.62589">
        <ele>393.61</ele>
      </trkpt>
      <trkpt lat="40.15466" lon="15.6259">
        <ele>392.24</ele>
      </trkpt>
      <trkpt lat="40.1548" lon="15.62596">
        <ele>389.72</ele>
      </trkpt>
      <trkpt lat="40.15506" lon="15.62621">
        <ele>384.17</ele>
      </trkpt>
      <trkpt lat="40.15554" lon="15.62678">
        <ele>374.56</ele>
      </trkpt>
      <trkpt lat="40.15558" lon="15.62684">
        <ele>373.34</ele>
      </trkpt>
      <trkpt lat="40.15559" lon="15.62685">
        <ele>373.2</ele>
      </trkpt>
      <trkpt lat="40.1558" lon="15.62711">
        <ele>374.69</ele>
      </trkpt>
      <trkpt lat="40.15584" lon="15.62715">
        <ele>375.94</ele>
      </trkpt>
    </trkseg>
  </trk>
</gpx>
