<?xml version="1.0"?>
<gpx xmlns="http://www.topografix.com/GPX/1/1" xmlns:xsi="http://www.w3.org/2001/XMLSchema-instance" version="1.1" creator="AllTrails.com" xsi:schemaLocation="http://www.topografix.com/GPX/1/1 http://www.topografix.com/GPX/1/1/gpx.xsd">
  <metadata>
    <name><![CDATA[Itinerario 1 - paesaggio culturale dell'acqua]]></name>
    <desc><![CDATA[]]></desc>
    <link href="http://www.alltrails.com">
      <text>AllTrails, LLC</text>
    </link>
    <bounds minlat="40.13406" minlon="15.54394" maxlat="40.14451" maxlon="15.55529"/>
  </metadata>
  <trk>
    <name><![CDATA[Itinerario 1 - paesaggio culturale dell'acqua]]></name>
    <src>AllTrails</src>
    <trkseg>
      <trkpt lat="40.14012" lon="15.55527">
        <ele>282.62</ele>
      </trkpt>
      <trkpt lat="40.14011" lon="15.55529">
        <ele>282.73</ele>
      </trkpt>
      <trkpt lat="40.14011" lon="15.55521">
        <ele>282.13</ele>
      </trkpt>
      <trkpt lat="40.14007" lon="15.55521">
        <ele>282.63</ele>
      </trkpt>
      <trkpt lat="40.14003" lon="15.55518">
        <ele>282.9</ele>
      </trkpt>
      <trkpt lat="40.14004" lon="15.55513">
        <ele>282.35</ele>
      </trkpt>
      <trkpt lat="40.14007" lon="15.55509">
        <ele>281.55</ele>
      </trkpt>
      <trkpt lat="40.14007" lon="15.55509">
        <ele>281.55</ele>
      </trkpt>
      <trkpt lat="40.14005" lon="15.55505">
        <ele>281.52</ele>
      </trkpt>
      <trkpt lat="40.14005" lon="15.55505">
        <ele>281.52</ele>
      </trkpt>
      <trkpt lat="40.14005" lon="15.55505">
        <ele>281.52</ele>
      </trkpt>
      <trkpt lat="40.14021" lon="15.55491">
        <ele>275.56</ele>
      </trkpt>
      <trkpt lat="40.14032" lon="15.5548">
        <ele>272.48</ele>
      </trkpt>
      <trkpt lat="40.14037" lon="15.55473">
        <ele>271.51</ele>
      </trkpt>
      <trkpt lat="40.14037" lon="15.55473">
        <ele>271.51</ele>
      </trkpt>
      <trkpt lat="40.14037" lon="15.55473">
        <ele>271.51</ele>
      </trkpt>
      <trkpt lat="40.14043" lon="15.55466">
        <ele>270.62</ele>
      </trkpt>
      <trkpt lat="40.14051" lon="15.55449">
        <ele>267.49</ele>
      </trkpt>
      <trkpt lat="40.14051" lon="15.55449">
        <ele>267.49</ele>
      </trkpt>
      <trkpt lat="40.14051" lon="15.55449">
        <ele>267.49</ele>
      </trkpt>
      <trkpt lat="40.14055" lon="15.55442">
        <ele>266.48</ele>
      </trkpt>
      <trkpt lat="40.14057" lon="15.55436">
        <ele>265.58</ele>
      </trkpt>
      <trkpt lat="40.14059" lon="15.55425">
        <ele>263.75</ele>
      </trkpt>
      <trkpt lat="40.14062" lon="15.55417">
        <ele>262.52</ele>
      </trkpt>
      <trkpt lat="40.14079" lon="15.5539">
        <ele>259.85</ele>
      </trkpt>
      <trkpt lat="40.14082" lon="15.5538">
        <ele>258.61</ele>
      </trkpt>
      <trkpt lat="40.14084" lon="15.5537">
        <ele>257.34</ele>
      </trkpt>
      <trkpt lat="40.14085" lon="15.55356">
        <ele>255.37</ele>
      </trkpt>
      <trkpt lat="40.14084" lon="15.55344">
        <ele>253.57</ele>
      </trkpt>
      <trkpt lat="40.14081" lon="15.5533">
        <ele>251.33</ele>
      </trkpt>
      <trkpt lat="40.14075" lon="15.55305">
        <ele>246.92</ele>
      </trkpt>
      <trkpt lat="40.14074" lon="15.55302">
        <ele>246.49</ele>
      </trkpt>
      <trkpt lat="40.14075" lon="15.55297">
        <ele>245.8</ele>
      </trkpt>
      <trkpt lat="40.14075" lon="15.55297">
        <ele>245.8</ele>
      </trkpt>
      <trkpt lat="40.14075" lon="15.55297">
        <ele>245.8</ele>
      </trkpt>
      <trkpt lat="40.14079" lon="15.55292">
        <ele>245.31</ele>
      </trkpt>
      <trkpt lat="40.14083" lon="15.55288">
        <ele>245.08</ele>
      </trkpt>
      <trkpt lat="40.14091" lon="15.55285">
        <ele>245.54</ele>
      </trkpt>
      <trkpt lat="40.14099" lon="15.55281">
        <ele>245.97</ele>
      </trkpt>
      <trkpt lat="40.14105" lon="15.55274">
        <ele>245.66</ele>
      </trkpt>
      <trkpt lat="40.14119" lon="15.55258">
        <ele>244.01</ele>
      </trkpt>
      <trkpt lat="40.14141" lon="15.55232">
        <ele>239.44</ele>
      </trkpt>
      <trkpt lat="40.14147" lon="15.55226">
        <ele>237.74</ele>
      </trkpt>
      <trkpt lat="40.14147" lon="15.55226">
        <ele>237.74</ele>
      </trkpt>
      <trkpt lat="40.14147" lon="15.55226">
        <ele>237.74</ele>
      </trkpt>
      <trkpt lat="40.14147" lon="15.55219">
        <ele>235.86</ele>
      </trkpt>
      <trkpt lat="40.1415" lon="15.55215">
        <ele>234.68</ele>
      </trkpt>
      <trkpt lat="40.14159" lon="15.55211">
        <ele>233.16</ele>
      </trkpt>
      <trkpt lat="40.14176" lon="15.55203">
        <ele>229.43</ele>
      </trkpt>
      <trkpt lat="40.14198" lon="15.55204">
        <ele>227.53</ele>
      </trkpt>
      <trkpt lat="40.14221" lon="15.55211">
        <ele>229.4</ele>
      </trkpt>
      <trkpt lat="40.14229" lon="15.55206">
        <ele>226.64</ele>
      </trkpt>
      <trkpt lat="40.14237" lon="15.55194">
        <ele>219.72</ele>
      </trkpt>
      <trkpt lat="40.14245" lon="15.55188">
        <ele>216.15</ele>
      </trkpt>
      <trkpt lat="40.14247" lon="15.55188">
        <ele>215.99</ele>
      </trkpt>
      <trkpt lat="40.14252" lon="15.55191">
        <ele>217.5</ele>
      </trkpt>
      <trkpt lat="40.14256" lon="15.55191">
        <ele>217.97</ele>
      </trkpt>
      <trkpt lat="40.14262" lon="15.55188">
        <ele>217.25</ele>
      </trkpt>
      <trkpt lat="40.14278" lon="15.55175">
        <ele>213.66</ele>
      </trkpt>
      <trkpt lat="40.14285" lon="15.55164">
        <ele>210.71</ele>
      </trkpt>
      <trkpt lat="40.14287" lon="15.55163">
        <ele>210.72</ele>
      </trkpt>
      <trkpt lat="40.1429" lon="15.55163">
        <ele>211.51</ele>
      </trkpt>
      <trkpt lat="40.14292" lon="15.55161">
        <ele>210.92</ele>
      </trkpt>
      <trkpt lat="40.14292" lon="15.55159">
        <ele>209.8</ele>
      </trkpt>
      <trkpt lat="40.14285" lon="15.55153">
        <ele>205.04</ele>
      </trkpt>
      <trkpt lat="40.14285" lon="15.5515">
        <ele>203.5</ele>
      </trkpt>
      <trkpt lat="40.14286" lon="15.55148">
        <ele>202.64</ele>
      </trkpt>
      <trkpt lat="40.14288" lon="15.55147">
        <ele>202.44</ele>
      </trkpt>
      <trkpt lat="40.14296" lon="15.55147">
        <ele>203.72</ele>
      </trkpt>
      <trkpt lat="40.14299" lon="15.55149">
        <ele>205.41</ele>
      </trkpt>
      <trkpt lat="40.14311" lon="15.55151">
        <ele>207.66</ele>
      </trkpt>
      <trkpt lat="40.14326" lon="15.55148">
        <ele>204.65</ele>
      </trkpt>
      <trkpt lat="40.14339" lon="15.55141">
        <ele>199.28</ele>
      </trkpt>
      <trkpt lat="40.14352" lon="15.55132">
        <ele>195.16</ele>
      </trkpt>
      <trkpt lat="40.14356" lon="15.55127">
        <ele>191.83</ele>
      </trkpt>
      <trkpt lat="40.14358" lon="15.55122">
        <ele>187.96</ele>
      </trkpt>
      <trkpt lat="40.14362" lon="15.55105">
        <ele>175.36</ele>
      </trkpt>
      <trkpt lat="40.14365" lon="15.55101">
        <ele>173.17</ele>
      </trkpt>
      <trkpt lat="40.14372" lon="15.55098">
        <ele>171.8</ele>
      </trkpt>
      <trkpt lat="40.144" lon="15.55102">
        <ele>177.84</ele>
      </trkpt>
      <trkpt lat="40.14417" lon="15.55097">
        <ele>176.91</ele>
      </trkpt>
      <trkpt lat="40.14419" lon="15.55094">
        <ele>175.15</ele>
      </trkpt>
      <trkpt lat="40.14421" lon="15.55079">
        <ele>165.26</ele>
      </trkpt>
      <trkpt lat="40.14426" lon="15.5507">
        <ele>160.98</ele>
      </trkpt>
      <trkpt lat="40.14426" lon="15.55062">
        <ele>156.57</ele>
      </trkpt>
      <trkpt lat="40.14426" lon="15.5506">
        <ele>155.46</ele>
      </trkpt>
      <trkpt lat="40.14425" lon="15.55059">
        <ele>154.8</ele>
      </trkpt>
      <trkpt lat="40.1442" lon="15.5506">
        <ele>154.78</ele>
      </trkpt>
      <trkpt lat="40.14411" lon="15.55067">
        <ele>157.76</ele>
      </trkpt>
      <trkpt lat="40.14408" lon="15.55067">
        <ele>157.54</ele>
      </trkpt>
      <trkpt lat="40.14402" lon="15.55062">
        <ele>154.87</ele>
      </trkpt>
      <trkpt lat="40.1439" lon="15.55061">
        <ele>154.0</ele>
      </trkpt>
      <trkpt lat="40.14375" lon="15.55066">
        <ele>155.45</ele>
      </trkpt>
      <trkpt lat="40.14356" lon="15.55077">
        <ele>159.29</ele>
      </trkpt>
      <trkpt lat="40.14337" lon="15.55083">
        <ele>160.17</ele>
      </trkpt>
      <trkpt lat="40.14323" lon="15.55086">
        <ele>161.1</ele>
      </trkpt>
      <trkpt lat="40.14317" lon="15.55082">
        <ele>158.43</ele>
      </trkpt>
      <trkpt lat="40.14315" lon="15.55078">
        <ele>157.08</ele>
      </trkpt>
      <trkpt lat="40.14315" lon="15.55078">
        <ele>157.08</ele>
      </trkpt>
      <trkpt lat="40.14315" lon="15.55078">
        <ele>157.08</ele>
      </trkpt>
      <trkpt lat="40.14307" lon="15.55065">
        <ele>152.23</ele>
      </trkpt>
      <trkpt lat="40.14257" lon="15.5504">
        <ele>142.66</ele>
      </trkpt>
      <trkpt lat="40.14257" lon="15.5504">
        <ele>142.66</ele>
      </trkpt>
      <trkpt lat="40.14257" lon="15.5504">
        <ele>142.66</ele>
      </trkpt>
      <trkpt lat="40.14265" lon="15.55037">
        <ele>144.76</ele>
      </trkpt>
      <trkpt lat="40.14265" lon="15.5503">
        <ele>145.53</ele>
      </trkpt>
      <trkpt lat="40.14272" lon="15.55025">
        <ele>148.29</ele>
      </trkpt>
      <trkpt lat="40.1434" lon="15.55014">
        <ele>155.03</ele>
      </trkpt>
      <trkpt lat="40.1434" lon="15.55014">
        <ele>155.03</ele>
      </trkpt>
      <trkpt lat="40.1434" lon="15.55014">
        <ele>155.03</ele>
      </trkpt>
      <trkpt lat="40.14341" lon="15.55025">
        <ele>151.69</ele>
      </trkpt>
      <trkpt lat="40.14341" lon="15.55025">
        <ele>151.69</ele>
      </trkpt>
      <trkpt lat="40.14341" lon="15.55025">
        <ele>151.69</ele>
      </trkpt>
      <trkpt lat="40.14355" lon="15.55028">
        <ele>148.9</ele>
      </trkpt>
      <trkpt lat="40.14355" lon="15.55028">
        <ele>148.9</ele>
      </trkpt>
      <trkpt lat="40.14355" lon="15.55028">
        <ele>148.9</ele>
      </trkpt>
      <trkpt lat="40.14373" lon="15.55036">
        <ele>149.01</ele>
      </trkpt>
      <trkpt lat="40.14394" lon="15.55038">
        <ele>149.94</ele>
      </trkpt>
      <trkpt lat="40.14394" lon="15.55038">
        <ele>149.94</ele>
      </trkpt>
      <trkpt lat="40.14394" lon="15.55038">
        <ele>149.94</ele>
      </trkpt>
      <trkpt lat="40.14411" lon="15.55025">
        <ele>151.55</ele>
      </trkpt>
      <trkpt lat="40.14413" lon="15.55015">
        <ele>153.03</ele>
      </trkpt>
      <trkpt lat="40.1442" lon="15.55008">
        <ele>154.34</ele>
      </trkpt>
      <trkpt lat="40.1442" lon="15.55008">
        <ele>154.34</ele>
      </trkpt>
      <trkpt lat="40.1442" lon="15.55008">
        <ele>154.34</ele>
      </trkpt>
      <trkpt lat="40.14422" lon="15.54992">
        <ele>159.01</ele>
      </trkpt>
      <trkpt lat="40.14416" lon="15.54985">
        <ele>161.49</ele>
      </trkpt>
      <trkpt lat="40.14425" lon="15.54985">
        <ele>162.57</ele>
      </trkpt>
      <trkpt lat="40.14424" lon="15.54972">
        <ele>168.46</ele>
      </trkpt>
      <trkpt lat="40.14431" lon="15.54971">
        <ele>170.26</ele>
      </trkpt>
      <trkpt lat="40.14448" lon="15.54977">
        <ele>169.87</ele>
      </trkpt>
      <trkpt lat="40.14448" lon="15.54967">
        <ele>174.62</ele>
      </trkpt>
      <trkpt lat="40.14451" lon="15.54965">
        <ele>175.77</ele>
      </trkpt>
      <trkpt lat="40.1445" lon="15.54958">
        <ele>178.64</ele>
      </trkpt>
      <trkpt lat="40.14443" lon="15.54952">
        <ele>180.74</ele>
      </trkpt>
      <trkpt lat="40.14425" lon="15.5494">
        <ele>187.5</ele>
      </trkpt>
      <trkpt lat="40.14418" lon="15.54939">
        <ele>188.62</ele>
      </trkpt>
      <trkpt lat="40.14407" lon="15.54941">
        <ele>188.95</ele>
      </trkpt>
      <trkpt lat="40.14407" lon="15.54941">
        <ele>188.95</ele>
      </trkpt>
      <trkpt lat="40.14407" lon="15.54941">
        <ele>188.95</ele>
      </trkpt>
      <trkpt lat="40.14393" lon="15.54943">
        <ele>189.46</ele>
      </trkpt>
      <trkpt lat="40.14328" lon="15.54939">
        <ele>186.3</ele>
      </trkpt>
      <trkpt lat="40.14317" lon="15.54938">
        <ele>183.92</ele>
      </trkpt>
      <trkpt lat="40.14313" lon="15.54935">
        <ele>183.58</ele>
      </trkpt>
      <trkpt lat="40.14303" lon="15.54921">
        <ele>183.81</ele>
      </trkpt>
      <trkpt lat="40.14279" lon="15.54861">
        <ele>188.42</ele>
      </trkpt>
      <trkpt lat="40.14275" lon="15.54838">
        <ele>193.44</ele>
      </trkpt>
      <trkpt lat="40.14271" lon="15.54826">
        <ele>195.37</ele>
      </trkpt>
      <trkpt lat="40.14262" lon="15.54818">
        <ele>194.77</ele>
      </trkpt>
      <trkpt lat="40.14257" lon="15.54801">
        <ele>195.51</ele>
      </trkpt>
      <trkpt lat="40.14257" lon="15.54801">
        <ele>195.51</ele>
      </trkpt>
      <trkpt lat="40.14257" lon="15.54801">
        <ele>195.51</ele>
      </trkpt>
      <trkpt lat="40.14247" lon="15.548">
        <ele>192.72</ele>
      </trkpt>
      <trkpt lat="40.14244" lon="15.54799">
        <ele>192.27</ele>
      </trkpt>
      <trkpt lat="40.1423" lon="15.54773">
        <ele>189.85</ele>
      </trkpt>
      <trkpt lat="40.14225" lon="15.5476">
        <ele>189.24</ele>
      </trkpt>
      <trkpt lat="40.14206" lon="15.54734">
        <ele>188.88</ele>
      </trkpt>
      <trkpt lat="40.14203" lon="15.54732">
        <ele>188.62</ele>
      </trkpt>
      <trkpt lat="40.14194" lon="15.5473">
        <ele>187.35</ele>
      </trkpt>
      <trkpt lat="40.14181" lon="15.54724">
        <ele>185.03</ele>
      </trkpt>
      <trkpt lat="40.14169" lon="15.54722">
        <ele>182.52</ele>
      </trkpt>
      <trkpt lat="40.14153" lon="15.54723">
        <ele>180.57</ele>
      </trkpt>
      <trkpt lat="40.14144" lon="15.54725">
        <ele>179.8</ele>
      </trkpt>
      <trkpt lat="40.14138" lon="15.54724">
        <ele>179.22</ele>
      </trkpt>
      <trkpt lat="40.14127" lon="15.54714">
        <ele>179.6</ele>
      </trkpt>
      <trkpt lat="40.14096" lon="15.54703">
        <ele>177.62</ele>
      </trkpt>
      <trkpt lat="40.14088" lon="15.54696">
        <ele>175.93</ele>
      </trkpt>
      <trkpt lat="40.14079" lon="15.54678">
        <ele>172.63</ele>
      </trkpt>
      <trkpt lat="40.14073" lon="15.54662">
        <ele>170.72</ele>
      </trkpt>
      <trkpt lat="40.14063" lon="15.54659">
        <ele>168.74</ele>
      </trkpt>
      <trkpt lat="40.14058" lon="15.54657">
        <ele>167.81</ele>
      </trkpt>
      <trkpt lat="40.14049" lon="15.5466">
        <ele>166.41</ele>
      </trkpt>
      <trkpt lat="40.14035" lon="15.54673">
        <ele>163.08</ele>
      </trkpt>
      <trkpt lat="40.14028" lon="15.54685">
        <ele>159.75</ele>
      </trkpt>
      <trkpt lat="40.14027" lon="15.54723">
        <ele>158.92</ele>
      </trkpt>
      <trkpt lat="40.14023" lon="15.54739">
        <ele>157.95</ele>
      </trkpt>
      <trkpt lat="40.14019" lon="15.54742">
        <ele>157.43</ele>
      </trkpt>
      <trkpt lat="40.14007" lon="15.54748">
        <ele>155.88</ele>
      </trkpt>
      <trkpt lat="40.14001" lon="15.54753">
        <ele>154.9</ele>
      </trkpt>
      <trkpt lat="40.14001" lon="15.54753">
        <ele>154.9</ele>
      </trkpt>
      <trkpt lat="40.14001" lon="15.54753">
        <ele>154.9</ele>
      </trkpt>
      <trkpt lat="40.13954" lon="15.54802">
        <ele>144.84</ele>
      </trkpt>
      <trkpt lat="40.13944" lon="15.54815">
        <ele>142.64</ele>
      </trkpt>
      <trkpt lat="40.13942" lon="15.5484">
        <ele>141.63</ele>
      </trkpt>
      <trkpt lat="40.13936" lon="15.54861">
        <ele>140.09</ele>
      </trkpt>
      <trkpt lat="40.1393" lon="15.5487">
        <ele>137.52</ele>
      </trkpt>
      <trkpt lat="40.13918" lon="15.54877">
        <ele>134.71</ele>
      </trkpt>
      <trkpt lat="40.13901" lon="15.54884">
        <ele>131.0</ele>
      </trkpt>
      <trkpt lat="40.13893" lon="15.54885">
        <ele>129.67</ele>
      </trkpt>
      <trkpt lat="40.1387" lon="15.54881">
        <ele>126.49</ele>
      </trkpt>
      <trkpt lat="40.13859" lon="15.54883">
        <ele>124.33</ele>
      </trkpt>
      <trkpt lat="40.13827" lon="15.5491">
        <ele>117.09</ele>
      </trkpt>
      <trkpt lat="40.13814" lon="15.54929">
        <ele>112.42</ele>
      </trkpt>
      <trkpt lat="40.13774" lon="15.5495">
        <ele>101.99</ele>
      </trkpt>
      <trkpt lat="40.13758" lon="15.54951">
        <ele>100.16</ele>
      </trkpt>
      <trkpt lat="40.13753" lon="15.54949">
        <ele>99.83</ele>
      </trkpt>
      <trkpt lat="40.1374" lon="15.5494">
        <ele>99.46</ele>
      </trkpt>
      <trkpt lat="40.13717" lon="15.54927">
        <ele>98.97</ele>
      </trkpt>
      <trkpt lat="40.13689" lon="15.54888">
        <ele>100.49</ele>
      </trkpt>
      <trkpt lat="40.1366" lon="15.54833">
        <ele>101.54</ele>
      </trkpt>
      <trkpt lat="40.13653" lon="15.54815">
        <ele>101.7</ele>
      </trkpt>
      <trkpt lat="40.13653" lon="15.54806">
        <ele>102.03</ele>
      </trkpt>
      <trkpt lat="40.13653" lon="15.54806">
        <ele>102.03</ele>
      </trkpt>
      <trkpt lat="40.13653" lon="15.54806">
        <ele>102.03</ele>
      </trkpt>
      <trkpt lat="40.13653" lon="15.54799">
        <ele>102.52</ele>
      </trkpt>
      <trkpt lat="40.13651" lon="15.54783">
        <ele>103.14</ele>
      </trkpt>
      <trkpt lat="40.13638" lon="15.54748">
        <ele>103.09</ele>
      </trkpt>
      <trkpt lat="40.13633" lon="15.54742">
        <ele>102.7</ele>
      </trkpt>
      <trkpt lat="40.13623" lon="15.54738">
        <ele>100.55</ele>
      </trkpt>
      <trkpt lat="40.1362" lon="15.54733">
        <ele>100.12</ele>
      </trkpt>
      <trkpt lat="40.13616" lon="15.54728">
        <ele>99.27</ele>
      </trkpt>
      <trkpt lat="40.13612" lon="15.54715">
        <ele>99.59</ele>
      </trkpt>
      <trkpt lat="40.13607" lon="15.54703">
        <ele>100.16</ele>
      </trkpt>
      <trkpt lat="40.13592" lon="15.54693">
        <ele>96.28</ele>
      </trkpt>
      <trkpt lat="40.13567" lon="15.54661">
        <ele>93.17</ele>
      </trkpt>
      <trkpt lat="40.13554" lon="15.54622">
        <ele>91.16</ele>
      </trkpt>
      <trkpt lat="40.13536" lon="15.546">
        <ele>87.05</ele>
      </trkpt>
      <trkpt lat="40.13521" lon="15.54567">
        <ele>86.54</ele>
      </trkpt>
      <trkpt lat="40.13502" lon="15.54538">
        <ele>85.53</ele>
      </trkpt>
      <trkpt lat="40.13492" lon="15.54516">
        <ele>85.41</ele>
      </trkpt>
      <trkpt lat="40.13479" lon="15.54495">
        <ele>84.99</ele>
      </trkpt>
      <trkpt lat="40.13456" lon="15.54465">
        <ele>87.52</ele>
      </trkpt>
      <trkpt lat="40.1344" lon="15.54439">
        <ele>86.97</ele>
      </trkpt>
      <trkpt lat="40.13433" lon="15.54427">
        <ele>86.74</ele>
      </trkpt>
      <trkpt lat="40.13417" lon="15.5441">
        <ele>85.3</ele>
      </trkpt>
      <trkpt lat="40.13417" lon="15.54395">
        <ele>83.69</ele>
      </trkpt>
      <trkpt lat="40.13412" lon="15.54398">
        <ele>83.65</ele>
      </trkpt>
      <trkpt lat="40.13406" lon="15.54394">
        <ele>82.78</ele>
      </trkpt>
    </trkseg>
  </trk>
</gpx>
